<?xml version="1.0" encoding="UTF-8"?>
<!-- track-length = 61997 filtered ascend = 29 plain-ascend = -3 cost=61997 energy=0.8kwh time=1h 22m 40s -->
<gpx 
 xmlns="http://www.topografix.com/GPX/1/1" 
 xmlns:xsi="http://www.w3.org/2001/XMLSchema-instance" 
 xsi:schemaLocation="http://www.topografix.com/GPX/1/1 http://www.topografix.com/GPX/1/1/gpx.xsd" 
 version="1.1" 
 creator="BRouter-Web 0.18.1">
 <trk>
  <name>Amsterdam -&gt; Rotterdam (62km)</name>
  <trkseg>
   <trkpt lat="52.338819" lon="4.873193"><ele>6.5</ele></trkpt>
   <trkpt lat="52.338817" lon="4.873125"><ele>6.5</ele></trkpt>
   <trkpt lat="52.338816" lon="4.873113"><ele>6.5</ele></trkpt>
   <trkpt lat="52.338807" lon="4.872872"><ele>6.5</ele></trkpt>
   <trkpt lat="52.338792" lon="4.872519"><ele>6.5</ele></trkpt>
   <trkpt lat="52.338762" lon="4.871764"><ele>6.5</ele></trkpt>
   <trkpt lat="52.33873" lon="4.870979"><ele>7</ele></trkpt>
   <trkpt lat="52.338726" lon="4.870875"><ele>6.75</ele></trkpt>
   <trkpt lat="52.338721" lon="4.870771"><ele>6.75</ele></trkpt>
   <trkpt lat="52.338696" lon="4.870165"><ele>6.25</ele></trkpt>
   <trkpt lat="52.338683" lon="4.86986"><ele>6</ele></trkpt>
   <trkpt lat="52.338664" lon="4.869385"><ele>6</ele></trkpt>
   <trkpt lat="52.338657" lon="4.869238"><ele>5</ele></trkpt>
   <trkpt lat="52.338657" lon="4.869235"><ele>5</ele></trkpt>
   <trkpt lat="52.338656" lon="4.869214"><ele>5</ele></trkpt>
   <trkpt lat="52.338651" lon="4.869077"><ele>5</ele></trkpt>
   <trkpt lat="52.33865" lon="4.869052"><ele>5</ele></trkpt>
   <trkpt lat="52.33865" lon="4.869045"><ele>5</ele></trkpt>
   <trkpt lat="52.338621" lon="4.868169"><ele>5.5</ele></trkpt>
   <trkpt lat="52.338588" lon="4.867319"><ele>6</ele></trkpt>
   <trkpt lat="52.338583" lon="4.867186"><ele>6</ele></trkpt>
   <trkpt lat="52.338522" lon="4.86629"><ele>6</ele></trkpt>
   <trkpt lat="52.338505" lon="4.866097"><ele>6</ele></trkpt>
   <trkpt lat="52.338461" lon="4.865397"><ele>6.25</ele></trkpt>
   <trkpt lat="52.338447" lon="4.865058"><ele>6.25</ele></trkpt>
   <trkpt lat="52.338367" lon="4.863355"><ele>6</ele></trkpt>
   <trkpt lat="52.338233" lon="4.861644"><ele>6</ele></trkpt>
   <trkpt lat="52.338192" lon="4.860789"><ele>6.25</ele></trkpt>
   <trkpt lat="52.338185" lon="4.860651"><ele>6.25</ele></trkpt>
   <trkpt lat="52.338167" lon="4.860277"><ele>6</ele></trkpt>
   <trkpt lat="52.338145" lon="4.859813"><ele>6.5</ele></trkpt>
   <trkpt lat="52.338058" lon="4.858131"><ele>2.25</ele></trkpt>
   <trkpt lat="52.338004" lon="4.857093"><ele>3</ele></trkpt>
   <trkpt lat="52.337881" lon="4.854692"><ele>7</ele></trkpt>
   <trkpt lat="52.337834" lon="4.853781"><ele>4.75</ele></trkpt>
   <trkpt lat="52.337816" lon="4.853337"><ele>6.75</ele></trkpt>
   <trkpt lat="52.337769" lon="4.851989"><ele>7.75</ele></trkpt>
   <trkpt lat="52.337712" lon="4.850381"><ele>8</ele></trkpt>
   <trkpt lat="52.337615" lon="4.848359"><ele>4.75</ele></trkpt>
   <trkpt lat="52.337552" lon="4.84717"><ele>1</ele></trkpt>
   <trkpt lat="52.337539" lon="4.846932"><ele>1</ele></trkpt>
   <trkpt lat="52.3375" lon="4.846182"><ele>5.25</ele></trkpt>
   <trkpt lat="52.33746" lon="4.845102"><ele>8.75</ele></trkpt>
   <trkpt lat="52.337452" lon="4.844465"><ele>8.25</ele></trkpt>
   <trkpt lat="52.337456" lon="4.84374"><ele>8.25</ele></trkpt>
   <trkpt lat="52.337476" lon="4.842987"><ele>8.75</ele></trkpt>
   <trkpt lat="52.337511" lon="4.842269"><ele>8.75</ele></trkpt>
   <trkpt lat="52.337525" lon="4.842007"><ele>8</ele></trkpt>
   <trkpt lat="52.337609" lon="4.840946"><ele>7.25</ele></trkpt>
   <trkpt lat="52.337654" lon="4.840504"><ele>7</ele></trkpt>
   <trkpt lat="52.337706" lon="4.840065"><ele>6.75</ele></trkpt>
   <trkpt lat="52.337858" lon="4.838746"><ele>5.75</ele></trkpt>
   <trkpt lat="52.338091" lon="4.836755"><ele>6</ele></trkpt>
   <trkpt lat="52.338175" lon="4.835956"><ele>5.5</ele></trkpt>
   <trkpt lat="52.338241" lon="4.835177"><ele>5.5</ele></trkpt>
   <trkpt lat="52.338292" lon="4.834364"><ele>5.75</ele></trkpt>
   <trkpt lat="52.338328" lon="4.83355"><ele>5.75</ele></trkpt>
   <trkpt lat="52.338351" lon="4.832738"><ele>5.5</ele></trkpt>
   <trkpt lat="52.338362" lon="4.831895"><ele>5.5</ele></trkpt>
   <trkpt lat="52.33836" lon="4.83053"><ele>6.5</ele></trkpt>
   <trkpt lat="52.33836" lon="4.830503"><ele>6.5</ele></trkpt>
   <trkpt lat="52.338358" lon="4.829596"><ele>6.5</ele></trkpt>
   <trkpt lat="52.338356" lon="4.828629"><ele>6</ele></trkpt>
   <trkpt lat="52.338356" lon="4.82734"><ele>5.75</ele></trkpt>
   <trkpt lat="52.338373" lon="4.825463"><ele>5.25</ele></trkpt>
   <trkpt lat="52.338403" lon="4.823954"><ele>5.25</ele></trkpt>
   <trkpt lat="52.338428" lon="4.822702"><ele>5.5</ele></trkpt>
   <trkpt lat="52.338438" lon="4.822151"><ele>5</ele></trkpt>
   <trkpt lat="52.338443" lon="4.821872"><ele>4</ele></trkpt>
   <trkpt lat="52.338445" lon="4.821677"><ele>2.5</ele></trkpt>
   <trkpt lat="52.338448" lon="4.821511"><ele>3.5</ele></trkpt>
   <trkpt lat="52.338455" lon="4.819225"><ele>5.25</ele></trkpt>
   <trkpt lat="52.338455" lon="4.819179"><ele>5.25</ele></trkpt>
   <trkpt lat="52.338453" lon="4.81842"><ele>5.25</ele></trkpt>
   <trkpt lat="52.338448" lon="4.818031"><ele>5.25</ele></trkpt>
   <trkpt lat="52.338429" lon="4.817357"><ele>5.5</ele></trkpt>
   <trkpt lat="52.338405" lon="4.816872"><ele>5.75</ele></trkpt>
   <trkpt lat="52.338346" lon="4.816087"><ele>5.75</ele></trkpt>
   <trkpt lat="52.33828" lon="4.815457"><ele>5.5</ele></trkpt>
   <trkpt lat="52.338217" lon="4.814951"><ele>5.5</ele></trkpt>
   <trkpt lat="52.338167" lon="4.814608"><ele>5.5</ele></trkpt>
   <trkpt lat="52.338064" lon="4.813991"><ele>5.5</ele></trkpt>
   <trkpt lat="52.337958" lon="4.813441"><ele>5.5</ele></trkpt>
   <trkpt lat="52.337845" lon="4.812934"><ele>5.75</ele></trkpt>
   <trkpt lat="52.3378" lon="4.812745"><ele>5.75</ele></trkpt>
   <trkpt lat="52.337754" lon="4.812558"><ele>5.75</ele></trkpt>
   <trkpt lat="52.337609" lon="4.812021"><ele>5.75</ele></trkpt>
   <trkpt lat="52.337452" lon="4.811494"><ele>5.5</ele></trkpt>
   <trkpt lat="52.337302" lon="4.811036"><ele>6</ele></trkpt>
   <trkpt lat="52.337158" lon="4.81063"><ele>5.5</ele></trkpt>
   <trkpt lat="52.337026" lon="4.810281"><ele>5.75</ele></trkpt>
   <trkpt lat="52.336785" lon="4.809697"><ele>6.25</ele></trkpt>
   <trkpt lat="52.336456" lon="4.808984"><ele>6.5</ele></trkpt>
   <trkpt lat="52.336085" lon="4.808274"><ele>6.75</ele></trkpt>
   <trkpt lat="52.335699" lon="4.807598"><ele>6.75</ele></trkpt>
   <trkpt lat="52.335104" lon="4.806613"><ele>7</ele></trkpt>
   <trkpt lat="52.333476" lon="4.803958"><ele>7</ele></trkpt>
   <trkpt lat="52.333088" lon="4.803324"><ele>7</ele></trkpt>
   <trkpt lat="52.332458" lon="4.802295"><ele>7</ele></trkpt>
   <trkpt lat="52.33082" lon="4.799618"><ele>7</ele></trkpt>
   <trkpt lat="52.330464" lon="4.799006"><ele>6.75</ele></trkpt>
   <trkpt lat="52.33019" lon="4.798511"><ele>6</ele></trkpt>
   <trkpt lat="52.329762" lon="4.797689"><ele>5</ele></trkpt>
   <trkpt lat="52.329495" lon="4.797144"><ele>4.25</ele></trkpt>
   <trkpt lat="52.329128" lon="4.796348"><ele>3</ele></trkpt>
   <trkpt lat="52.328852" lon="4.79571"><ele>2.25</ele></trkpt>
   <trkpt lat="52.328676" lon="4.795284"><ele>1.75</ele></trkpt>
   <trkpt lat="52.328436" lon="4.794676"><ele>1</ele></trkpt>
   <trkpt lat="52.328253" lon="4.794188"><ele>0.25</ele></trkpt>
   <trkpt lat="52.328048" lon="4.793611"><ele>0</ele></trkpt>
   <trkpt lat="52.327834" lon="4.792948"><ele>-0.75</ele></trkpt>
   <trkpt lat="52.327608" lon="4.792173"><ele>-1.75</ele></trkpt>
   <trkpt lat="52.327444" lon="4.791567"><ele>-1.75</ele></trkpt>
   <trkpt lat="52.327251" lon="4.79082"><ele>-2.75</ele></trkpt>
   <trkpt lat="52.327234" lon="4.790752"><ele>-2.75</ele></trkpt>
   <trkpt lat="52.326925" lon="4.789501"><ele>-4.5</ele></trkpt>
   <trkpt lat="52.326728" lon="4.788616"><ele>-3</ele></trkpt>
   <trkpt lat="52.326539" lon="4.787682"><ele>-3</ele></trkpt>
   <trkpt lat="52.326296" lon="4.786371"><ele>-4.25</ele></trkpt>
   <trkpt lat="52.326287" lon="4.78632"><ele>-4</ele></trkpt>
   <trkpt lat="52.326279" lon="4.786277"><ele>-3.75</ele></trkpt>
   <trkpt lat="52.32626" lon="4.78618"><ele>-3.5</ele></trkpt>
   <trkpt lat="52.326252" lon="4.786139"><ele>-3.5</ele></trkpt>
   <trkpt lat="52.326233" lon="4.786042"><ele>-3.5</ele></trkpt>
   <trkpt lat="52.326223" lon="4.785996"><ele>-3.5</ele></trkpt>
   <trkpt lat="52.326204" lon="4.785899"><ele>-3.75</ele></trkpt>
   <trkpt lat="52.326195" lon="4.785856"><ele>-3.75</ele></trkpt>
   <trkpt lat="52.326176" lon="4.785761"><ele>-3.5</ele></trkpt>
   <trkpt lat="52.326167" lon="4.785717"><ele>-3.25</ele></trkpt>
   <trkpt lat="52.326147" lon="4.785622"><ele>-3</ele></trkpt>
   <trkpt lat="52.326138" lon="4.785579"><ele>-3</ele></trkpt>
   <trkpt lat="52.326129" lon="4.785535"><ele>-3</ele></trkpt>
   <trkpt lat="52.325997" lon="4.784943"><ele>-3</ele></trkpt>
   <trkpt lat="52.325863" lon="4.784397"><ele>-3</ele></trkpt>
   <trkpt lat="52.325619" lon="4.783501"><ele>-3</ele></trkpt>
   <trkpt lat="52.325474" lon="4.783016"><ele>-3</ele></trkpt>
   <trkpt lat="52.325248" lon="4.782324"><ele>-3</ele></trkpt>
   <trkpt lat="52.325091" lon="4.781874"><ele>-3</ele></trkpt>
   <trkpt lat="52.324919" lon="4.781413"><ele>-3</ele></trkpt>
   <trkpt lat="52.324741" lon="4.780959"><ele>-3</ele></trkpt>
   <trkpt lat="52.324555" lon="4.780514"><ele>-3</ele></trkpt>
   <trkpt lat="52.32436" lon="4.780073"><ele>-3</ele></trkpt>
   <trkpt lat="52.324146" lon="4.779617"><ele>-3</ele></trkpt>
   <trkpt lat="52.323914" lon="4.779148"><ele>-3</ele></trkpt>
   <trkpt lat="52.323758" lon="4.778849"><ele>-3</ele></trkpt>
   <trkpt lat="52.323457" lon="4.778302"><ele>-3</ele></trkpt>
   <trkpt lat="52.323207" lon="4.777878"><ele>-3</ele></trkpt>
   <trkpt lat="52.322972" lon="4.777499"><ele>-3</ele></trkpt>
   <trkpt lat="52.322797" lon="4.77723"><ele>-3</ele></trkpt>
   <trkpt lat="52.322528" lon="4.776837"><ele>-3</ele></trkpt>
   <trkpt lat="52.32216" lon="4.776332"><ele>-3</ele></trkpt>
   <trkpt lat="52.321659" lon="4.775706"><ele>-3</ele></trkpt>
   <trkpt lat="52.321235" lon="4.775223"><ele>-3</ele></trkpt>
   <trkpt lat="52.320573" lon="4.774512"><ele>-3</ele></trkpt>
   <trkpt lat="52.318577" lon="4.772376"><ele>-3</ele></trkpt>
   <trkpt lat="52.315939" lon="4.769553"><ele>-3.25</ele></trkpt>
   <trkpt lat="52.315871" lon="4.769481"><ele>-3.25</ele></trkpt>
   <trkpt lat="52.314745" lon="4.768276"><ele>-3.25</ele></trkpt>
   <trkpt lat="52.313406" lon="4.766845"><ele>-3.25</ele></trkpt>
   <trkpt lat="52.312797" lon="4.766194"><ele>-3.25</ele></trkpt>
   <trkpt lat="52.311604" lon="4.764914"><ele>-3.25</ele></trkpt>
   <trkpt lat="52.3116" lon="4.76491"><ele>-3.25</ele></trkpt>
   <trkpt lat="52.311418" lon="4.764712"><ele>-3.25</ele></trkpt>
   <trkpt lat="52.311413" lon="4.764707"><ele>-3.25</ele></trkpt>
   <trkpt lat="52.311409" lon="4.764703"><ele>-3.25</ele></trkpt>
   <trkpt lat="52.311168" lon="4.764442"><ele>-3.25</ele></trkpt>
   <trkpt lat="52.310885" lon="4.764116"><ele>-3.25</ele></trkpt>
   <trkpt lat="52.310464" lon="4.763613"><ele>-3.25</ele></trkpt>
   <trkpt lat="52.310376" lon="4.763506"><ele>-3.25</ele></trkpt>
   <trkpt lat="52.310303" lon="4.763415"><ele>-3.25</ele></trkpt>
   <trkpt lat="52.310237" lon="4.763334"><ele>-3.25</ele></trkpt>
   <trkpt lat="52.310197" lon="4.763283"><ele>-3.25</ele></trkpt>
   <trkpt lat="52.310151" lon="4.763225"><ele>-3.25</ele></trkpt>
   <trkpt lat="52.309994" lon="4.763026"><ele>-3.25</ele></trkpt>
   <trkpt lat="52.30998" lon="4.763009"><ele>-3.25</ele></trkpt>
   <trkpt lat="52.309811" lon="4.762792"><ele>-3.25</ele></trkpt>
   <trkpt lat="52.309581" lon="4.762498"><ele>-3.25</ele></trkpt>
   <trkpt lat="52.309528" lon="4.762429"><ele>-3.25</ele></trkpt>
   <trkpt lat="52.309277" lon="4.762107"><ele>-3.25</ele></trkpt>
   <trkpt lat="52.308971" lon="4.761716"><ele>-3.5</ele></trkpt>
   <trkpt lat="52.308716" lon="4.761388"><ele>-3.5</ele></trkpt>
   <trkpt lat="52.30836" lon="4.760931"><ele>-3.5</ele></trkpt>
   <trkpt lat="52.308228" lon="4.760761"><ele>-3.5</ele></trkpt>
   <trkpt lat="52.307981" lon="4.760433"><ele>-3.5</ele></trkpt>
   <trkpt lat="52.307536" lon="4.759803"><ele>-3.5</ele></trkpt>
   <trkpt lat="52.307384" lon="4.759574"><ele>-3.5</ele></trkpt>
   <trkpt lat="52.307367" lon="4.759548"><ele>-3.5</ele></trkpt>
   <trkpt lat="52.307171" lon="4.759243"><ele>-3.5</ele></trkpt>
   <trkpt lat="52.30687" lon="4.758749"><ele>-3.5</ele></trkpt>
   <trkpt lat="52.306548" lon="4.75819"><ele>-3.5</ele></trkpt>
   <trkpt lat="52.306357" lon="4.75785"><ele>-3.5</ele></trkpt>
   <trkpt lat="52.306298" lon="4.757741"><ele>-3.5</ele></trkpt>
   <trkpt lat="52.30615" lon="4.75747"><ele>-3.5</ele></trkpt>
   <trkpt lat="52.306148" lon="4.757466"><ele>-3.5</ele></trkpt>
   <trkpt lat="52.305765" lon="4.756734"><ele>-3.5</ele></trkpt>
   <trkpt lat="52.305424" lon="4.756033"><ele>-3.5</ele></trkpt>
   <trkpt lat="52.305207" lon="4.755554"><ele>-3.5</ele></trkpt>
   <trkpt lat="52.304945" lon="4.754938"><ele>-3.5</ele></trkpt>
   <trkpt lat="52.304941" lon="4.754929"><ele>-3.5</ele></trkpt>
   <trkpt lat="52.304821" lon="4.75463"><ele>-3.5</ele></trkpt>
   <trkpt lat="52.304019" lon="4.75255"><ele>-3.5</ele></trkpt>
   <trkpt lat="52.303648" lon="4.751585"><ele>-3.5</ele></trkpt>
   <trkpt lat="52.303646" lon="4.75158"><ele>-3.5</ele></trkpt>
   <trkpt lat="52.303604" lon="4.751468"><ele>-3.5</ele></trkpt>
   <trkpt lat="52.303571" lon="4.751384"><ele>-3.5</ele></trkpt>
   <trkpt lat="52.302095" lon="4.747543"><ele>-3.5</ele></trkpt>
   <trkpt lat="52.30062" lon="4.743707"><ele>-3.75</ele></trkpt>
   <trkpt lat="52.300295" lon="4.74284"><ele>-3.75</ele></trkpt>
   <trkpt lat="52.299929" lon="4.741813"><ele>-3.75</ele></trkpt>
   <trkpt lat="52.299466" lon="4.740421"><ele>-3.75</ele></trkpt>
   <trkpt lat="52.299246" lon="4.739712"><ele>-3.75</ele></trkpt>
   <trkpt lat="52.298924" lon="4.738619"><ele>-3.75</ele></trkpt>
   <trkpt lat="52.29868" lon="4.737731"><ele>-3.75</ele></trkpt>
   <trkpt lat="52.298528" lon="4.737147"><ele>-3.75</ele></trkpt>
   <trkpt lat="52.298264" lon="4.736082"><ele>-3.75</ele></trkpt>
   <trkpt lat="52.297914" lon="4.734522"><ele>-3.75</ele></trkpt>
   <trkpt lat="52.297641" lon="4.733159"><ele>-3.75</ele></trkpt>
   <trkpt lat="52.297526" lon="4.732541"><ele>-3.75</ele></trkpt>
   <trkpt lat="52.297384" lon="4.731727"><ele>-3.75</ele></trkpt>
   <trkpt lat="52.297282" lon="4.731099"><ele>-3.75</ele></trkpt>
   <trkpt lat="52.297144" lon="4.730176"><ele>-3.75</ele></trkpt>
   <trkpt lat="52.297141" lon="4.730152"><ele>-4</ele></trkpt>
   <trkpt lat="52.297135" lon="4.730109"><ele>-4</ele></trkpt>
   <trkpt lat="52.29713" lon="4.730074"><ele>-4</ele></trkpt>
   <trkpt lat="52.297124" lon="4.730032"><ele>-4</ele></trkpt>
   <trkpt lat="52.297101" lon="4.729862"><ele>-4</ele></trkpt>
   <trkpt lat="52.297095" lon="4.72982"><ele>-4</ele></trkpt>
   <trkpt lat="52.29709" lon="4.729785"><ele>-4</ele></trkpt>
   <trkpt lat="52.297085" lon="4.729745"><ele>-4</ele></trkpt>
   <trkpt lat="52.297061" lon="4.729574"><ele>-4.25</ele></trkpt>
   <trkpt lat="52.297056" lon="4.729536"><ele>-4.5</ele></trkpt>
   <trkpt lat="52.297051" lon="4.729499"><ele>-4.5</ele></trkpt>
   <trkpt lat="52.297046" lon="4.729463"><ele>-4.5</ele></trkpt>
   <trkpt lat="52.297043" lon="4.729442"><ele>-4.5</ele></trkpt>
   <trkpt lat="52.29691" lon="4.728389"><ele>-7.5</ele></trkpt>
   <trkpt lat="52.296838" lon="4.727738"><ele>-4.5</ele></trkpt>
   <trkpt lat="52.296707" lon="4.726413"><ele>-4.75</ele></trkpt>
   <trkpt lat="52.296624" lon="4.725386"><ele>-4.75</ele></trkpt>
   <trkpt lat="52.296562" lon="4.724483"><ele>-4</ele></trkpt>
   <trkpt lat="52.296488" lon="4.723343"><ele>-3.25</ele></trkpt>
   <trkpt lat="52.296318" lon="4.721152"><ele>-2.25</ele></trkpt>
   <trkpt lat="52.296275" lon="4.720453"><ele>-2</ele></trkpt>
   <trkpt lat="52.296226" lon="4.719433"><ele>-1.5</ele></trkpt>
   <trkpt lat="52.296205" lon="4.718989"><ele>-1.25</ele></trkpt>
   <trkpt lat="52.296066" lon="4.716126"><ele>0</ele></trkpt>
   <trkpt lat="52.296055" lon="4.715932"><ele>0</ele></trkpt>
   <trkpt lat="52.296008" lon="4.715212"><ele>0</ele></trkpt>
   <trkpt lat="52.295979" lon="4.714837"><ele>0.25</ele></trkpt>
   <trkpt lat="52.295921" lon="4.714119"><ele>0.5</ele></trkpt>
   <trkpt lat="52.295828" lon="4.713142"><ele>0.75</ele></trkpt>
   <trkpt lat="52.295722" lon="4.712265"><ele>0.75</ele></trkpt>
   <trkpt lat="52.295654" lon="4.711799"><ele>1</ele></trkpt>
   <trkpt lat="52.295547" lon="4.711136"><ele>1.75</ele></trkpt>
   <trkpt lat="52.29546" lon="4.710632"><ele>2</ele></trkpt>
   <trkpt lat="52.295449" lon="4.710569"><ele>2.25</ele></trkpt>
   <trkpt lat="52.29526" lon="4.709495"><ele>2.25</ele></trkpt>
   <trkpt lat="52.294997" lon="4.708094"><ele>1.75</ele></trkpt>
   <trkpt lat="52.294347" lon="4.704769"><ele>0</ele></trkpt>
   <trkpt lat="52.294221" lon="4.704153"><ele>-0.25</ele></trkpt>
   <trkpt lat="52.294104" lon="4.703632"><ele>-0.75</ele></trkpt>
   <trkpt lat="52.294018" lon="4.703272"><ele>-0.75</ele></trkpt>
   <trkpt lat="52.2939" lon="4.702804"><ele>-0.75</ele></trkpt>
   <trkpt lat="52.293714" lon="4.702126"><ele>-1</ele></trkpt>
   <trkpt lat="52.293529" lon="4.7015"><ele>-1.25</ele></trkpt>
   <trkpt lat="52.293304" lon="4.700794"><ele>-1.5</ele></trkpt>
   <trkpt lat="52.293095" lon="4.700185"><ele>-1.5</ele></trkpt>
   <trkpt lat="52.292825" lon="4.699455"><ele>-1.75</ele></trkpt>
   <trkpt lat="52.29274" lon="4.69924"><ele>-2</ele></trkpt>
   <trkpt lat="52.292633" lon="4.698969"><ele>-1.75</ele></trkpt>
   <trkpt lat="52.292588" lon="4.698856"><ele>-1.5</ele></trkpt>
   <trkpt lat="52.29241" lon="4.698414"><ele>-1.25</ele></trkpt>
   <trkpt lat="52.291828" lon="4.696958"><ele>-1.25</ele></trkpt>
   <trkpt lat="52.291511" lon="4.696174"><ele>-1.25</ele></trkpt>
   <trkpt lat="52.29121" lon="4.695474"><ele>-1.75</ele></trkpt>
   <trkpt lat="52.290904" lon="4.694801"><ele>-1.75</ele></trkpt>
   <trkpt lat="52.290595" lon="4.69415"><ele>-1.75</ele></trkpt>
   <trkpt lat="52.290334" lon="4.693607"><ele>-1.75</ele></trkpt>
   <trkpt lat="52.290006" lon="4.692922"><ele>-1.75</ele></trkpt>
   <trkpt lat="52.288282" lon="4.689327"><ele>-1.75</ele></trkpt>
   <trkpt lat="52.288278" lon="4.689318"><ele>-1.75</ele></trkpt>
   <trkpt lat="52.28814" lon="4.689042"><ele>-1.75</ele></trkpt>
   <trkpt lat="52.288088" lon="4.688938"><ele>-1.75</ele></trkpt>
   <trkpt lat="52.287841" lon="4.688455"><ele>-1.75</ele></trkpt>
   <trkpt lat="52.287412" lon="4.687648"><ele>-1.75</ele></trkpt>
   <trkpt lat="52.287012" lon="4.686905"><ele>-1.75</ele></trkpt>
   <trkpt lat="52.286042" lon="4.685111"><ele>-1.75</ele></trkpt>
   <trkpt lat="52.285665" lon="4.684447"><ele>-2</ele></trkpt>
   <trkpt lat="52.28525" lon="4.683743"><ele>-2</ele></trkpt>
   <trkpt lat="52.284895" lon="4.683165"><ele>-2.75</ele></trkpt>
   <trkpt lat="52.284553" lon="4.682629"><ele>-3.25</ele></trkpt>
   <trkpt lat="52.28406" lon="4.68189"><ele>-4</ele></trkpt>
   <trkpt lat="52.283687" lon="4.681353"><ele>-4</ele></trkpt>
   <trkpt lat="52.283076" lon="4.680515"><ele>-3.75</ele></trkpt>
   <trkpt lat="52.282518" lon="4.679793"><ele>-3</ele></trkpt>
   <trkpt lat="52.281364" lon="4.678347"><ele>-1.75</ele></trkpt>
   <trkpt lat="52.281024" lon="4.677908"><ele>-1.5</ele></trkpt>
   <trkpt lat="52.280234" lon="4.676846"><ele>-0.5</ele></trkpt>
   <trkpt lat="52.279611" lon="4.675967"><ele>0</ele></trkpt>
   <trkpt lat="52.279607" lon="4.675962"><ele>0</ele></trkpt>
   <trkpt lat="52.279235" lon="4.675423"><ele>0.5</ele></trkpt>
   <trkpt lat="52.279152" lon="4.6753"><ele>0.25</ele></trkpt>
   <trkpt lat="52.278648" lon="4.674565"><ele>-0.5</ele></trkpt>
   <trkpt lat="52.276932" lon="4.67206"><ele>-3.75</ele></trkpt>
   <trkpt lat="52.275685" lon="4.670241"><ele>-4</ele></trkpt>
   <trkpt lat="52.275258" lon="4.669617"><ele>-4</ele></trkpt>
   <trkpt lat="52.274503" lon="4.668515"><ele>-4</ele></trkpt>
   <trkpt lat="52.273966" lon="4.667732"><ele>-4</ele></trkpt>
   <trkpt lat="52.273501" lon="4.667053"><ele>-4.25</ele></trkpt>
   <trkpt lat="52.27222" lon="4.665186"><ele>-4</ele></trkpt>
   <trkpt lat="52.271117" lon="4.663575"><ele>-4</ele></trkpt>
   <trkpt lat="52.266472" lon="4.656799"><ele>-4.25</ele></trkpt>
   <trkpt lat="52.265421" lon="4.655265"><ele>-4.25</ele></trkpt>
   <trkpt lat="52.263449" lon="4.65239"><ele>-4.75</ele></trkpt>
   <trkpt lat="52.263212" lon="4.652045"><ele>-4.5</ele></trkpt>
   <trkpt lat="52.262305" lon="4.650723"><ele>-3.25</ele></trkpt>
   <trkpt lat="52.261835" lon="4.65005"><ele>-3.25</ele></trkpt>
   <trkpt lat="52.261394" lon="4.649421"><ele>-2</ele></trkpt>
   <trkpt lat="52.2606" lon="4.648317"><ele>-2</ele></trkpt>
   <trkpt lat="52.260011" lon="4.647524"><ele>-2</ele></trkpt>
   <trkpt lat="52.259241" lon="4.646533"><ele>-2</ele></trkpt>
   <trkpt lat="52.258619" lon="4.645761"><ele>-2</ele></trkpt>
   <trkpt lat="52.258345" lon="4.645428"><ele>-2</ele></trkpt>
   <trkpt lat="52.25742" lon="4.644348"><ele>-2</ele></trkpt>
   <trkpt lat="52.256678" lon="4.643522"><ele>-2</ele></trkpt>
   <trkpt lat="52.256223" lon="4.643037"><ele>-2</ele></trkpt>
   <trkpt lat="52.255585" lon="4.642372"><ele>-2.5</ele></trkpt>
   <trkpt lat="52.255111" lon="4.641894"><ele>-3.25</ele></trkpt>
   <trkpt lat="52.254516" lon="4.641312"><ele>-3.75</ele></trkpt>
   <trkpt lat="52.254056" lon="4.640879"><ele>-4.75</ele></trkpt>
   <trkpt lat="52.253808" lon="4.640648"><ele>-4.5</ele></trkpt>
   <trkpt lat="52.25286" lon="4.639802"><ele>-4.25</ele></trkpt>
   <trkpt lat="52.251911" lon="4.639002"><ele>-5</ele></trkpt>
   <trkpt lat="52.250925" lon="4.63822"><ele>-5</ele></trkpt>
   <trkpt lat="52.250027" lon="4.637547"><ele>-4</ele></trkpt>
   <trkpt lat="52.249439" lon="4.637128"><ele>-5</ele></trkpt>
   <trkpt lat="52.248639" lon="4.636583"><ele>-4.75</ele></trkpt>
   <trkpt lat="52.247864" lon="4.636085"><ele>-5</ele></trkpt>
   <trkpt lat="52.247413" lon="4.635807"><ele>-5</ele></trkpt>
   <trkpt lat="52.246283" lon="4.63515"><ele>-5</ele></trkpt>
   <trkpt lat="52.245693" lon="4.634829"><ele>-5</ele></trkpt>
   <trkpt lat="52.24485" lon="4.634397"><ele>-5</ele></trkpt>
   <trkpt lat="52.244283" lon="4.634122"><ele>-5</ele></trkpt>
   <trkpt lat="52.243369" lon="4.633706"><ele>-5</ele></trkpt>
   <trkpt lat="52.242306" lon="4.633264"><ele>-4.75</ele></trkpt>
   <trkpt lat="52.241377" lon="4.632916"><ele>-5</ele></trkpt>
   <trkpt lat="52.240949" lon="4.632765"><ele>-5</ele></trkpt>
   <trkpt lat="52.240374" lon="4.632578"><ele>-4.5</ele></trkpt>
   <trkpt lat="52.239229" lon="4.632237"><ele>-4</ele></trkpt>
   <trkpt lat="52.238513" lon="4.63205"><ele>-4.25</ele></trkpt>
   <trkpt lat="52.237169" lon="4.631731"><ele>-3</ele></trkpt>
   <trkpt lat="52.236096" lon="4.631503"><ele>-2.25</ele></trkpt>
   <trkpt lat="52.235083" lon="4.631295"><ele>-1.5</ele></trkpt>
   <trkpt lat="52.234453" lon="4.631166"><ele>-0.75</ele></trkpt>
   <trkpt lat="52.23209" lon="4.630685"><ele>-1</ele></trkpt>
   <trkpt lat="52.228664" lon="4.629986"><ele>-1.5</ele></trkpt>
   <trkpt lat="52.226435" lon="4.629528"><ele>-2</ele></trkpt>
   <trkpt lat="52.225889" lon="4.629418"><ele>-2.25</ele></trkpt>
   <trkpt lat="52.22516" lon="4.629272"><ele>-2.25</ele></trkpt>
   <trkpt lat="52.223598" lon="4.628934"><ele>-2.75</ele></trkpt>
   <trkpt lat="52.222334" lon="4.628627"><ele>-2.75</ele></trkpt>
   <trkpt lat="52.221715" lon="4.628458"><ele>-4.25</ele></trkpt>
   <trkpt lat="52.221015" lon="4.62825"><ele>-4.5</ele></trkpt>
   <trkpt lat="52.220117" lon="4.62796"><ele>-5.25</ele></trkpt>
   <trkpt lat="52.219485" lon="4.62774"><ele>-6.75</ele></trkpt>
   <trkpt lat="52.218288" lon="4.62728"><ele>-8</ele></trkpt>
   <trkpt lat="52.217411" lon="4.626916"><ele>-7</ele></trkpt>
   <trkpt lat="52.216717" lon="4.626603"><ele>-6.75</ele></trkpt>
   <trkpt lat="52.215986" lon="4.626259"><ele>-6.5</ele></trkpt>
   <trkpt lat="52.215075" lon="4.625794"><ele>-6.5</ele></trkpt>
   <trkpt lat="52.214661" lon="4.625577"><ele>-6.25</ele></trkpt>
   <trkpt lat="52.21384" lon="4.625122"><ele>-6.5</ele></trkpt>
   <trkpt lat="52.212809" lon="4.624513"><ele>-6.75</ele></trkpt>
   <trkpt lat="52.211984" lon="4.623995"><ele>-5.5</ele></trkpt>
   <trkpt lat="52.211262" lon="4.62352"><ele>-4.5</ele></trkpt>
   <trkpt lat="52.210706" lon="4.623138"><ele>-4</ele></trkpt>
   <trkpt lat="52.210058" lon="4.622677"><ele>-4</ele></trkpt>
   <trkpt lat="52.209056" lon="4.621929"><ele>-3</ele></trkpt>
   <trkpt lat="52.208291" lon="4.621329"><ele>-3.25</ele></trkpt>
   <trkpt lat="52.207409" lon="4.620602"><ele>-3.25</ele></trkpt>
   <trkpt lat="52.206475" lon="4.619792"><ele>-3</ele></trkpt>
   <trkpt lat="52.205452" lon="4.618871"><ele>-3</ele></trkpt>
   <trkpt lat="52.204983" lon="4.618438"><ele>-2.75</ele></trkpt>
   <trkpt lat="52.202134" lon="4.615789"><ele>-2.75</ele></trkpt>
   <trkpt lat="52.201993" lon="4.615658"><ele>-2.75</ele></trkpt>
   <trkpt lat="52.19985" lon="4.613663"><ele>-2.75</ele></trkpt>
   <trkpt lat="52.199511" lon="4.613346"><ele>-2.75</ele></trkpt>
   <trkpt lat="52.197548" lon="4.611516"><ele>-2.5</ele></trkpt>
   <trkpt lat="52.196759" lon="4.610782"><ele>-2.5</ele></trkpt>
   <trkpt lat="52.193387" lon="4.607639"><ele>-2.5</ele></trkpt>
   <trkpt lat="52.192599" lon="4.606888"><ele>-2.5</ele></trkpt>
   <trkpt lat="52.191661" lon="4.605966"><ele>-2.25</ele></trkpt>
   <trkpt lat="52.191185" lon="4.605479"><ele>-2.5</ele></trkpt>
   <trkpt lat="52.190657" lon="4.604919"><ele>-2.5</ele></trkpt>
   <trkpt lat="52.190158" lon="4.60437"><ele>-3.25</ele></trkpt>
   <trkpt lat="52.189439" lon="4.603552"><ele>-3</ele></trkpt>
   <trkpt lat="52.188868" lon="4.602869"><ele>-3.25</ele></trkpt>
   <trkpt lat="52.188289" lon="4.60215"><ele>-3.25</ele></trkpt>
   <trkpt lat="52.187916" lon="4.601673"><ele>-3</ele></trkpt>
   <trkpt lat="52.18751" lon="4.601138"><ele>-3</ele></trkpt>
   <trkpt lat="52.186863" lon="4.600253"><ele>-2.5</ele></trkpt>
   <trkpt lat="52.186421" lon="4.599627"><ele>-2.5</ele></trkpt>
   <trkpt lat="52.185863" lon="4.598807"><ele>-1.75</ele></trkpt>
   <trkpt lat="52.185111" lon="4.597647"><ele>-0.75</ele></trkpt>
   <trkpt lat="52.18449" lon="4.596645"><ele>0</ele></trkpt>
   <trkpt lat="52.184166" lon="4.596101"><ele>0</ele></trkpt>
   <trkpt lat="52.183689" lon="4.595279"><ele>0.5</ele></trkpt>
   <trkpt lat="52.183145" lon="4.594302"><ele>2.5</ele></trkpt>
   <trkpt lat="52.182976" lon="4.593987"><ele>3.25</ele></trkpt>
   <trkpt lat="52.182668" lon="4.59341"><ele>4.5</ele></trkpt>
   <trkpt lat="52.182207" lon="4.592513"><ele>4.5</ele></trkpt>
   <trkpt lat="52.181881" lon="4.591859"><ele>1.25</ele></trkpt>
   <trkpt lat="52.18139" lon="4.590837"><ele>3.75</ele></trkpt>
   <trkpt lat="52.181126" lon="4.590271"><ele>3.5</ele></trkpt>
   <trkpt lat="52.18071" lon="4.589349"><ele>2.5</ele></trkpt>
   <trkpt lat="52.180234" lon="4.588258"><ele>3.25</ele></trkpt>
   <trkpt lat="52.179521" lon="4.586567"><ele>1</ele></trkpt>
   <trkpt lat="52.178059" lon="4.582984"><ele>0.25</ele></trkpt>
   <trkpt lat="52.177731" lon="4.582183"><ele>0</ele></trkpt>
   <trkpt lat="52.177138" lon="4.580756"><ele>-0.5</ele></trkpt>
   <trkpt lat="52.176445" lon="4.579141"><ele>-1</ele></trkpt>
   <trkpt lat="52.176079" lon="4.578316"><ele>-1.5</ele></trkpt>
   <trkpt lat="52.175761" lon="4.577623"><ele>-1.25</ele></trkpt>
   <trkpt lat="52.175052" lon="4.576141"><ele>-1.25</ele></trkpt>
   <trkpt lat="52.174605" lon="4.575251"><ele>-1</ele></trkpt>
   <trkpt lat="52.173922" lon="4.573948"><ele>-1</ele></trkpt>
   <trkpt lat="52.173336" lon="4.572886"><ele>-0.25</ele></trkpt>
   <trkpt lat="52.172677" lon="4.571738"><ele>0.25</ele></trkpt>
   <trkpt lat="52.172261" lon="4.571046"><ele>0.5</ele></trkpt>
   <trkpt lat="52.171834" lon="4.570355"><ele>1</ele></trkpt>
   <trkpt lat="52.171086" lon="4.56919"><ele>1.75</ele></trkpt>
   <trkpt lat="52.170547" lon="4.568387"><ele>2.25</ele></trkpt>
   <trkpt lat="52.170165" lon="4.567836"><ele>2.75</ele></trkpt>
   <trkpt lat="52.169729" lon="4.567223"><ele>2.75</ele></trkpt>
   <trkpt lat="52.169278" lon="4.566608"><ele>1.75</ele></trkpt>
   <trkpt lat="52.168503" lon="4.565591"><ele>2</ele></trkpt>
   <trkpt lat="52.167711" lon="4.564605"><ele>2.25</ele></trkpt>
   <trkpt lat="52.166867" lon="4.563615"><ele>1.5</ele></trkpt>
   <trkpt lat="52.166573" lon="4.56328"><ele>1.25</ele></trkpt>
   <trkpt lat="52.166105" lon="4.562763"><ele>0.75</ele></trkpt>
   <trkpt lat="52.165864" lon="4.562505"><ele>0.5</ele></trkpt>
   <trkpt lat="52.165677" lon="4.562304"><ele>0.25</ele></trkpt>
   <trkpt lat="52.164961" lon="4.561563"><ele>-0.25</ele></trkpt>
   <trkpt lat="52.164158" lon="4.560775"><ele>-1</ele></trkpt>
   <trkpt lat="52.163608" lon="4.560259"><ele>-1.5</ele></trkpt>
   <trkpt lat="52.163113" lon="4.55981"><ele>-1.5</ele></trkpt>
   <trkpt lat="52.16231" lon="4.559113"><ele>-2.25</ele></trkpt>
   <trkpt lat="52.161357" lon="4.558335"><ele>-2.25</ele></trkpt>
   <trkpt lat="52.160209" lon="4.55746"><ele>-2.25</ele></trkpt>
   <trkpt lat="52.15955" lon="4.556992"><ele>-2.5</ele></trkpt>
   <trkpt lat="52.159085" lon="4.556673"><ele>-2.5</ele></trkpt>
   <trkpt lat="52.158443" lon="4.556254"><ele>-2.5</ele></trkpt>
   <trkpt lat="52.157428" lon="4.555633"><ele>-2.75</ele></trkpt>
   <trkpt lat="52.156672" lon="4.555202"><ele>-2.75</ele></trkpt>
   <trkpt lat="52.156144" lon="4.554917"><ele>-2.75</ele></trkpt>
   <trkpt lat="52.155678" lon="4.554674"><ele>-3</ele></trkpt>
   <trkpt lat="52.154663" lon="4.554174"><ele>-3</ele></trkpt>
   <trkpt lat="52.153329" lon="4.553609"><ele>-3.25</ele></trkpt>
   <trkpt lat="52.152605" lon="4.553327"><ele>-3.25</ele></trkpt>
   <trkpt lat="52.151766" lon="4.55303"><ele>-3.25</ele></trkpt>
   <trkpt lat="52.150802" lon="4.552733"><ele>-3.5</ele></trkpt>
   <trkpt lat="52.150274" lon="4.55258"><ele>-3.5</ele></trkpt>
   <trkpt lat="52.149514" lon="4.552388"><ele>-3.5</ele></trkpt>
   <trkpt lat="52.14879" lon="4.552221"><ele>-3.5</ele></trkpt>
   <trkpt lat="52.148317" lon="4.552127"><ele>-3.75</ele></trkpt>
   <trkpt lat="52.147437" lon="4.551974"><ele>-3.75</ele></trkpt>
   <trkpt lat="52.146976" lon="4.551909"><ele>-3.75</ele></trkpt>
   <trkpt lat="52.146074" lon="4.5518"><ele>-4</ele></trkpt>
   <trkpt lat="52.145364" lon="4.551741"><ele>-4</ele></trkpt>
   <trkpt lat="52.144206" lon="4.551685"><ele>-4</ele></trkpt>
   <trkpt lat="52.143609" lon="4.551679"><ele>-4.25</ele></trkpt>
   <trkpt lat="52.143005" lon="4.551685"><ele>-4.25</ele></trkpt>
   <trkpt lat="52.141873" lon="4.551735"><ele>-4.25</ele></trkpt>
   <trkpt lat="52.140619" lon="4.551837"><ele>-4.5</ele></trkpt>
   <trkpt lat="52.139329" lon="4.551979"><ele>-4.5</ele></trkpt>
   <trkpt lat="52.138255" lon="4.552115"><ele>-4.75</ele></trkpt>
   <trkpt lat="52.136185" lon="4.552406"><ele>-5</ele></trkpt>
   <trkpt lat="52.134218" lon="4.552717"><ele>-5.25</ele></trkpt>
   <trkpt lat="52.133317" lon="4.552872"><ele>-5.25</ele></trkpt>
   <trkpt lat="52.132232" lon="4.553072"><ele>-5.25</ele></trkpt>
   <trkpt lat="52.130946" lon="4.553316"><ele>-5.5</ele></trkpt>
   <trkpt lat="52.129008" lon="4.553716"><ele>-5.75</ele></trkpt>
   <trkpt lat="52.127939" lon="4.55395"><ele>-5.75</ele></trkpt>
   <trkpt lat="52.126886" lon="4.554194"><ele>-6</ele></trkpt>
   <trkpt lat="52.125338" lon="4.554569"><ele>-6</ele></trkpt>
   <trkpt lat="52.124875" lon="4.554685"><ele>-6.25</ele></trkpt>
   <trkpt lat="52.124848" lon="4.554692"><ele>-6.25</ele></trkpt>
   <trkpt lat="52.123205" lon="4.55512"><ele>-6.25</ele></trkpt>
   <trkpt lat="52.121051" lon="4.555721"><ele>-6.5</ele></trkpt>
   <trkpt lat="52.119612" lon="4.556147"><ele>-6.75</ele></trkpt>
   <trkpt lat="52.11786" lon="4.556692"><ele>-7</ele></trkpt>
   <trkpt lat="52.115412" lon="4.557494"><ele>-7.25</ele></trkpt>
   <trkpt lat="52.103518" lon="4.561477"><ele>-8.5</ele></trkpt>
   <trkpt lat="52.103018" lon="4.561644"><ele>-8.5</ele></trkpt>
   <trkpt lat="52.100611" lon="4.562452"><ele>-8.75</ele></trkpt>
   <trkpt lat="52.097846" lon="4.563366"><ele>-9</ele></trkpt>
   <trkpt lat="52.096941" lon="4.563676"><ele>-9.25</ele></trkpt>
   <trkpt lat="52.095874" lon="4.563995"><ele>-9.25</ele></trkpt>
   <trkpt lat="52.094236" lon="4.564436"><ele>-9.5</ele></trkpt>
   <trkpt lat="52.093204" lon="4.56466"><ele>-9.5</ele></trkpt>
   <trkpt lat="52.092497" lon="4.5648"><ele>-9.75</ele></trkpt>
   <trkpt lat="52.091381" lon="4.564991"><ele>-9.75</ele></trkpt>
   <trkpt lat="52.090314" lon="4.565136"><ele>-6</ele></trkpt>
   <trkpt lat="52.089275" lon="4.565244"><ele>-5</ele></trkpt>
   <trkpt lat="52.088303" lon="4.565315"><ele>-4</ele></trkpt>
   <trkpt lat="52.087791" lon="4.565343"><ele>-3.25</ele></trkpt>
   <trkpt lat="52.08705" lon="4.565369"><ele>-2.75</ele></trkpt>
   <trkpt lat="52.086163" lon="4.56538"><ele>-2</ele></trkpt>
   <trkpt lat="52.085529" lon="4.565378"><ele>-2</ele></trkpt>
   <trkpt lat="52.08483" lon="4.565364"><ele>-2</ele></trkpt>
   <trkpt lat="52.083783" lon="4.565312"><ele>-2</ele></trkpt>
   <trkpt lat="52.083468" lon="4.565292"><ele>-2</ele></trkpt>
   <trkpt lat="52.082505" lon="4.565206"><ele>-2.25</ele></trkpt>
   <trkpt lat="52.081297" lon="4.565059"><ele>-2.25</ele></trkpt>
   <trkpt lat="52.0806" lon="4.564954"><ele>-2.25</ele></trkpt>
   <trkpt lat="52.079879" lon="4.56483"><ele>-2.5</ele></trkpt>
   <trkpt lat="52.078661" lon="4.564583"><ele>-2</ele></trkpt>
   <trkpt lat="52.078195" lon="4.564477"><ele>-2</ele></trkpt>
   <trkpt lat="52.077475" lon="4.564303"><ele>-1.75</ele></trkpt>
   <trkpt lat="52.076518" lon="4.564043"><ele>-1.25</ele></trkpt>
   <trkpt lat="52.075611" lon="4.563767"><ele>-1.5</ele></trkpt>
   <trkpt lat="52.074895" lon="4.563532"><ele>-1.25</ele></trkpt>
   <trkpt lat="52.074741" lon="4.563478"><ele>-1.5</ele></trkpt>
   <trkpt lat="52.074022" lon="4.563225"><ele>-1.25</ele></trkpt>
   <trkpt lat="52.073449" lon="4.563009"><ele>-1.25</ele></trkpt>
   <trkpt lat="52.072729" lon="4.562723"><ele>-1.5</ele></trkpt>
   <trkpt lat="52.072083" lon="4.562452"><ele>-1.75</ele></trkpt>
   <trkpt lat="52.071077" lon="4.562002"><ele>-2</ele></trkpt>
   <trkpt lat="52.070342" lon="4.561652"><ele>-2.5</ele></trkpt>
   <trkpt lat="52.069612" lon="4.561285"><ele>-2.5</ele></trkpt>
   <trkpt lat="52.069314" lon="4.56113"><ele>-2.25</ele></trkpt>
   <trkpt lat="52.068598" lon="4.560746"><ele>-2.25</ele></trkpt>
   <trkpt lat="52.068092" lon="4.560463"><ele>-2.25</ele></trkpt>
   <trkpt lat="52.066958" lon="4.559794"><ele>-2</ele></trkpt>
   <trkpt lat="52.066297" lon="4.559384"><ele>-2</ele></trkpt>
   <trkpt lat="52.065666" lon="4.558977"><ele>-2</ele></trkpt>
   <trkpt lat="52.065455" lon="4.558836"><ele>-1.75</ele></trkpt>
   <trkpt lat="52.064913" lon="4.558471"><ele>-1.75</ele></trkpt>
   <trkpt lat="52.063826" lon="4.557703"><ele>-1.75</ele></trkpt>
   <trkpt lat="52.062651" lon="4.556819"><ele>-1.5</ele></trkpt>
   <trkpt lat="52.062118" lon="4.556399"><ele>-1.5</ele></trkpt>
   <trkpt lat="52.061275" lon="4.555712"><ele>-1.25</ele></trkpt>
   <trkpt lat="52.060628" lon="4.555166"><ele>-1.25</ele></trkpt>
   <trkpt lat="52.059856" lon="4.554489"><ele>-1.25</ele></trkpt>
   <trkpt lat="52.059083" lon="4.553784"><ele>-1.25</ele></trkpt>
   <trkpt lat="52.057998" lon="4.552749"><ele>-1.25</ele></trkpt>
   <trkpt lat="52.057244" lon="4.551994"><ele>-1.25</ele></trkpt>
   <trkpt lat="52.056486" lon="4.55121"><ele>-1.5</ele></trkpt>
   <trkpt lat="52.05566" lon="4.550321"><ele>-1.5</ele></trkpt>
   <trkpt lat="52.054835" lon="4.549396"><ele>-1.5</ele></trkpt>
   <trkpt lat="52.054579" lon="4.549101"><ele>-1.5</ele></trkpt>
   <trkpt lat="52.053807" lon="4.548193"><ele>-1.5</ele></trkpt>
   <trkpt lat="52.053113" lon="4.547347"><ele>-1.5</ele></trkpt>
   <trkpt lat="52.052023" lon="4.545962"><ele>-1.5</ele></trkpt>
   <trkpt lat="52.05071" lon="4.544244"><ele>-1.75</ele></trkpt>
   <trkpt lat="52.044732" lon="4.536358"><ele>-2</ele></trkpt>
   <trkpt lat="52.04436" lon="4.535867"><ele>-2</ele></trkpt>
   <trkpt lat="52.041083" lon="4.531547"><ele>-2.25</ele></trkpt>
   <trkpt lat="52.039967" lon="4.530096"><ele>-2.25</ele></trkpt>
   <trkpt lat="52.039212" lon="4.529138"><ele>-2.25</ele></trkpt>
   <trkpt lat="52.038711" lon="4.528521"><ele>-2.25</ele></trkpt>
   <trkpt lat="52.038174" lon="4.527876"><ele>-2.25</ele></trkpt>
   <trkpt lat="52.03739" lon="4.526971"><ele>-2.25</ele></trkpt>
   <trkpt lat="52.03654" lon="4.526032"><ele>-2.5</ele></trkpt>
   <trkpt lat="52.035901" lon="4.525358"><ele>-2.5</ele></trkpt>
   <trkpt lat="52.035378" lon="4.524823"><ele>-2.5</ele></trkpt>
   <trkpt lat="52.034555" lon="4.524016"><ele>-2.5</ele></trkpt>
   <trkpt lat="52.034004" lon="4.523493"><ele>-2.5</ele></trkpt>
   <trkpt lat="52.033029" lon="4.522612"><ele>-2.5</ele></trkpt>
   <trkpt lat="52.032266" lon="4.521957"><ele>-2.5</ele></trkpt>
   <trkpt lat="52.031544" lon="4.521364"><ele>-2.75</ele></trkpt>
   <trkpt lat="52.031098" lon="4.521012"><ele>-2.75</ele></trkpt>
   <trkpt lat="52.030547" lon="4.520588"><ele>-2.75</ele></trkpt>
   <trkpt lat="52.029863" lon="4.520083"><ele>-2.75</ele></trkpt>
   <trkpt lat="52.028881" lon="4.519395"><ele>-2.75</ele></trkpt>
   <trkpt lat="52.028108" lon="4.518885"><ele>-2.75</ele></trkpt>
   <trkpt lat="52.02711" lon="4.518265"><ele>-2.75</ele></trkpt>
   <trkpt lat="52.026629" lon="4.51798"><ele>-2.75</ele></trkpt>
   <trkpt lat="52.026006" lon="4.517628"><ele>-3</ele></trkpt>
   <trkpt lat="52.02539" lon="4.517296"><ele>-3</ele></trkpt>
   <trkpt lat="52.024707" lon="4.516941"><ele>-3</ele></trkpt>
   <trkpt lat="52.02377" lon="4.516474"><ele>-3</ele></trkpt>
   <trkpt lat="52.023012" lon="4.51611"><ele>-3</ele></trkpt>
   <trkpt lat="52.022575" lon="4.515901"><ele>-3</ele></trkpt>
   <trkpt lat="52.020818" lon="4.515059"><ele>-3.25</ele></trkpt>
   <trkpt lat="52.019545" lon="4.514422"><ele>-3.25</ele></trkpt>
   <trkpt lat="52.018641" lon="4.513942"><ele>-3.25</ele></trkpt>
   <trkpt lat="52.017552" lon="4.513325"><ele>-3.25</ele></trkpt>
   <trkpt lat="52.016888" lon="4.512928"><ele>-3.25</ele></trkpt>
   <trkpt lat="52.016309" lon="4.512569"><ele>-3.25</ele></trkpt>
   <trkpt lat="52.01533" lon="4.511931"><ele>-3.25</ele></trkpt>
   <trkpt lat="52.014749" lon="4.511538"><ele>-3.5</ele></trkpt>
   <trkpt lat="52.014234" lon="4.511177"><ele>-3.5</ele></trkpt>
   <trkpt lat="52.013293" lon="4.510492"><ele>-3.5</ele></trkpt>
   <trkpt lat="52.012684" lon="4.510029"><ele>-3.5</ele></trkpt>
   <trkpt lat="52.011991" lon="4.509485"><ele>-3.5</ele></trkpt>
   <trkpt lat="52.011141" lon="4.508788"><ele>-3.5</ele></trkpt>
   <trkpt lat="52.010753" lon="4.508461"><ele>-3.5</ele></trkpt>
   <trkpt lat="52.010013" lon="4.507818"><ele>-3.5</ele></trkpt>
   <trkpt lat="52.00912" lon="4.507008"><ele>-3.75</ele></trkpt>
   <trkpt lat="52.008066" lon="4.506007"><ele>-3.75</ele></trkpt>
   <trkpt lat="52.007452" lon="4.505398"><ele>-3.75</ele></trkpt>
   <trkpt lat="52.006766" lon="4.504697"><ele>-3.75</ele></trkpt>
   <trkpt lat="52.005789" lon="4.503658"><ele>-3.75</ele></trkpt>
   <trkpt lat="52.004908" lon="4.502677"><ele>-4</ele></trkpt>
   <trkpt lat="52.004744" lon="4.50249"><ele>-4</ele></trkpt>
   <trkpt lat="52.004374" lon="4.502062"><ele>-4.75</ele></trkpt>
   <trkpt lat="52.003737" lon="4.501308"><ele>-5.5</ele></trkpt>
   <trkpt lat="52.002743" lon="4.500088"><ele>-5.75</ele></trkpt>
   <trkpt lat="52.002042" lon="4.499202"><ele>-5.75</ele></trkpt>
   <trkpt lat="52.000708" lon="4.497483"><ele>-6.5</ele></trkpt>
   <trkpt lat="51.997446" lon="4.493267"><ele>-6.5</ele></trkpt>
   <trkpt lat="51.989851" lon="4.483451"><ele>-6.25</ele></trkpt>
   <trkpt lat="51.988781" lon="4.482073"><ele>-6</ele></trkpt>
   <trkpt lat="51.987986" lon="4.481066"><ele>-6.25</ele></trkpt>
   <trkpt lat="51.987164" lon="4.480049"><ele>-5.75</ele></trkpt>
   <trkpt lat="51.986476" lon="4.479223"><ele>-6.5</ele></trkpt>
   <trkpt lat="51.985756" lon="4.478374"><ele>-6.25</ele></trkpt>
   <trkpt lat="51.984815" lon="4.477294"><ele>-5.75</ele></trkpt>
   <trkpt lat="51.984334" lon="4.476755"><ele>-5.5</ele></trkpt>
   <trkpt lat="51.983888" lon="4.47626"><ele>-5.25</ele></trkpt>
   <trkpt lat="51.983128" lon="4.475438"><ele>-5.5</ele></trkpt>
   <trkpt lat="51.982171" lon="4.474432"><ele>-4</ele></trkpt>
   <trkpt lat="51.981454" lon="4.473696"><ele>-3.75</ele></trkpt>
   <trkpt lat="51.980357" lon="4.472604"><ele>-2.25</ele></trkpt>
   <trkpt lat="51.979412" lon="4.471695"><ele>-2.5</ele></trkpt>
   <trkpt lat="51.97887" lon="4.471186"><ele>-2.25</ele></trkpt>
   <trkpt lat="51.978067" lon="4.470446"><ele>-1.75</ele></trkpt>
   <trkpt lat="51.9775" lon="4.469939"><ele>-1.75</ele></trkpt>
   <trkpt lat="51.977161" lon="4.469638"><ele>-1.75</ele></trkpt>
   <trkpt lat="51.977026" lon="4.46952"><ele>-2</ele></trkpt>
   <trkpt lat="51.976945" lon="4.469449"><ele>-1</ele></trkpt>
   <trkpt lat="51.976292" lon="4.468884"><ele>-1.5</ele></trkpt>
   <trkpt lat="51.975221" lon="4.467987"><ele>-2.75</ele></trkpt>
   <trkpt lat="51.975082" lon="4.467873"><ele>-3</ele></trkpt>
   <trkpt lat="51.974104" lon="4.467086"><ele>-3</ele></trkpt>
   <trkpt lat="51.973963" lon="4.466974"><ele>-3</ele></trkpt>
   <trkpt lat="51.972639" lon="4.465954"><ele>-4</ele></trkpt>
   <trkpt lat="51.972502" lon="4.465865"><ele>-4</ele></trkpt>
   <trkpt lat="51.971196" lon="4.46491"><ele>-5.75</ele></trkpt>
   <trkpt lat="51.97009" lon="4.464137"><ele>-6.75</ele></trkpt>
   <trkpt lat="51.968808" lon="4.463278"><ele>-8.75</ele></trkpt>
   <trkpt lat="51.968028" lon="4.462777"><ele>-9.25</ele></trkpt>
   <trkpt lat="51.967018" lon="4.46215"><ele>-5.75</ele></trkpt>
   <trkpt lat="51.966292" lon="4.461715"><ele>-6.25</ele></trkpt>
   <trkpt lat="51.965405" lon="4.461191"><ele>-6.75</ele></trkpt>
   <trkpt lat="51.963981" lon="4.460405"><ele>-8</ele></trkpt>
   <trkpt lat="51.96293" lon="4.459852"><ele>-8</ele></trkpt>
   <trkpt lat="51.962024" lon="4.4594"><ele>-10</ele></trkpt>
   <trkpt lat="51.961294" lon="4.459049"><ele>-8.75</ele></trkpt>
   <trkpt lat="51.960639" lon="4.458742"><ele>-7.5</ele></trkpt>
   <trkpt lat="51.959773" lon="4.458356"><ele>-10</ele></trkpt>
   <trkpt lat="51.95897" lon="4.458012"><ele>-10.5</ele></trkpt>
   <trkpt lat="51.958284" lon="4.457734"><ele>-10.25</ele></trkpt>
   <trkpt lat="51.957442" lon="4.457398"><ele>-9.75</ele></trkpt>
   <trkpt lat="51.955915" lon="4.456846"><ele>-9.25</ele></trkpt>
   <trkpt lat="51.954608" lon="4.456392"><ele>-8.75</ele></trkpt>
   <trkpt lat="51.9526" lon="4.455783"><ele>-8.25</ele></trkpt>
   <trkpt lat="51.951072" lon="4.455287"><ele>-7.75</ele></trkpt>
   <trkpt lat="51.949931" lon="4.454934"><ele>-7.25</ele></trkpt>
   <trkpt lat="51.948165" lon="4.454387"><ele>-6.75</ele></trkpt>
   <trkpt lat="51.947944" lon="4.454319"><ele>-6.5</ele></trkpt>
   <trkpt lat="51.946399" lon="4.453841"><ele>-6</ele></trkpt>
   <trkpt lat="51.943309" lon="4.452894"><ele>-5</ele></trkpt>
   <trkpt lat="51.943308" lon="4.452894"><ele>-5</ele></trkpt>
   <trkpt lat="51.940263" lon="4.451949"><ele>-4</ele></trkpt>
   <trkpt lat="51.940107" lon="4.451901"><ele>-3.75</ele></trkpt>
   <trkpt lat="51.938859" lon="4.451515"><ele>-4</ele></trkpt>
   <trkpt lat="51.937797" lon="4.451187"><ele>-2.5</ele></trkpt>
   <trkpt lat="51.93757" lon="4.451117"><ele>-2</ele></trkpt>
   <trkpt lat="51.937467" lon="4.451085"><ele>-2</ele></trkpt>
   <trkpt lat="51.936984" lon="4.450935"><ele>-1.75</ele></trkpt>
   <trkpt lat="51.936339" lon="4.450729"><ele>-1.75</ele></trkpt>
   <trkpt lat="51.935085" lon="4.450314"><ele>-1.75</ele></trkpt>
   <trkpt lat="51.933572" lon="4.449833"><ele>-1.75</ele></trkpt>
   <trkpt lat="51.931921" lon="4.449324"><ele>-1.75</ele></trkpt>
   <trkpt lat="51.931323" lon="4.44914"><ele>-1.75</ele></trkpt>
   <trkpt lat="51.931304" lon="4.449134"><ele>-1.75</ele></trkpt>
   <trkpt lat="51.930415" lon="4.44886"><ele>-1.75</ele></trkpt>
   <trkpt lat="51.929518" lon="4.448523"><ele>-1.75</ele></trkpt>
   <trkpt lat="51.928418" lon="4.448184"><ele>-1.75</ele></trkpt>
   <trkpt lat="51.927991" lon="4.448078"><ele>-1.75</ele></trkpt>
   <trkpt lat="51.927702" lon="4.448021"><ele>-1.75</ele></trkpt>
   <trkpt lat="51.927537" lon="4.447995"><ele>-1.75</ele></trkpt>
   <trkpt lat="51.927198" lon="4.44796"><ele>-1.75</ele></trkpt>
   <trkpt lat="51.926857" lon="4.447956"><ele>-1.5</ele></trkpt>
   <trkpt lat="51.926709" lon="4.447968"><ele>-1.75</ele></trkpt>
   <trkpt lat="51.926469" lon="4.448012"><ele>-2</ele></trkpt>
   <trkpt lat="51.926317" lon="4.448055"><ele>-1.75</ele></trkpt>
   <trkpt lat="51.926141" lon="4.448118"><ele>-1.75</ele></trkpt>
   <trkpt lat="51.925968" lon="4.448196"><ele>-1.75</ele></trkpt>
   <trkpt lat="51.925841" lon="4.448264"><ele>-2</ele></trkpt>
   <trkpt lat="51.925548" lon="4.448455"><ele>-2</ele></trkpt>
   <trkpt lat="51.925387" lon="4.448583"><ele>-2.5</ele></trkpt>
   <trkpt lat="51.92523" lon="4.448725"><ele>-2.25</ele></trkpt>
   <trkpt lat="51.925078" lon="4.448879"><ele>-2</ele></trkpt>
   <trkpt lat="51.924931" lon="4.449047"><ele>-2</ele></trkpt>
   <trkpt lat="51.924711" lon="4.449337"><ele>-2</ele></trkpt>
   <trkpt lat="51.924566" lon="4.449557"><ele>-1.5</ele></trkpt>
   <trkpt lat="51.924433" lon="4.449783"><ele>-1</ele></trkpt>
   <trkpt lat="51.924318" lon="4.45"><ele>-0.75</ele></trkpt>
   <trkpt lat="51.924142" lon="4.450385"><ele>-0.25</ele></trkpt>
   <trkpt lat="51.923977" lon="4.450822"><ele>0</ele></trkpt>
   <trkpt lat="51.923874" lon="4.451154"><ele>0.25</ele></trkpt>
   <trkpt lat="51.923788" lon="4.451478"><ele>0.5</ele></trkpt>
   <trkpt lat="51.92372" lon="4.451789"><ele>0.75</ele></trkpt>
   <trkpt lat="51.923677" lon="4.452026"><ele>1</ele></trkpt>
   <trkpt lat="51.923635" lon="4.452301"><ele>1</ele></trkpt>
   <trkpt lat="51.923601" lon="4.452588"><ele>1</ele></trkpt>
   <trkpt lat="51.923563" lon="4.453113"><ele>1</ele></trkpt>
   <trkpt lat="51.923548" lon="4.45367"><ele>1</ele></trkpt>
   <trkpt lat="51.923547" lon="4.454217"><ele>1.25</ele></trkpt>
   <trkpt lat="51.923554" lon="4.454645"><ele>2</ele></trkpt>
   <trkpt lat="51.923573" lon="4.455173"><ele>1.75</ele></trkpt>
   <trkpt lat="51.923604" lon="4.455721"><ele>1.75</ele></trkpt>
   <trkpt lat="51.923626" lon="4.456038"><ele>1.75</ele></trkpt>
   <trkpt lat="51.923712" lon="4.457222"><ele>1.5</ele></trkpt>
   <trkpt lat="51.923737" lon="4.457564"><ele>1.5</ele></trkpt>
   <trkpt lat="51.923826" lon="4.458792"><ele>2</ele></trkpt>
   <trkpt lat="51.923936" lon="4.460043"><ele>2</ele></trkpt>
   <trkpt lat="51.923881" lon="4.459563"><ele>2</ele></trkpt>
   <trkpt lat="51.923804" lon="4.459021"><ele>2</ele></trkpt>
   <trkpt lat="51.923992" lon="4.461109"><ele>2</ele></trkpt>
   <trkpt lat="51.924059" lon="4.461948"><ele>2.25</ele></trkpt>
   <trkpt lat="51.92416" lon="4.462999"><ele>3</ele></trkpt>
   <trkpt lat="51.924173" lon="4.463115"><ele>3</ele></trkpt>
   <trkpt lat="51.924205" lon="4.463472"><ele>2.75</ele></trkpt>
   <trkpt lat="51.92431" lon="4.465046"><ele>3</ele></trkpt>
   <trkpt lat="51.924352" lon="4.465449"><ele>3</ele></trkpt>
   <trkpt lat="51.924418" lon="4.465922"><ele>3</ele></trkpt>
   <trkpt lat="51.924521" lon="4.466495"><ele>3</ele></trkpt>
   <trkpt lat="51.924623" lon="4.466993"><ele>3</ele></trkpt>
   <trkpt lat="51.924636" lon="4.467057"><ele>3</ele></trkpt>
   <trkpt lat="51.924681" lon="4.467274"><ele>3</ele></trkpt>
   <trkpt lat="51.924695" lon="4.467344"><ele>3</ele></trkpt>
   <trkpt lat="51.924696" lon="4.467347"><ele>3</ele></trkpt>
   <trkpt lat="51.9247" lon="4.467368"><ele>3</ele></trkpt>
   <trkpt lat="51.924937" lon="4.468539"><ele>3</ele></trkpt>
   <trkpt lat="51.925016" lon="4.468928"><ele>3</ele></trkpt>
   <trkpt lat="51.92507" lon="4.469193"><ele>3</ele></trkpt>
  </trkseg>
 </trk>
</gpx>