<?xml version="1.0" encoding="UTF-8"?>
<!-- track-length = 26639 filtered ascend = 15 plain-ascend = -1 cost=26639 energy=0.3kwh time=35m 31s -->
<gpx 
 xmlns="http://www.topografix.com/GPX/1/1" 
 xmlns:xsi="http://www.w3.org/2001/XMLSchema-instance" 
 xsi:schemaLocation="http://www.topografix.com/GPX/1/1 http://www.topografix.com/GPX/1/1/gpx.xsd" 
 version="1.1" 
 creator="BRouter-Web 0.18.1">
 <trk>
  <name>Zandvoort -&gt; Amsterdam (26.6km)</name>
  <trkseg>
   <trkpt lat="52.3758" lon="4.531473"><ele>5.25</ele></trkpt>
   <trkpt lat="52.375777" lon="4.531562"><ele>5.25</ele></trkpt>
   <trkpt lat="52.375031" lon="4.534214"><ele>5.75</ele></trkpt>
   <trkpt lat="52.375006" lon="4.534311"><ele>5.25</ele></trkpt>
   <trkpt lat="52.374946" lon="4.534529"><ele>4.75</ele></trkpt>
   <trkpt lat="52.374936" lon="4.534569"><ele>4.75</ele></trkpt>
   <trkpt lat="52.374855" lon="4.534902"><ele>5.25</ele></trkpt>
   <trkpt lat="52.374688" lon="4.535608"><ele>5</ele></trkpt>
   <trkpt lat="52.374631" lon="4.535868"><ele>5</ele></trkpt>
   <trkpt lat="52.374564" lon="4.536229"><ele>4.75</ele></trkpt>
   <trkpt lat="52.374504" lon="4.536657"><ele>4.75</ele></trkpt>
   <trkpt lat="52.374468" lon="4.537046"><ele>4.75</ele></trkpt>
   <trkpt lat="52.374446" lon="4.537469"><ele>4.75</ele></trkpt>
   <trkpt lat="52.374444" lon="4.537545"><ele>4.75</ele></trkpt>
   <trkpt lat="52.374444" lon="4.537912"><ele>4.75</ele></trkpt>
   <trkpt lat="52.374495" lon="4.539112"><ele>4.75</ele></trkpt>
   <trkpt lat="52.374508" lon="4.539538"><ele>4.75</ele></trkpt>
   <trkpt lat="52.37452" lon="4.540293"><ele>5</ele></trkpt>
   <trkpt lat="52.374527" lon="4.540768"><ele>5</ele></trkpt>
   <trkpt lat="52.374528" lon="4.540852"><ele>5</ele></trkpt>
   <trkpt lat="52.374531" lon="4.540969"><ele>5</ele></trkpt>
   <trkpt lat="52.374533" lon="4.541077"><ele>5</ele></trkpt>
   <trkpt lat="52.374534" lon="4.541141"><ele>4.75</ele></trkpt>
   <trkpt lat="52.374535" lon="4.541181"><ele>4.75</ele></trkpt>
   <trkpt lat="52.374538" lon="4.541347"><ele>4.5</ele></trkpt>
   <trkpt lat="52.374537" lon="4.542066"><ele>4.25</ele></trkpt>
   <trkpt lat="52.374545" lon="4.542706"><ele>4.5</ele></trkpt>
   <trkpt lat="52.374574" lon="4.543466"><ele>4.25</ele></trkpt>
   <trkpt lat="52.374575" lon="4.543491"><ele>4.25</ele></trkpt>
   <trkpt lat="52.374579" lon="4.543599"><ele>4.25</ele></trkpt>
   <trkpt lat="52.374632" lon="4.544719"><ele>4.5</ele></trkpt>
   <trkpt lat="52.374679" lon="4.545381"><ele>5</ele></trkpt>
   <trkpt lat="52.374746" lon="4.546131"><ele>5</ele></trkpt>
   <trkpt lat="52.37485" lon="4.547043"><ele>4.25</ele></trkpt>
   <trkpt lat="52.374913" lon="4.547511"><ele>4.75</ele></trkpt>
   <trkpt lat="52.375032" lon="4.548289"><ele>6</ele></trkpt>
   <trkpt lat="52.375103" lon="4.548705"><ele>6.5</ele></trkpt>
   <trkpt lat="52.375219" lon="4.54932"><ele>5.5</ele></trkpt>
   <trkpt lat="52.375497" lon="4.550666"><ele>5.25</ele></trkpt>
   <trkpt lat="52.376466" lon="4.555306"><ele>5.25</ele></trkpt>
   <trkpt lat="52.377531" lon="4.560408"><ele>7.25</ele></trkpt>
   <trkpt lat="52.379181" lon="4.568323"><ele>9.75</ele></trkpt>
   <trkpt lat="52.380583" lon="4.575024"><ele>12</ele></trkpt>
   <trkpt lat="52.381369" lon="4.57879"><ele>13.25</ele></trkpt>
   <trkpt lat="52.381514" lon="4.579467"><ele>18.25</ele></trkpt>
   <trkpt lat="52.381644" lon="4.580024"><ele>13</ele></trkpt>
   <trkpt lat="52.381793" lon="4.580583"><ele>16.75</ele></trkpt>
   <trkpt lat="52.38193" lon="4.581044"><ele>13.25</ele></trkpt>
   <trkpt lat="52.382109" lon="4.581574"><ele>14.25</ele></trkpt>
   <trkpt lat="52.382246" lon="4.581937"><ele>13</ele></trkpt>
   <trkpt lat="52.382382" lon="4.582271"><ele>13.75</ele></trkpt>
   <trkpt lat="52.382474" lon="4.582485"><ele>12.25</ele></trkpt>
   <trkpt lat="52.382724" lon="4.583022"><ele>12</ele></trkpt>
   <trkpt lat="52.383014" lon="4.58357"><ele>11.75</ele></trkpt>
   <trkpt lat="52.383234" lon="4.583943"><ele>11.5</ele></trkpt>
   <trkpt lat="52.383379" lon="4.584174"><ele>10.5</ele></trkpt>
   <trkpt lat="52.383565" lon="4.584451"><ele>11</ele></trkpt>
   <trkpt lat="52.383786" lon="4.584759"><ele>10.25</ele></trkpt>
   <trkpt lat="52.384109" lon="4.585163"><ele>9.75</ele></trkpt>
   <trkpt lat="52.384334" lon="4.585418"><ele>9.25</ele></trkpt>
   <trkpt lat="52.384652" lon="4.585743"><ele>9.25</ele></trkpt>
   <trkpt lat="52.385154" lon="4.586194"><ele>9</ele></trkpt>
   <trkpt lat="52.389617" lon="4.58998"><ele>9</ele></trkpt>
   <trkpt lat="52.389804" lon="4.590138"><ele>9.25</ele></trkpt>
   <trkpt lat="52.389895" lon="4.590215"><ele>9.25</ele></trkpt>
   <trkpt lat="52.389912" lon="4.59023"><ele>9.25</ele></trkpt>
   <trkpt lat="52.389998" lon="4.590303"><ele>9</ele></trkpt>
   <trkpt lat="52.3902" lon="4.590473"><ele>9.25</ele></trkpt>
   <trkpt lat="52.390495" lon="4.590741"><ele>9.5</ele></trkpt>
   <trkpt lat="52.390782" lon="4.591037"><ele>9.5</ele></trkpt>
   <trkpt lat="52.390933" lon="4.591223"><ele>10.25</ele></trkpt>
   <trkpt lat="52.391067" lon="4.591406"><ele>9.25</ele></trkpt>
   <trkpt lat="52.391279" lon="4.591743"><ele>8.75</ele></trkpt>
   <trkpt lat="52.391407" lon="4.591981"><ele>8.5</ele></trkpt>
   <trkpt lat="52.391513" lon="4.5922"><ele>8.25</ele></trkpt>
   <trkpt lat="52.391639" lon="4.592512"><ele>8.5</ele></trkpt>
   <trkpt lat="52.391702" lon="4.592693"><ele>10.5</ele></trkpt>
   <trkpt lat="52.391762" lon="4.592894"><ele>12</ele></trkpt>
   <trkpt lat="52.391808" lon="4.593074"><ele>13</ele></trkpt>
   <trkpt lat="52.391853" lon="4.593285"><ele>12.25</ele></trkpt>
   <trkpt lat="52.391891" lon="4.593493"><ele>11</ele></trkpt>
   <trkpt lat="52.39193" lon="4.593772"><ele>9.5</ele></trkpt>
   <trkpt lat="52.391957" lon="4.594065"><ele>9</ele></trkpt>
   <trkpt lat="52.391969" lon="4.594291"><ele>8.75</ele></trkpt>
   <trkpt lat="52.391972" lon="4.594686"><ele>9</ele></trkpt>
   <trkpt lat="52.391958" lon="4.594979"><ele>9</ele></trkpt>
   <trkpt lat="52.391941" lon="4.595192"><ele>9</ele></trkpt>
   <trkpt lat="52.391921" lon="4.595374"><ele>9</ele></trkpt>
   <trkpt lat="52.391889" lon="4.595588"><ele>9.5</ele></trkpt>
   <trkpt lat="52.391816" lon="4.595963"><ele>11.25</ele></trkpt>
   <trkpt lat="52.391725" lon="4.596351"><ele>10</ele></trkpt>
   <trkpt lat="52.391177" lon="4.598487"><ele>11.25</ele></trkpt>
   <trkpt lat="52.391059" lon="4.598976"><ele>9.75</ele></trkpt>
   <trkpt lat="52.391007" lon="4.599233"><ele>11.75</ele></trkpt>
   <trkpt lat="52.390945" lon="4.599649"><ele>11.5</ele></trkpt>
   <trkpt lat="52.390925" lon="4.599812"><ele>11</ele></trkpt>
   <trkpt lat="52.390899" lon="4.60015"><ele>9.75</ele></trkpt>
   <trkpt lat="52.390889" lon="4.600379"><ele>9.25</ele></trkpt>
   <trkpt lat="52.390889" lon="4.600601"><ele>8.5</ele></trkpt>
   <trkpt lat="52.390899" lon="4.6009"><ele>7.75</ele></trkpt>
   <trkpt lat="52.390924" lon="4.601248"><ele>7.75</ele></trkpt>
   <trkpt lat="52.390988" lon="4.601712"><ele>6.5</ele></trkpt>
   <trkpt lat="52.391142" lon="4.602588"><ele>7.5</ele></trkpt>
   <trkpt lat="52.391188" lon="4.602938"><ele>8.5</ele></trkpt>
   <trkpt lat="52.391235" lon="4.603523"><ele>7.75</ele></trkpt>
   <trkpt lat="52.391251" lon="4.603829"><ele>7.5</ele></trkpt>
   <trkpt lat="52.391264" lon="4.604266"><ele>6.5</ele></trkpt>
   <trkpt lat="52.391271" lon="4.604725"><ele>6.25</ele></trkpt>
   <trkpt lat="52.391265" lon="4.605067"><ele>6.25</ele></trkpt>
   <trkpt lat="52.391245" lon="4.605377"><ele>6.25</ele></trkpt>
   <trkpt lat="52.391217" lon="4.605702"><ele>6.25</ele></trkpt>
   <trkpt lat="52.391186" lon="4.605975"><ele>6.5</ele></trkpt>
   <trkpt lat="52.391121" lon="4.606388"><ele>5</ele></trkpt>
   <trkpt lat="52.391085" lon="4.606571"><ele>5.5</ele></trkpt>
   <trkpt lat="52.391033" lon="4.606793"><ele>6.5</ele></trkpt>
   <trkpt lat="52.390887" lon="4.607413"><ele>6.75</ele></trkpt>
   <trkpt lat="52.390777" lon="4.607863"><ele>5.5</ele></trkpt>
   <trkpt lat="52.390685" lon="4.608201"><ele>6.25</ele></trkpt>
   <trkpt lat="52.390565" lon="4.608588"><ele>5</ele></trkpt>
   <trkpt lat="52.390562" lon="4.608599"><ele>5</ele></trkpt>
   <trkpt lat="52.390544" lon="4.608655"><ele>5</ele></trkpt>
   <trkpt lat="52.390401" lon="4.609083"><ele>4.5</ele></trkpt>
   <trkpt lat="52.390375" lon="4.609163"><ele>4</ele></trkpt>
   <trkpt lat="52.390355" lon="4.609227"><ele>4</ele></trkpt>
   <trkpt lat="52.390339" lon="4.609278"><ele>4</ele></trkpt>
   <trkpt lat="52.390128" lon="4.609999"><ele>2.5</ele></trkpt>
   <trkpt lat="52.390054" lon="4.610283"><ele>2.5</ele></trkpt>
   <trkpt lat="52.389919" lon="4.610852"><ele>2.5</ele></trkpt>
   <trkpt lat="52.389763" lon="4.611605"><ele>2.5</ele></trkpt>
   <trkpt lat="52.389006" lon="4.615891"><ele>3</ele></trkpt>
   <trkpt lat="52.388858" lon="4.616733"><ele>3</ele></trkpt>
   <trkpt lat="52.38872" lon="4.617528"><ele>3.25</ele></trkpt>
   <trkpt lat="52.388526" lon="4.618691"><ele>3.25</ele></trkpt>
   <trkpt lat="52.388413" lon="4.619414"><ele>3.25</ele></trkpt>
   <trkpt lat="52.388115" lon="4.621464"><ele>3.5</ele></trkpt>
   <trkpt lat="52.388076" lon="4.621747"><ele>3.5</ele></trkpt>
   <trkpt lat="52.387987" lon="4.62243"><ele>3.75</ele></trkpt>
   <trkpt lat="52.387966" lon="4.622672"><ele>3.75</ele></trkpt>
   <trkpt lat="52.387951" lon="4.622863"><ele>3.75</ele></trkpt>
   <trkpt lat="52.387934" lon="4.623281"><ele>3.75</ele></trkpt>
   <trkpt lat="52.38793" lon="4.623567"><ele>3.75</ele></trkpt>
   <trkpt lat="52.38794" lon="4.624317"><ele>4</ele></trkpt>
   <trkpt lat="52.38795" lon="4.624735"><ele>4</ele></trkpt>
   <trkpt lat="52.387968" lon="4.625077"><ele>4</ele></trkpt>
   <trkpt lat="52.388" lon="4.625394"><ele>4</ele></trkpt>
   <trkpt lat="52.388169" lon="4.626631"><ele>4.5</ele></trkpt>
   <trkpt lat="52.388273" lon="4.627376"><ele>4.25</ele></trkpt>
   <trkpt lat="52.388342" lon="4.628012"><ele>5</ele></trkpt>
   <trkpt lat="52.38838" lon="4.628573"><ele>5</ele></trkpt>
   <trkpt lat="52.388398" lon="4.629122"><ele>5</ele></trkpt>
   <trkpt lat="52.388398" lon="4.629132"><ele>5</ele></trkpt>
   <trkpt lat="52.388399" lon="4.629146"><ele>5</ele></trkpt>
   <trkpt lat="52.388415" lon="4.629752"><ele>4.25</ele></trkpt>
   <trkpt lat="52.388422" lon="4.63061"><ele>4.25</ele></trkpt>
   <trkpt lat="52.388405" lon="4.631043"><ele>4.25</ele></trkpt>
   <trkpt lat="52.388381" lon="4.63162"><ele>4.25</ele></trkpt>
   <trkpt lat="52.388377" lon="4.631706"><ele>4.25</ele></trkpt>
   <trkpt lat="52.388361" lon="4.632143"><ele>4.25</ele></trkpt>
   <trkpt lat="52.388307" lon="4.633496"><ele>4.5</ele></trkpt>
   <trkpt lat="52.388288" lon="4.634228"><ele>4.5</ele></trkpt>
   <trkpt lat="52.38827" lon="4.634631"><ele>4.5</ele></trkpt>
   <trkpt lat="52.388223" lon="4.63515"><ele>4.5</ele></trkpt>
   <trkpt lat="52.388009" lon="4.63727"><ele>4</ele></trkpt>
   <trkpt lat="52.387991" lon="4.637443"><ele>2.75</ele></trkpt>
   <trkpt lat="52.387898" lon="4.638375"><ele>2.75</ele></trkpt>
   <trkpt lat="52.387881" lon="4.638531"><ele>2.5</ele></trkpt>
   <trkpt lat="52.387698" lon="4.640348"><ele>3.75</ele></trkpt>
   <trkpt lat="52.387664" lon="4.640643"><ele>3.75</ele></trkpt>
   <trkpt lat="52.387654" lon="4.640714"><ele>3.5</ele></trkpt>
   <trkpt lat="52.387626" lon="4.640912"><ele>3.5</ele></trkpt>
   <trkpt lat="52.387487" lon="4.641795"><ele>4.75</ele></trkpt>
   <trkpt lat="52.387413" lon="4.642182"><ele>3.5</ele></trkpt>
   <trkpt lat="52.387374" lon="4.642345"><ele>3.75</ele></trkpt>
   <trkpt lat="52.387203" lon="4.642991"><ele>4.5</ele></trkpt>
   <trkpt lat="52.387123" lon="4.643261"><ele>4</ele></trkpt>
   <trkpt lat="52.386878" lon="4.644012"><ele>4.25</ele></trkpt>
   <trkpt lat="52.386633" lon="4.644704"><ele>4.5</ele></trkpt>
   <trkpt lat="52.386556" lon="4.644893"><ele>4.25</ele></trkpt>
   <trkpt lat="52.386428" lon="4.645163"><ele>4.25</ele></trkpt>
   <trkpt lat="52.386361" lon="4.645288"><ele>4.5</ele></trkpt>
   <trkpt lat="52.386313" lon="4.645375"><ele>4</ele></trkpt>
   <trkpt lat="52.386182" lon="4.645583"><ele>3.5</ele></trkpt>
   <trkpt lat="52.386052" lon="4.645762"><ele>3.25</ele></trkpt>
   <trkpt lat="52.386022" lon="4.645802"><ele>3.25</ele></trkpt>
   <trkpt lat="52.385985" lon="4.645852"><ele>3.25</ele></trkpt>
   <trkpt lat="52.385856" lon="4.646017"><ele>3</ele></trkpt>
   <trkpt lat="52.38585" lon="4.646024"><ele>3</ele></trkpt>
   <trkpt lat="52.385827" lon="4.646053"><ele>3</ele></trkpt>
   <trkpt lat="52.385797" lon="4.646092"><ele>3</ele></trkpt>
   <trkpt lat="52.385755" lon="4.646146"><ele>2.75</ele></trkpt>
   <trkpt lat="52.385668" lon="4.646256"><ele>2.75</ele></trkpt>
   <trkpt lat="52.385259" lon="4.646771"><ele>2</ele></trkpt>
   <trkpt lat="52.385251" lon="4.646781"><ele>2</ele></trkpt>
   <trkpt lat="52.385238" lon="4.646797"><ele>2</ele></trkpt>
   <trkpt lat="52.384899" lon="4.647229"><ele>2.25</ele></trkpt>
   <trkpt lat="52.384843" lon="4.6473"><ele>2.25</ele></trkpt>
   <trkpt lat="52.384604" lon="4.647613"><ele>2.75</ele></trkpt>
   <trkpt lat="52.384349" lon="4.647974"><ele>2.75</ele></trkpt>
   <trkpt lat="52.384161" lon="4.64827"><ele>2.75</ele></trkpt>
   <trkpt lat="52.384063" lon="4.648436"><ele>2.75</ele></trkpt>
   <trkpt lat="52.383883" lon="4.648773"><ele>2.75</ele></trkpt>
   <trkpt lat="52.38374" lon="4.649069"><ele>2.75</ele></trkpt>
   <trkpt lat="52.383661" lon="4.649249"><ele>2.75</ele></trkpt>
   <trkpt lat="52.383524" lon="4.649582"><ele>2.75</ele></trkpt>
   <trkpt lat="52.383458" lon="4.649759"><ele>2.75</ele></trkpt>
   <trkpt lat="52.383418" lon="4.649871"><ele>2.75</ele></trkpt>
   <trkpt lat="52.383281" lon="4.650289"><ele>2.75</ele></trkpt>
   <trkpt lat="52.383199" lon="4.65057"><ele>2.75</ele></trkpt>
   <trkpt lat="52.38311" lon="4.650911"><ele>2.75</ele></trkpt>
   <trkpt lat="52.383042" lon="4.651204"><ele>2.75</ele></trkpt>
   <trkpt lat="52.382934" lon="4.651765"><ele>2.75</ele></trkpt>
   <trkpt lat="52.382874" lon="4.652145"><ele>2.75</ele></trkpt>
   <trkpt lat="52.382798" lon="4.652688"><ele>2.75</ele></trkpt>
   <trkpt lat="52.382796" lon="4.652707"><ele>2.5</ele></trkpt>
   <trkpt lat="52.382545" lon="4.654567"><ele>1.75</ele></trkpt>
   <trkpt lat="52.382538" lon="4.654625"><ele>1.75</ele></trkpt>
   <trkpt lat="52.382524" lon="4.654732"><ele>1.75</ele></trkpt>
   <trkpt lat="52.3825" lon="4.654913"><ele>1.75</ele></trkpt>
   <trkpt lat="52.382477" lon="4.655112"><ele>1.5</ele></trkpt>
   <trkpt lat="52.382466" lon="4.655206"><ele>1.5</ele></trkpt>
   <trkpt lat="52.382394" lon="4.655858"><ele>1.25</ele></trkpt>
   <trkpt lat="52.382357" lon="4.656264"><ele>1.25</ele></trkpt>
   <trkpt lat="52.382314" lon="4.656908"><ele>1</ele></trkpt>
   <trkpt lat="52.382281" lon="4.657882"><ele>1</ele></trkpt>
   <trkpt lat="52.382274" lon="4.658515"><ele>0.75</ele></trkpt>
   <trkpt lat="52.382268" lon="4.661142"><ele>0.75</ele></trkpt>
   <trkpt lat="52.382276" lon="4.662138"><ele>0.75</ele></trkpt>
   <trkpt lat="52.382308" lon="4.663403"><ele>0.75</ele></trkpt>
   <trkpt lat="52.382343" lon="4.664363"><ele>0.5</ele></trkpt>
   <trkpt lat="52.382382" lon="4.665024"><ele>0.5</ele></trkpt>
   <trkpt lat="52.38244" lon="4.665912"><ele>0.5</ele></trkpt>
   <trkpt lat="52.38279" lon="4.670799"><ele>0.25</ele></trkpt>
   <trkpt lat="52.382796" lon="4.670872"><ele>0.25</ele></trkpt>
   <trkpt lat="52.383011" lon="4.673924"><ele>0.25</ele></trkpt>
   <trkpt lat="52.383032" lon="4.674217"><ele>0.25</ele></trkpt>
   <trkpt lat="52.383444" lon="4.679895"><ele>0</ele></trkpt>
   <trkpt lat="52.38363" lon="4.682173"><ele>0</ele></trkpt>
   <trkpt lat="52.383713" lon="4.683126"><ele>0</ele></trkpt>
   <trkpt lat="52.383922" lon="4.685634"><ele>0</ele></trkpt>
   <trkpt lat="52.383965" lon="4.686172"><ele>0</ele></trkpt>
   <trkpt lat="52.384142" lon="4.688399"><ele>-0.25</ele></trkpt>
   <trkpt lat="52.384341" lon="4.691173"><ele>-0.25</ele></trkpt>
   <trkpt lat="52.384738" lon="4.696878"><ele>-0.5</ele></trkpt>
   <trkpt lat="52.385331" lon="4.70524"><ele>-1</ele></trkpt>
   <trkpt lat="52.385897" lon="4.713205"><ele>-1</ele></trkpt>
   <trkpt lat="52.386311" lon="4.719037"><ele>-1</ele></trkpt>
   <trkpt lat="52.386395" lon="4.720224"><ele>-1</ele></trkpt>
   <trkpt lat="52.386784" lon="4.725704"><ele>-1</ele></trkpt>
   <trkpt lat="52.386794" lon="4.725847"><ele>-1</ele></trkpt>
   <trkpt lat="52.386795" lon="4.725859"><ele>-0.75</ele></trkpt>
   <trkpt lat="52.387125" lon="4.730482"><ele>-0.25</ele></trkpt>
   <trkpt lat="52.387205" lon="4.731617"><ele>-0.25</ele></trkpt>
   <trkpt lat="52.38733" lon="4.73339"><ele>0</ele></trkpt>
   <trkpt lat="52.387361" lon="4.733962"><ele>0</ele></trkpt>
   <trkpt lat="52.387386" lon="4.734608"><ele>0</ele></trkpt>
   <trkpt lat="52.387399" lon="4.7357"><ele>0</ele></trkpt>
   <trkpt lat="52.387386" lon="4.736461"><ele>0.25</ele></trkpt>
   <trkpt lat="52.387367" lon="4.736977"><ele>0.25</ele></trkpt>
   <trkpt lat="52.387338" lon="4.737538"><ele>0.25</ele></trkpt>
   <trkpt lat="52.387273" lon="4.738438"><ele>0.25</ele></trkpt>
   <trkpt lat="52.387203" lon="4.739135"><ele>0.5</ele></trkpt>
   <trkpt lat="52.387147" lon="4.739601"><ele>0.5</ele></trkpt>
   <trkpt lat="52.387071" lon="4.740149"><ele>0.75</ele></trkpt>
   <trkpt lat="52.38666" lon="4.742668"><ele>1.5</ele></trkpt>
   <trkpt lat="52.386541" lon="4.74338"><ele>1.5</ele></trkpt>
   <trkpt lat="52.386382" lon="4.744331"><ele>1.75</ele></trkpt>
   <trkpt lat="52.386361" lon="4.744457"><ele>2</ele></trkpt>
   <trkpt lat="52.386348" lon="4.744532"><ele>2</ele></trkpt>
   <trkpt lat="52.386336" lon="4.744607"><ele>2</ele></trkpt>
   <trkpt lat="52.386322" lon="4.744686"><ele>2</ele></trkpt>
   <trkpt lat="52.386167" lon="4.745616"><ele>2.25</ele></trkpt>
   <trkpt lat="52.38612" lon="4.745895"><ele>2.25</ele></trkpt>
   <trkpt lat="52.385947" lon="4.746913"><ele>2.5</ele></trkpt>
   <trkpt lat="52.38589" lon="4.747235"><ele>2.5</ele></trkpt>
   <trkpt lat="52.385828" lon="4.747563"><ele>2.25</ele></trkpt>
   <trkpt lat="52.385664" lon="4.748366"><ele>2.25</ele></trkpt>
   <trkpt lat="52.38551" lon="4.749045"><ele>2</ele></trkpt>
   <trkpt lat="52.385347" lon="4.749743"><ele>1.75</ele></trkpt>
   <trkpt lat="52.385314" lon="4.749885"><ele>1.5</ele></trkpt>
   <trkpt lat="52.385271" lon="4.750069"><ele>1.5</ele></trkpt>
   <trkpt lat="52.385137" lon="4.750635"><ele>1.25</ele></trkpt>
   <trkpt lat="52.384843" lon="4.751921"><ele>0</ele></trkpt>
   <trkpt lat="52.384691" lon="4.752705"><ele>-0.25</ele></trkpt>
   <trkpt lat="52.384629" lon="4.753081"><ele>-0.75</ele></trkpt>
   <trkpt lat="52.384555" lon="4.753599"><ele>-0.75</ele></trkpt>
   <trkpt lat="52.384502" lon="4.754036"><ele>-0.5</ele></trkpt>
   <trkpt lat="52.384439" lon="4.754684"><ele>-0.5</ele></trkpt>
   <trkpt lat="52.3844" lon="4.755247"><ele>-0.25</ele></trkpt>
   <trkpt lat="52.38438" lon="4.755677"><ele>-0.25</ele></trkpt>
   <trkpt lat="52.384362" lon="4.756485"><ele>-0.25</ele></trkpt>
   <trkpt lat="52.384362" lon="4.75702"><ele>0</ele></trkpt>
   <trkpt lat="52.38438" lon="4.75893"><ele>0</ele></trkpt>
   <trkpt lat="52.384381" lon="4.759039"><ele>0</ele></trkpt>
   <trkpt lat="52.384411" lon="4.762668"><ele>0.75</ele></trkpt>
   <trkpt lat="52.384411" lon="4.762687"><ele>0.75</ele></trkpt>
   <trkpt lat="52.384413" lon="4.762994"><ele>0.5</ele></trkpt>
   <trkpt lat="52.384537" lon="4.777443"><ele>-0.5</ele></trkpt>
   <trkpt lat="52.384565" lon="4.781606"><ele>-0.25</ele></trkpt>
   <trkpt lat="52.384594" lon="4.786517"><ele>0</ele></trkpt>
   <trkpt lat="52.384594" lon="4.786536"><ele>0</ele></trkpt>
   <trkpt lat="52.384634" lon="4.791591"><ele>0.25</ele></trkpt>
   <trkpt lat="52.384668" lon="4.79291"><ele>0.25</ele></trkpt>
   <trkpt lat="52.3847" lon="4.793588"><ele>0.25</ele></trkpt>
   <trkpt lat="52.384762" lon="4.794589"><ele>0.25</ele></trkpt>
   <trkpt lat="52.384812" lon="4.795226"><ele>0.5</ele></trkpt>
   <trkpt lat="52.384876" lon="4.795909"><ele>0.5</ele></trkpt>
   <trkpt lat="52.384984" lon="4.796862"><ele>0.5</ele></trkpt>
   <trkpt lat="52.385054" lon="4.797408"><ele>0.5</ele></trkpt>
   <trkpt lat="52.385153" lon="4.798106"><ele>0.5</ele></trkpt>
   <trkpt lat="52.385214" lon="4.798494"><ele>0.5</ele></trkpt>
   <trkpt lat="52.385229" lon="4.79859"><ele>0.5</ele></trkpt>
   <trkpt lat="52.385349" lon="4.799303"><ele>0.5</ele></trkpt>
   <trkpt lat="52.385453" lon="4.799867"><ele>0.75</ele></trkpt>
   <trkpt lat="52.385613" lon="4.800666"><ele>0.75</ele></trkpt>
   <trkpt lat="52.385774" lon="4.801401"><ele>0.75</ele></trkpt>
   <trkpt lat="52.385884" lon="4.801864"><ele>0.75</ele></trkpt>
   <trkpt lat="52.386137" lon="4.802866"><ele>0.75</ele></trkpt>
   <trkpt lat="52.386365" lon="4.803686"><ele>1</ele></trkpt>
   <trkpt lat="52.38658" lon="4.804407"><ele>1</ele></trkpt>
   <trkpt lat="52.387337" lon="4.806796"><ele>1</ele></trkpt>
   <trkpt lat="52.387417" lon="4.807062"><ele>1</ele></trkpt>
   <trkpt lat="52.387566" lon="4.80758"><ele>1.25</ele></trkpt>
   <trkpt lat="52.387702" lon="4.808084"><ele>1.25</ele></trkpt>
   <trkpt lat="52.387821" lon="4.808553"><ele>1.25</ele></trkpt>
   <trkpt lat="52.387988" lon="4.809265"><ele>1.25</ele></trkpt>
   <trkpt lat="52.388024" lon="4.809434"><ele>1.25</ele></trkpt>
   <trkpt lat="52.388199" lon="4.810295"><ele>1.75</ele></trkpt>
   <trkpt lat="52.388344" lon="4.811119"><ele>2.25</ele></trkpt>
   <trkpt lat="52.388473" lon="4.81198"><ele>2.75</ele></trkpt>
   <trkpt lat="52.388554" lon="4.812633"><ele>2.5</ele></trkpt>
   <trkpt lat="52.388628" lon="4.813324"><ele>2.5</ele></trkpt>
   <trkpt lat="52.388669" lon="4.813775"><ele>2.5</ele></trkpt>
   <trkpt lat="52.388717" lon="4.814418"><ele>2.5</ele></trkpt>
   <trkpt lat="52.388755" lon="4.815109"><ele>2.5</ele></trkpt>
   <trkpt lat="52.388778" lon="4.815764"><ele>3.5</ele></trkpt>
   <trkpt lat="52.388791" lon="4.816376"><ele>4.5</ele></trkpt>
   <trkpt lat="52.388798" lon="4.816939"><ele>4.25</ele></trkpt>
   <trkpt lat="52.3888" lon="4.818274"><ele>2.25</ele></trkpt>
   <trkpt lat="52.388802" lon="4.819214"><ele>2.5</ele></trkpt>
   <trkpt lat="52.388802" lon="4.819501"><ele>2.5</ele></trkpt>
   <trkpt lat="52.388803" lon="4.820496"><ele>2.25</ele></trkpt>
   <trkpt lat="52.388805" lon="4.822739"><ele>2</ele></trkpt>
   <trkpt lat="52.388809" lon="4.827268"><ele>1.5</ele></trkpt>
   <trkpt lat="52.38881" lon="4.828283"><ele>1.5</ele></trkpt>
   <trkpt lat="52.38881" lon="4.828632"><ele>1.5</ele></trkpt>
   <trkpt lat="52.388809" lon="4.829736"><ele>1</ele></trkpt>
   <trkpt lat="52.388811" lon="4.830295"><ele>0.75</ele></trkpt>
   <trkpt lat="52.388808" lon="4.83225"><ele>0.5</ele></trkpt>
   <trkpt lat="52.388793" lon="4.833233"><ele>0.25</ele></trkpt>
   <trkpt lat="52.388752" lon="4.834976"><ele>0</ele></trkpt>
   <trkpt lat="52.388743" lon="4.835682"><ele>0</ele></trkpt>
   <trkpt lat="52.388742" lon="4.835905"><ele>0</ele></trkpt>
   <trkpt lat="52.388742" lon="4.836739"><ele>0</ele></trkpt>
   <trkpt lat="52.388751" lon="4.838224"><ele>-0.25</ele></trkpt>
   <trkpt lat="52.388751" lon="4.838272"><ele>-0.25</ele></trkpt>
   <trkpt lat="52.388752" lon="4.838321"><ele>-0.25</ele></trkpt>
   <trkpt lat="52.388752" lon="4.83839"><ele>-0.25</ele></trkpt>
   <trkpt lat="52.38876" lon="4.839088"><ele>-0.25</ele></trkpt>
   <trkpt lat="52.388767" lon="4.839435"><ele>-0.25</ele></trkpt>
   <trkpt lat="52.388768" lon="4.83948"><ele>-0.25</ele></trkpt>
   <trkpt lat="52.388774" lon="4.839741"><ele>-0.5</ele></trkpt>
   <trkpt lat="52.388786" lon="4.840117"><ele>-0.5</ele></trkpt>
   <trkpt lat="52.388836" lon="4.841191"><ele>-0.75</ele></trkpt>
   <trkpt lat="52.388856" lon="4.841554"><ele>-0.75</ele></trkpt>
   <trkpt lat="52.388915" lon="4.842694"><ele>0</ele></trkpt>
   <trkpt lat="52.388934" lon="4.843204"><ele>0</ele></trkpt>
   <trkpt lat="52.388946" lon="4.843803"><ele>0.5</ele></trkpt>
   <trkpt lat="52.388962" lon="4.844681"><ele>0.75</ele></trkpt>
   <trkpt lat="52.388971" lon="4.845768"><ele>1</ele></trkpt>
   <trkpt lat="52.388972" lon="4.846619"><ele>1.25</ele></trkpt>
   <trkpt lat="52.388965" lon="4.847703"><ele>1.25</ele></trkpt>
   <trkpt lat="52.388963" lon="4.848059"><ele>1.25</ele></trkpt>
   <trkpt lat="52.388958" lon="4.848822"><ele>1.25</ele></trkpt>
   <trkpt lat="52.388953" lon="4.849893"><ele>2</ele></trkpt>
   <trkpt lat="52.388953" lon="4.850076"><ele>2</ele></trkpt>
   <trkpt lat="52.38895" lon="4.850804"><ele>2.25</ele></trkpt>
   <trkpt lat="52.388952" lon="4.851476"><ele>2.75</ele></trkpt>
   <trkpt lat="52.388952" lon="4.851494"><ele>2.75</ele></trkpt>
   <trkpt lat="52.388998" lon="4.857944"><ele>2.75</ele></trkpt>
   <trkpt lat="52.389015" lon="4.86067"><ele>3</ele></trkpt>
   <trkpt lat="52.389017" lon="4.861036"><ele>3</ele></trkpt>
   <trkpt lat="52.389024" lon="4.86221"><ele>2.75</ele></trkpt>
   <trkpt lat="52.389025" lon="4.862329"><ele>2.75</ele></trkpt>
   <trkpt lat="52.389037" lon="4.863891"><ele>3</ele></trkpt>
   <trkpt lat="52.389039" lon="4.864046"><ele>3</ele></trkpt>
   <trkpt lat="52.389029" lon="4.864752"><ele>4</ele></trkpt>
   <trkpt lat="52.389005" lon="4.865482"><ele>3.5</ele></trkpt>
   <trkpt lat="52.388964" lon="4.867252"><ele>5.75</ele></trkpt>
   <trkpt lat="52.388956" lon="4.867698"><ele>4.75</ele></trkpt>
   <trkpt lat="52.38895" lon="4.868"><ele>5.25</ele></trkpt>
   <trkpt lat="52.388933" lon="4.868581"><ele>5.25</ele></trkpt>
   <trkpt lat="52.388906" lon="4.86911"><ele>5.75</ele></trkpt>
   <trkpt lat="52.388866" lon="4.8696"><ele>4.75</ele></trkpt>
   <trkpt lat="52.388829" lon="4.869935"><ele>4.5</ele></trkpt>
   <trkpt lat="52.388781" lon="4.870301"><ele>4.25</ele></trkpt>
   <trkpt lat="52.388723" lon="4.870678"><ele>4</ele></trkpt>
   <trkpt lat="52.388437" lon="4.872288"><ele>3</ele></trkpt>
   <trkpt lat="52.388387" lon="4.872622"><ele>3</ele></trkpt>
   <trkpt lat="52.388264" lon="4.873559"><ele>3</ele></trkpt>
   <trkpt lat="52.388141" lon="4.874461"><ele>2.5</ele></trkpt>
   <trkpt lat="52.388071" lon="4.874928"><ele>2.75</ele></trkpt>
   <trkpt lat="52.387994" lon="4.875388"><ele>3</ele></trkpt>
   <trkpt lat="52.387827" lon="4.876325"><ele>4</ele></trkpt>
   <trkpt lat="52.387706" lon="4.876952"><ele>4</ele></trkpt>
   <trkpt lat="52.387589" lon="4.877486"><ele>3.5</ele></trkpt>
   <trkpt lat="52.387474" lon="4.877948"><ele>3</ele></trkpt>
   <trkpt lat="52.387428" lon="4.878129"><ele>3</ele></trkpt>
   <trkpt lat="52.387348" lon="4.878425"><ele>3</ele></trkpt>
   <trkpt lat="52.387285" lon="4.878631"><ele>3</ele></trkpt>
   <trkpt lat="52.38714" lon="4.879106"><ele>3</ele></trkpt>
   <trkpt lat="52.386367" lon="4.8815"><ele>4</ele></trkpt>
   <trkpt lat="52.386266" lon="4.881814"><ele>4</ele></trkpt>
   <trkpt lat="52.386083" lon="4.882365"><ele>5</ele></trkpt>
   <trkpt lat="52.386074" lon="4.882391"><ele>5</ele></trkpt>
   <trkpt lat="52.386056" lon="4.882442"><ele>5</ele></trkpt>
   <trkpt lat="52.386017" lon="4.882554"><ele>5</ele></trkpt>
   <trkpt lat="52.385918" lon="4.882835"><ele>5</ele></trkpt>
   <trkpt lat="52.385854" lon="4.883018"><ele>5</ele></trkpt>
   <trkpt lat="52.38577" lon="4.883258"><ele>5</ele></trkpt>
   <trkpt lat="52.385586" lon="4.883779"><ele>5</ele></trkpt>
   <trkpt lat="52.385384" lon="4.884308"><ele>5</ele></trkpt>
   <trkpt lat="52.385262" lon="4.884591"><ele>5</ele></trkpt>
   <trkpt lat="52.385119" lon="4.884892"><ele>5</ele></trkpt>
   <trkpt lat="52.384955" lon="4.885208"><ele>5</ele></trkpt>
   <trkpt lat="52.384681" lon="4.885706"><ele>5</ele></trkpt>
   <trkpt lat="52.384679" lon="4.88571"><ele>5</ele></trkpt>
   <trkpt lat="52.384669" lon="4.885729"><ele>5</ele></trkpt>
   <trkpt lat="52.384655" lon="4.885753"><ele>5</ele></trkpt>
   <trkpt lat="52.383723" lon="4.887418"><ele>5</ele></trkpt>
   <trkpt lat="52.383483" lon="4.887851"><ele>5</ele></trkpt>
   <trkpt lat="52.383361" lon="4.888074"><ele>5</ele></trkpt>
   <trkpt lat="52.383178" lon="4.888443"><ele>5</ele></trkpt>
   <trkpt lat="52.383078" lon="4.888669"><ele>5</ele></trkpt>
   <trkpt lat="52.38279" lon="4.889366"><ele>5</ele></trkpt>
   <trkpt lat="52.382575" lon="4.889861"><ele>5</ele></trkpt>
   <trkpt lat="52.382385" lon="4.890264"><ele>5</ele></trkpt>
   <trkpt lat="52.382239" lon="4.890566"><ele>5.25</ele></trkpt>
   <trkpt lat="52.382047" lon="4.890963"><ele>5.25</ele></trkpt>
   <trkpt lat="52.381973" lon="4.891114"><ele>5</ele></trkpt>
   <trkpt lat="52.381819" lon="4.891462"><ele>4.25</ele></trkpt>
   <trkpt lat="52.381699" lon="4.891762"><ele>4.5</ele></trkpt>
   <trkpt lat="52.381654" lon="4.891876"><ele>4.5</ele></trkpt>
   <trkpt lat="52.381584" lon="4.892063"><ele>4.25</ele></trkpt>
   <trkpt lat="52.381551" lon="4.892154"><ele>4</ele></trkpt>
   <trkpt lat="52.381528" lon="4.892216"><ele>3.75</ele></trkpt>
   <trkpt lat="52.381527" lon="4.892217"><ele>3.75</ele></trkpt>
   <trkpt lat="52.381113" lon="4.893357"><ele>5</ele></trkpt>
   <trkpt lat="52.380975" lon="4.893807"><ele>3.75</ele></trkpt>
   <trkpt lat="52.380938" lon="4.893932"><ele>4</ele></trkpt>
   <trkpt lat="52.380818" lon="4.894356"><ele>5.25</ele></trkpt>
   <trkpt lat="52.38074" lon="4.894628"><ele>4.75</ele></trkpt>
   <trkpt lat="52.380679" lon="4.894839"><ele>5</ele></trkpt>
   <trkpt lat="52.380646" lon="4.89495"><ele>5.5</ele></trkpt>
   <trkpt lat="52.380527" lon="4.895303"><ele>5.25</ele></trkpt>
   <trkpt lat="52.380458" lon="4.895484"><ele>4.5</ele></trkpt>
   <trkpt lat="52.380117" lon="4.896381"><ele>1.5</ele></trkpt>
   <trkpt lat="52.380061" lon="4.896532"><ele>1</ele></trkpt>
   <trkpt lat="52.379874" lon="4.897028"><ele>1</ele></trkpt>
   <trkpt lat="52.379013" lon="4.899391"><ele>2.5</ele></trkpt>
   <trkpt lat="52.378758" lon="4.900093"><ele>3</ele></trkpt>
   <trkpt lat="52.378661" lon="4.900354"><ele>3</ele></trkpt>
  </trkseg>
 </trk>
</gpx>