<?xml version="1.0" encoding="UTF-8"?>
<!-- track-length = 31660 filtered ascend = 67 plain-ascend = 56 cost=31660 energy=0.4kwh time=42m 13s -->
<gpx 
 xmlns="http://www.topografix.com/GPX/1/1" 
 xmlns:xsi="http://www.w3.org/2001/XMLSchema-instance" 
 xsi:schemaLocation="http://www.topografix.com/GPX/1/1 http://www.topografix.com/GPX/1/1/gpx.xsd" 
 version="1.1" 
 creator="BRouter-Web 0.18.1">
 <trk>
  <name>Fiumicino -&gt; Rome (31.7km)</name>
  <trkseg>
   <trkpt lat="41.793386" lon="12.251953"><ele>2.5</ele></trkpt>
   <trkpt lat="41.792786" lon="12.252527"><ele>2.5</ele></trkpt>
   <trkpt lat="41.791774" lon="12.25351"><ele>2.5</ele></trkpt>
   <trkpt lat="41.791583" lon="12.253701"><ele>2.5</ele></trkpt>
   <trkpt lat="41.79099" lon="12.254228"><ele>2.5</ele></trkpt>
   <trkpt lat="41.790562" lon="12.254667"><ele>2.5</ele></trkpt>
   <trkpt lat="41.789953" lon="12.255265"><ele>2.5</ele></trkpt>
   <trkpt lat="41.789723" lon="12.255486"><ele>2.5</ele></trkpt>
   <trkpt lat="41.789265" lon="12.25599"><ele>2.5</ele></trkpt>
   <trkpt lat="41.786849" lon="12.258326"><ele>2.5</ele></trkpt>
   <trkpt lat="41.786547" lon="12.258648"><ele>2.5</ele></trkpt>
   <trkpt lat="41.786229" lon="12.259046"><ele>2.5</ele></trkpt>
   <trkpt lat="41.786077" lon="12.259263"><ele>2.5</ele></trkpt>
   <trkpt lat="41.785781" lon="12.259735"><ele>2.5</ele></trkpt>
   <trkpt lat="41.785648" lon="12.25998"><ele>2.5</ele></trkpt>
   <trkpt lat="41.785542" lon="12.260196"><ele>2.5</ele></trkpt>
   <trkpt lat="41.78537" lon="12.260591"><ele>2.5</ele></trkpt>
   <trkpt lat="41.785218" lon="12.260981"><ele>2.5</ele></trkpt>
   <trkpt lat="41.785179" lon="12.261111"><ele>2.5</ele></trkpt>
   <trkpt lat="41.785146" lon="12.261251"><ele>2.5</ele></trkpt>
   <trkpt lat="41.785122" lon="12.261389"><ele>2.5</ele></trkpt>
   <trkpt lat="41.785094" lon="12.261575"><ele>2.5</ele></trkpt>
   <trkpt lat="41.785075" lon="12.26189"><ele>2.5</ele></trkpt>
   <trkpt lat="41.785078" lon="12.262058"><ele>2.5</ele></trkpt>
   <trkpt lat="41.785094" lon="12.262283"><ele>2.5</ele></trkpt>
   <trkpt lat="41.785165" lon="12.262675"><ele>2.5</ele></trkpt>
   <trkpt lat="41.785217" lon="12.262869"><ele>2.5</ele></trkpt>
   <trkpt lat="41.785274" lon="12.263048"><ele>2.5</ele></trkpt>
   <trkpt lat="41.785766" lon="12.264321"><ele>2.5</ele></trkpt>
   <trkpt lat="41.785948" lon="12.264786"><ele>2.25</ele></trkpt>
   <trkpt lat="41.787432" lon="12.268147"><ele>1.75</ele></trkpt>
   <trkpt lat="41.787526" lon="12.268394"><ele>2</ele></trkpt>
   <trkpt lat="41.787838" lon="12.269268"><ele>1.75</ele></trkpt>
   <trkpt lat="41.787992" lon="12.26962"><ele>1.5</ele></trkpt>
   <trkpt lat="41.790321" lon="12.274844"><ele>1.5</ele></trkpt>
   <trkpt lat="41.790701" lon="12.27571"><ele>1.5</ele></trkpt>
   <trkpt lat="41.793749" lon="12.282548"><ele>1.5</ele></trkpt>
   <trkpt lat="41.796797" lon="12.289381"><ele>1.5</ele></trkpt>
   <trkpt lat="41.799206" lon="12.294803"><ele>1.5</ele></trkpt>
   <trkpt lat="41.799821" lon="12.296179"><ele>1.5</ele></trkpt>
   <trkpt lat="41.800347" lon="12.297356"><ele>1.5</ele></trkpt>
   <trkpt lat="41.80209" lon="12.301281"><ele>1.5</ele></trkpt>
   <trkpt lat="41.80238" lon="12.301923"><ele>1.5</ele></trkpt>
   <trkpt lat="41.803055" lon="12.303339"><ele>1.5</ele></trkpt>
   <trkpt lat="41.803369" lon="12.304032"><ele>1.75</ele></trkpt>
   <trkpt lat="41.805013" lon="12.307743"><ele>1.75</ele></trkpt>
   <trkpt lat="41.805953" lon="12.309842"><ele>1.75</ele></trkpt>
   <trkpt lat="41.80626" lon="12.310562"><ele>1.5</ele></trkpt>
   <trkpt lat="41.806551" lon="12.311281"><ele>1.25</ele></trkpt>
   <trkpt lat="41.806861" lon="12.312001"><ele>1.25</ele></trkpt>
   <trkpt lat="41.807484" lon="12.31341"><ele>1.25</ele></trkpt>
   <trkpt lat="41.809393" lon="12.317715"><ele>1.75</ele></trkpt>
   <trkpt lat="41.81002" lon="12.319127"><ele>1.75</ele></trkpt>
   <trkpt lat="41.810606" lon="12.320439"><ele>1.75</ele></trkpt>
   <trkpt lat="41.811811" lon="12.323155"><ele>2.5</ele></trkpt>
   <trkpt lat="41.812707" lon="12.325173"><ele>4.25</ele></trkpt>
   <trkpt lat="41.813008" lon="12.325846"><ele>7.25</ele></trkpt>
   <trkpt lat="41.813258" lon="12.326384"><ele>6</ele></trkpt>
   <trkpt lat="41.81479" lon="12.329856"><ele>1.5</ele></trkpt>
   <trkpt lat="41.815564" lon="12.33159"><ele>2.75</ele></trkpt>
   <trkpt lat="41.816155" lon="12.332918"><ele>3.25</ele></trkpt>
   <trkpt lat="41.816323" lon="12.333336"><ele>3.5</ele></trkpt>
   <trkpt lat="41.816537" lon="12.333917"><ele>3</ele></trkpt>
   <trkpt lat="41.817218" lon="12.335913"><ele>4.75</ele></trkpt>
   <trkpt lat="41.81726" lon="12.336045"><ele>4.75</ele></trkpt>
   <trkpt lat="41.817898" lon="12.337922"><ele>7</ele></trkpt>
   <trkpt lat="41.818155" lon="12.338683"><ele>7.25</ele></trkpt>
   <trkpt lat="41.818271" lon="12.339076"><ele>7.75</ele></trkpt>
   <trkpt lat="41.818378" lon="12.3395"><ele>7</ele></trkpt>
   <trkpt lat="41.818445" lon="12.339854"><ele>7.25</ele></trkpt>
   <trkpt lat="41.818494" lon="12.340171"><ele>7.25</ele></trkpt>
   <trkpt lat="41.81852" lon="12.34038"><ele>7.25</ele></trkpt>
   <trkpt lat="41.81854" lon="12.340589"><ele>7.25</ele></trkpt>
   <trkpt lat="41.818561" lon="12.340984"><ele>7.25</ele></trkpt>
   <trkpt lat="41.818568" lon="12.341309"><ele>7.5</ele></trkpt>
   <trkpt lat="41.818567" lon="12.341602"><ele>7.75</ele></trkpt>
   <trkpt lat="41.818536" lon="12.342972"><ele>7.75</ele></trkpt>
   <trkpt lat="41.818516" lon="12.343367"><ele>8</ele></trkpt>
   <trkpt lat="41.818485" lon="12.343781"><ele>8.5</ele></trkpt>
   <trkpt lat="41.818404" lon="12.344542"><ele>8.5</ele></trkpt>
   <trkpt lat="41.818163" lon="12.346714"><ele>8.25</ele></trkpt>
   <trkpt lat="41.818012" lon="12.347903"><ele>8.5</ele></trkpt>
   <trkpt lat="41.817967" lon="12.348344"><ele>8</ele></trkpt>
   <trkpt lat="41.81785" lon="12.349456"><ele>9.25</ele></trkpt>
   <trkpt lat="41.817777" lon="12.350162"><ele>8.75</ele></trkpt>
   <trkpt lat="41.817693" lon="12.350938"><ele>9</ele></trkpt>
   <trkpt lat="41.817522" lon="12.352662"><ele>8</ele></trkpt>
   <trkpt lat="41.81747" lon="12.353139"><ele>7.75</ele></trkpt>
   <trkpt lat="41.817365" lon="12.353762"><ele>7.5</ele></trkpt>
   <trkpt lat="41.817119" lon="12.35599"><ele>6.25</ele></trkpt>
   <trkpt lat="41.817014" lon="12.356931"><ele>7</ele></trkpt>
   <trkpt lat="41.816953" lon="12.357634"><ele>9</ele></trkpt>
   <trkpt lat="41.816925" lon="12.358079"><ele>8.75</ele></trkpt>
   <trkpt lat="41.816927" lon="12.358518"><ele>8.75</ele></trkpt>
   <trkpt lat="41.816954" lon="12.358967"><ele>9.25</ele></trkpt>
   <trkpt lat="41.816976" lon="12.359186"><ele>9.75</ele></trkpt>
   <trkpt lat="41.817025" lon="12.359559"><ele>10</ele></trkpt>
   <trkpt lat="41.817124" lon="12.360044"><ele>9.5</ele></trkpt>
   <trkpt lat="41.817203" lon="12.360375"><ele>8.75</ele></trkpt>
   <trkpt lat="41.817489" lon="12.361307"><ele>9</ele></trkpt>
   <trkpt lat="41.818131" lon="12.363253"><ele>6.5</ele></trkpt>
   <trkpt lat="41.818402" lon="12.364096"><ele>6.25</ele></trkpt>
   <trkpt lat="41.818915" lon="12.365651"><ele>7.5</ele></trkpt>
   <trkpt lat="41.819661" lon="12.36793"><ele>8.25</ele></trkpt>
   <trkpt lat="41.820368" lon="12.37011"><ele>7</ele></trkpt>
   <trkpt lat="41.820578" lon="12.370731"><ele>8.25</ele></trkpt>
   <trkpt lat="41.820837" lon="12.371536"><ele>8.25</ele></trkpt>
   <trkpt lat="41.821341" lon="12.373136"><ele>8.75</ele></trkpt>
   <trkpt lat="41.821639" lon="12.374213"><ele>9.25</ele></trkpt>
   <trkpt lat="41.821788" lon="12.374805"><ele>8.25</ele></trkpt>
   <trkpt lat="41.821964" lon="12.375593"><ele>8.75</ele></trkpt>
   <trkpt lat="41.822104" lon="12.376335"><ele>9</ele></trkpt>
   <trkpt lat="41.822222" lon="12.377097"><ele>9.75</ele></trkpt>
   <trkpt lat="41.822314" lon="12.377871"><ele>10.5</ele></trkpt>
   <trkpt lat="41.822517" lon="12.380078"><ele>10.25</ele></trkpt>
   <trkpt lat="41.822945" lon="12.384508"><ele>9.5</ele></trkpt>
   <trkpt lat="41.822985" lon="12.385092"><ele>9.25</ele></trkpt>
   <trkpt lat="41.822998" lon="12.385409"><ele>9</ele></trkpt>
   <trkpt lat="41.822998" lon="12.385904"><ele>8.75</ele></trkpt>
   <trkpt lat="41.822986" lon="12.386335"><ele>8.5</ele></trkpt>
   <trkpt lat="41.822963" lon="12.386739"><ele>8.5</ele></trkpt>
   <trkpt lat="41.82291" lon="12.387274"><ele>8.25</ele></trkpt>
   <trkpt lat="41.822825" lon="12.387912"><ele>9.5</ele></trkpt>
   <trkpt lat="41.822758" lon="12.388316"><ele>9</ele></trkpt>
   <trkpt lat="41.822648" lon="12.388889"><ele>10.5</ele></trkpt>
   <trkpt lat="41.822459" lon="12.389745"><ele>10.5</ele></trkpt>
   <trkpt lat="41.822329" lon="12.390286"><ele>9.75</ele></trkpt>
   <trkpt lat="41.821934" lon="12.392025"><ele>9.75</ele></trkpt>
   <trkpt lat="41.821597" lon="12.393476"><ele>10.75</ele></trkpt>
   <trkpt lat="41.821515" lon="12.393864"><ele>11.25</ele></trkpt>
   <trkpt lat="41.821301" lon="12.394813"><ele>12.5</ele></trkpt>
   <trkpt lat="41.821212" lon="12.395263"><ele>14.25</ele></trkpt>
   <trkpt lat="41.821157" lon="12.395596"><ele>13.25</ele></trkpt>
   <trkpt lat="41.821114" lon="12.395938"><ele>12.5</ele></trkpt>
   <trkpt lat="41.821104" lon="12.396062"><ele>12</ele></trkpt>
   <trkpt lat="41.821075" lon="12.396588"><ele>11.5</ele></trkpt>
   <trkpt lat="41.821078" lon="12.397053"><ele>11.5</ele></trkpt>
   <trkpt lat="41.821103" lon="12.397463"><ele>11.75</ele></trkpt>
   <trkpt lat="41.821146" lon="12.397867"><ele>10</ele></trkpt>
   <trkpt lat="41.821172" lon="12.398041"><ele>9.75</ele></trkpt>
   <trkpt lat="41.821242" lon="12.398412"><ele>10</ele></trkpt>
   <trkpt lat="41.821372" lon="12.398904"><ele>10.75</ele></trkpt>
   <trkpt lat="41.821434" lon="12.399109"><ele>10.5</ele></trkpt>
   <trkpt lat="41.821736" lon="12.400016"><ele>10</ele></trkpt>
   <trkpt lat="41.822876" lon="12.403277"><ele>10.75</ele></trkpt>
   <trkpt lat="41.824099" lon="12.40676"><ele>11.5</ele></trkpt>
   <trkpt lat="41.824431" lon="12.407701"><ele>11.75</ele></trkpt>
   <trkpt lat="41.824762" lon="12.408663"><ele>11.25</ele></trkpt>
   <trkpt lat="41.825006" lon="12.40937"><ele>12</ele></trkpt>
   <trkpt lat="41.825028" lon="12.409434"><ele>12</ele></trkpt>
   <trkpt lat="41.825294" lon="12.410184"><ele>12.25</ele></trkpt>
   <trkpt lat="41.825489" lon="12.410761"><ele>12.5</ele></trkpt>
   <trkpt lat="41.82594" lon="12.411951"><ele>13</ele></trkpt>
   <trkpt lat="41.826377" lon="12.412989"><ele>13.25</ele></trkpt>
   <trkpt lat="41.826721" lon="12.413744"><ele>12.5</ele></trkpt>
   <trkpt lat="41.827019" lon="12.414342"><ele>11.75</ele></trkpt>
   <trkpt lat="41.827448" lon="12.415142"><ele>11.75</ele></trkpt>
   <trkpt lat="41.827862" lon="12.415846"><ele>11.5</ele></trkpt>
   <trkpt lat="41.82816" lon="12.416331"><ele>10.5</ele></trkpt>
   <trkpt lat="41.828568" lon="12.416947"><ele>9.75</ele></trkpt>
   <trkpt lat="41.828623" lon="12.417027"><ele>10.25</ele></trkpt>
   <trkpt lat="41.828719" lon="12.417169"><ele>11</ele></trkpt>
   <trkpt lat="41.828975" lon="12.417532"><ele>12.75</ele></trkpt>
   <trkpt lat="41.829341" lon="12.41803"><ele>12.25</ele></trkpt>
   <trkpt lat="41.829822" lon="12.418646"><ele>10.5</ele></trkpt>
   <trkpt lat="41.830028" lon="12.418902"><ele>14.5</ele></trkpt>
   <trkpt lat="41.830973" lon="12.420073"><ele>21</ele></trkpt>
   <trkpt lat="41.832502" lon="12.422002"><ele>17.5</ele></trkpt>
   <trkpt lat="41.832974" lon="12.422611"><ele>18.5</ele></trkpt>
   <trkpt lat="41.833186" lon="12.422911"><ele>17.25</ele></trkpt>
   <trkpt lat="41.833295" lon="12.423077"><ele>15.75</ele></trkpt>
   <trkpt lat="41.833494" lon="12.423419"><ele>18.5</ele></trkpt>
   <trkpt lat="41.833706" lon="12.423847"><ele>18</ele></trkpt>
   <trkpt lat="41.833766" lon="12.423989"><ele>18</ele></trkpt>
   <trkpt lat="41.833949" lon="12.424468"><ele>15.25</ele></trkpt>
   <trkpt lat="41.834093" lon="12.424916"><ele>15.75</ele></trkpt>
   <trkpt lat="41.834189" lon="12.425274"><ele>15.5</ele></trkpt>
   <trkpt lat="41.834282" lon="12.425652"><ele>16</ele></trkpt>
   <trkpt lat="41.834336" lon="12.425937"><ele>16</ele></trkpt>
   <trkpt lat="41.834381" lon="12.426267"><ele>15</ele></trkpt>
   <trkpt lat="41.834415" lon="12.426591"><ele>15.25</ele></trkpt>
   <trkpt lat="41.834439" lon="12.427062"><ele>15.25</ele></trkpt>
   <trkpt lat="41.834443" lon="12.427387"><ele>14.75</ele></trkpt>
   <trkpt lat="41.834431" lon="12.42785"><ele>15.5</ele></trkpt>
   <trkpt lat="41.834401" lon="12.428413"><ele>14.75</ele></trkpt>
   <trkpt lat="41.834368" lon="12.428771"><ele>15.25</ele></trkpt>
   <trkpt lat="41.834337" lon="12.429362"><ele>15.5</ele></trkpt>
   <trkpt lat="41.834302" lon="12.43009"><ele>14.75</ele></trkpt>
   <trkpt lat="41.834246" lon="12.431077"><ele>15.25</ele></trkpt>
   <trkpt lat="41.834178" lon="12.43233"><ele>14</ele></trkpt>
   <trkpt lat="41.834096" lon="12.433775"><ele>12.75</ele></trkpt>
   <trkpt lat="41.83407" lon="12.434324"><ele>12.5</ele></trkpt>
   <trkpt lat="41.833988" lon="12.436412"><ele>11.5</ele></trkpt>
   <trkpt lat="41.833977" lon="12.436673"><ele>10</ele></trkpt>
   <trkpt lat="41.833936" lon="12.437449"><ele>12.5</ele></trkpt>
   <trkpt lat="41.83379" lon="12.440067"><ele>12</ele></trkpt>
   <trkpt lat="41.833677" lon="12.442128"><ele>14</ele></trkpt>
   <trkpt lat="41.833659" lon="12.442618"><ele>14</ele></trkpt>
   <trkpt lat="41.833662" lon="12.442995"><ele>14</ele></trkpt>
   <trkpt lat="41.833674" lon="12.443265"><ele>14</ele></trkpt>
   <trkpt lat="41.833715" lon="12.443726"><ele>16</ele></trkpt>
   <trkpt lat="41.833754" lon="12.443999"><ele>16.5</ele></trkpt>
   <trkpt lat="41.833817" lon="12.444337"><ele>16</ele></trkpt>
   <trkpt lat="41.833884" lon="12.444638"><ele>15.25</ele></trkpt>
   <trkpt lat="41.833979" lon="12.444992"><ele>17.75</ele></trkpt>
   <trkpt lat="41.834099" lon="12.44537"><ele>15.25</ele></trkpt>
   <trkpt lat="41.834292" lon="12.445831"><ele>15.25</ele></trkpt>
   <trkpt lat="41.834386" lon="12.446027"><ele>15</ele></trkpt>
   <trkpt lat="41.834555" lon="12.446352"><ele>15.25</ele></trkpt>
   <trkpt lat="41.834743" lon="12.446662"><ele>15.25</ele></trkpt>
   <trkpt lat="41.834909" lon="12.446907"><ele>14.75</ele></trkpt>
   <trkpt lat="41.835025" lon="12.447064"><ele>14.25</ele></trkpt>
   <trkpt lat="41.83522" lon="12.447299"><ele>14</ele></trkpt>
   <trkpt lat="41.835335" lon="12.447427"><ele>13.75</ele></trkpt>
   <trkpt lat="41.835551" lon="12.447644"><ele>13.25</ele></trkpt>
   <trkpt lat="41.835898" lon="12.447937"><ele>12.75</ele></trkpt>
   <trkpt lat="41.836236" lon="12.448188"><ele>13.5</ele></trkpt>
   <trkpt lat="41.836911" lon="12.448651"><ele>14</ele></trkpt>
   <trkpt lat="41.838046" lon="12.449454"><ele>12.75</ele></trkpt>
   <trkpt lat="41.838752" lon="12.449939"><ele>12</ele></trkpt>
   <trkpt lat="41.842578" lon="12.452608"><ele>11.75</ele></trkpt>
   <trkpt lat="41.843576" lon="12.453301"><ele>12.5</ele></trkpt>
   <trkpt lat="41.844192" lon="12.453731"><ele>13.25</ele></trkpt>
   <trkpt lat="41.844555" lon="12.453968"><ele>14</ele></trkpt>
   <trkpt lat="41.844778" lon="12.454102"><ele>14</ele></trkpt>
   <trkpt lat="41.845253" lon="12.454358"><ele>14</ele></trkpt>
   <trkpt lat="41.845703" lon="12.454562"><ele>16.75</ele></trkpt>
   <trkpt lat="41.846135" lon="12.454727"><ele>15</ele></trkpt>
   <trkpt lat="41.846325" lon="12.454788"><ele>15.75</ele></trkpt>
   <trkpt lat="41.846784" lon="12.454915"><ele>17.5</ele></trkpt>
   <trkpt lat="41.846833" lon="12.454929"><ele>17.5</ele></trkpt>
   <trkpt lat="41.846954" lon="12.454959"><ele>17.5</ele></trkpt>
   <trkpt lat="41.848" lon="12.455155"><ele>15.25</ele></trkpt>
   <trkpt lat="41.849052" lon="12.455357"><ele>17</ele></trkpt>
   <trkpt lat="41.850088" lon="12.455568"><ele>17</ele></trkpt>
   <trkpt lat="41.851085" lon="12.455752"><ele>14.25</ele></trkpt>
   <trkpt lat="41.851229" lon="12.455779"><ele>14.75</ele></trkpt>
   <trkpt lat="41.854132" lon="12.456327"><ele>18</ele></trkpt>
   <trkpt lat="41.854821" lon="12.45647"><ele>16.75</ele></trkpt>
   <trkpt lat="41.85513" lon="12.456545"><ele>17.5</ele></trkpt>
   <trkpt lat="41.855325" lon="12.456602"><ele>17.75</ele></trkpt>
   <trkpt lat="41.855512" lon="12.456661"><ele>17.75</ele></trkpt>
   <trkpt lat="41.855757" lon="12.456756"><ele>16</ele></trkpt>
   <trkpt lat="41.855913" lon="12.456821"><ele>15.5</ele></trkpt>
   <trkpt lat="41.856115" lon="12.456915"><ele>17.5</ele></trkpt>
   <trkpt lat="41.856485" lon="12.457117"><ele>16.5</ele></trkpt>
   <trkpt lat="41.856704" lon="12.457257"><ele>17.75</ele></trkpt>
   <trkpt lat="41.856963" lon="12.457442"><ele>18.5</ele></trkpt>
   <trkpt lat="41.85714" lon="12.45758"><ele>21.25</ele></trkpt>
   <trkpt lat="41.85743" lon="12.457823"><ele>19.25</ele></trkpt>
   <trkpt lat="41.857676" lon="12.458058"><ele>19.25</ele></trkpt>
   <trkpt lat="41.857934" lon="12.458325"><ele>19.5</ele></trkpt>
   <trkpt lat="41.858157" lon="12.45859"><ele>19.25</ele></trkpt>
   <trkpt lat="41.858337" lon="12.458821"><ele>19.25</ele></trkpt>
   <trkpt lat="41.858581" lon="12.459155"><ele>18.75</ele></trkpt>
   <trkpt lat="41.859137" lon="12.459997"><ele>19.75</ele></trkpt>
   <trkpt lat="41.859612" lon="12.460733"><ele>20</ele></trkpt>
   <trkpt lat="41.859782" lon="12.46097"><ele>20.25</ele></trkpt>
   <trkpt lat="41.859972" lon="12.461217"><ele>20.75</ele></trkpt>
   <trkpt lat="41.860059" lon="12.46132"><ele>21</ele></trkpt>
   <trkpt lat="41.860281" lon="12.46156"><ele>21</ele></trkpt>
   <trkpt lat="41.860417" lon="12.461689"><ele>21.25</ele></trkpt>
   <trkpt lat="41.86075" lon="12.461979"><ele>20.5</ele></trkpt>
   <trkpt lat="41.860948" lon="12.462124"><ele>21.5</ele></trkpt>
   <trkpt lat="41.86114" lon="12.46225"><ele>21</ele></trkpt>
   <trkpt lat="41.861357" lon="12.462374"><ele>22</ele></trkpt>
   <trkpt lat="41.861581" lon="12.462487"><ele>21.25</ele></trkpt>
   <trkpt lat="41.862258" lon="12.462785"><ele>21</ele></trkpt>
   <trkpt lat="41.86268" lon="12.462945"><ele>20.25</ele></trkpt>
   <trkpt lat="41.862983" lon="12.463033"><ele>20.75</ele></trkpt>
   <trkpt lat="41.863126" lon="12.463063"><ele>20.75</ele></trkpt>
   <trkpt lat="41.863385" lon="12.463103"><ele>19.75</ele></trkpt>
   <trkpt lat="41.863603" lon="12.46312"><ele>19.25</ele></trkpt>
   <trkpt lat="41.863753" lon="12.463127"><ele>19.5</ele></trkpt>
   <trkpt lat="41.863958" lon="12.463122"><ele>20</ele></trkpt>
   <trkpt lat="41.864287" lon="12.463088"><ele>21.25</ele></trkpt>
   <trkpt lat="41.864563" lon="12.463035"><ele>22</ele></trkpt>
   <trkpt lat="41.864742" lon="12.462988"><ele>23</ele></trkpt>
   <trkpt lat="41.864996" lon="12.462905"><ele>22.5</ele></trkpt>
   <trkpt lat="41.86519" lon="12.462828"><ele>22</ele></trkpt>
   <trkpt lat="41.865498" lon="12.462676"><ele>23</ele></trkpt>
   <trkpt lat="41.865685" lon="12.462566"><ele>22</ele></trkpt>
   <trkpt lat="41.865909" lon="12.462419"><ele>21.5</ele></trkpt>
   <trkpt lat="41.866266" lon="12.462146"><ele>18.5</ele></trkpt>
   <trkpt lat="41.866455" lon="12.461999"><ele>18.25</ele></trkpt>
   <trkpt lat="41.866887" lon="12.461649"><ele>21</ele></trkpt>
   <trkpt lat="41.867537" lon="12.461147"><ele>22.5</ele></trkpt>
   <trkpt lat="41.867667" lon="12.461059"><ele>23.5</ele></trkpt>
   <trkpt lat="41.867846" lon="12.460951"><ele>23.5</ele></trkpt>
   <trkpt lat="41.868041" lon="12.460854"><ele>22</ele></trkpt>
   <trkpt lat="41.86825" lon="12.460775"><ele>21.75</ele></trkpt>
   <trkpt lat="41.868429" lon="12.46072"><ele>21.75</ele></trkpt>
   <trkpt lat="41.868708" lon="12.460665"><ele>21.25</ele></trkpt>
   <trkpt lat="41.868929" lon="12.46065"><ele>21.25</ele></trkpt>
   <trkpt lat="41.869127" lon="12.460653"><ele>21.5</ele></trkpt>
   <trkpt lat="41.869259" lon="12.460664"><ele>21.75</ele></trkpt>
   <trkpt lat="41.869473" lon="12.4607"><ele>22.5</ele></trkpt>
   <trkpt lat="41.869638" lon="12.460743"><ele>22.5</ele></trkpt>
   <trkpt lat="41.869905" lon="12.46083"><ele>22.75</ele></trkpt>
   <trkpt lat="41.870291" lon="12.460999"><ele>23.5</ele></trkpt>
   <trkpt lat="41.870545" lon="12.461152"><ele>21</ele></trkpt>
   <trkpt lat="41.870669" lon="12.461244"><ele>21.5</ele></trkpt>
   <trkpt lat="41.870805" lon="12.461356"><ele>21.25</ele></trkpt>
   <trkpt lat="41.870954" lon="12.461499"><ele>21</ele></trkpt>
   <trkpt lat="41.871084" lon="12.461641"><ele>21</ele></trkpt>
   <trkpt lat="41.871195" lon="12.461779"><ele>21.25</ele></trkpt>
   <trkpt lat="41.871356" lon="12.462009"><ele>21</ele></trkpt>
   <trkpt lat="41.871501" lon="12.462255"><ele>21</ele></trkpt>
   <trkpt lat="41.871594" lon="12.46244"><ele>21.25</ele></trkpt>
   <trkpt lat="41.871663" lon="12.462597"><ele>21</ele></trkpt>
   <trkpt lat="41.87173" lon="12.462771"><ele>21</ele></trkpt>
   <trkpt lat="41.87183" lon="12.46309"><ele>21.25</ele></trkpt>
   <trkpt lat="41.87186" lon="12.463205"><ele>21.25</ele></trkpt>
   <trkpt lat="41.871913" lon="12.463433"><ele>21.25</ele></trkpt>
   <trkpt lat="41.871953" lon="12.463665"><ele>21</ele></trkpt>
   <trkpt lat="41.871983" lon="12.463908"><ele>21</ele></trkpt>
   <trkpt lat="41.872018" lon="12.464324"><ele>21</ele></trkpt>
   <trkpt lat="41.872149" lon="12.466085"><ele>20</ele></trkpt>
   <trkpt lat="41.872235" lon="12.467171"><ele>15.75</ele></trkpt>
   <trkpt lat="41.872279" lon="12.467746"><ele>17.75</ele></trkpt>
   <trkpt lat="41.872344" lon="12.468564"><ele>16.75</ele></trkpt>
   <trkpt lat="41.872375" lon="12.468923"><ele>17</ele></trkpt>
   <trkpt lat="41.872482" lon="12.470067"><ele>19.25</ele></trkpt>
   <trkpt lat="41.872535" lon="12.470708"><ele>16.75</ele></trkpt>
   <trkpt lat="41.872678" lon="12.472627"><ele>15.5</ele></trkpt>
   <trkpt lat="41.872759" lon="12.473681"><ele>19.75</ele></trkpt>
   <trkpt lat="41.872814" lon="12.47401"><ele>18.75</ele></trkpt>
   <trkpt lat="41.872831" lon="12.474164"><ele>18</ele></trkpt>
   <trkpt lat="41.872845" lon="12.474364"><ele>18.5</ele></trkpt>
   <trkpt lat="41.872959" lon="12.475361"><ele>18.75</ele></trkpt>
   <trkpt lat="41.872976" lon="12.475599"><ele>18.5</ele></trkpt>
   <trkpt lat="41.872989" lon="12.475837"><ele>18.75</ele></trkpt>
   <trkpt lat="41.873004" lon="12.476063"><ele>18.75</ele></trkpt>
   <trkpt lat="41.873099" lon="12.477025"><ele>18.25</ele></trkpt>
   <trkpt lat="41.873109" lon="12.477224"><ele>18</ele></trkpt>
   <trkpt lat="41.873154" lon="12.478039"><ele>17.75</ele></trkpt>
   <trkpt lat="41.87316" lon="12.478231"><ele>15.5</ele></trkpt>
   <trkpt lat="41.873176" lon="12.478565"><ele>14.5</ele></trkpt>
   <trkpt lat="41.873203" lon="12.47926"><ele>15.5</ele></trkpt>
   <trkpt lat="41.873204" lon="12.479675"><ele>15.25</ele></trkpt>
   <trkpt lat="41.873192" lon="12.48005"><ele>16</ele></trkpt>
   <trkpt lat="41.873158" lon="12.480535"><ele>15.5</ele></trkpt>
   <trkpt lat="41.873125" lon="12.480866"><ele>16.75</ele></trkpt>
   <trkpt lat="41.873044" lon="12.481399"><ele>18.75</ele></trkpt>
   <trkpt lat="41.872943" lon="12.482062"><ele>19</ele></trkpt>
   <trkpt lat="41.872844" lon="12.482711"><ele>18.5</ele></trkpt>
   <trkpt lat="41.871601" lon="12.490941"><ele>20.25</ele></trkpt>
   <trkpt lat="41.871293" lon="12.49295"><ele>23.5</ele></trkpt>
   <trkpt lat="41.871184" lon="12.493661"><ele>23</ele></trkpt>
   <trkpt lat="41.871156" lon="12.494015"><ele>22.5</ele></trkpt>
   <trkpt lat="41.871118" lon="12.4943"><ele>22.5</ele></trkpt>
   <trkpt lat="41.871063" lon="12.494657"><ele>22.75</ele></trkpt>
   <trkpt lat="41.87099" lon="12.495213"><ele>24.75</ele></trkpt>
   <trkpt lat="41.870938" lon="12.495755"><ele>25.25</ele></trkpt>
   <trkpt lat="41.870917" lon="12.496069"><ele>24.75</ele></trkpt>
   <trkpt lat="41.870889" lon="12.4967"><ele>24.75</ele></trkpt>
   <trkpt lat="41.870885" lon="12.497326"><ele>24.5</ele></trkpt>
   <trkpt lat="41.870891" lon="12.497855"><ele>25</ele></trkpt>
   <trkpt lat="41.870869" lon="12.498525"><ele>24.5</ele></trkpt>
   <trkpt lat="41.870866" lon="12.498743"><ele>24.5</ele></trkpt>
   <trkpt lat="41.870875" lon="12.499779"><ele>25.5</ele></trkpt>
   <trkpt lat="41.870879" lon="12.500056"><ele>25.5</ele></trkpt>
   <trkpt lat="41.870918" lon="12.500944"><ele>26.75</ele></trkpt>
   <trkpt lat="41.870933" lon="12.502931"><ele>27.5</ele></trkpt>
   <trkpt lat="41.870941" lon="12.503229"><ele>28</ele></trkpt>
   <trkpt lat="41.870962" lon="12.503639"><ele>28.5</ele></trkpt>
   <trkpt lat="41.871006" lon="12.504076"><ele>28.75</ele></trkpt>
   <trkpt lat="41.871047" lon="12.504337"><ele>28.5</ele></trkpt>
   <trkpt lat="41.87111" lon="12.504663"><ele>28.75</ele></trkpt>
   <trkpt lat="41.871193" lon="12.504998"><ele>29.75</ele></trkpt>
   <trkpt lat="41.871234" lon="12.50514"><ele>30.5</ele></trkpt>
   <trkpt lat="41.871286" lon="12.505306"><ele>31.25</ele></trkpt>
   <trkpt lat="41.871392" lon="12.505599"><ele>30</ele></trkpt>
   <trkpt lat="41.87151" lon="12.505889"><ele>31.5</ele></trkpt>
   <trkpt lat="41.871591" lon="12.506065"><ele>31.5</ele></trkpt>
   <trkpt lat="41.871785" lon="12.506428"><ele>32.5</ele></trkpt>
   <trkpt lat="41.871905" lon="12.506623"><ele>31.75</ele></trkpt>
   <trkpt lat="41.872051" lon="12.506836"><ele>31.75</ele></trkpt>
   <trkpt lat="41.872236" lon="12.507084"><ele>32</ele></trkpt>
   <trkpt lat="41.872409" lon="12.507281"><ele>32.5</ele></trkpt>
   <trkpt lat="41.872562" lon="12.507437"><ele>32.75</ele></trkpt>
   <trkpt lat="41.872767" lon="12.507624"><ele>33</ele></trkpt>
   <trkpt lat="41.87306" lon="12.50786"><ele>33.5</ele></trkpt>
   <trkpt lat="41.874315" lon="12.508749"><ele>36.25</ele></trkpt>
   <trkpt lat="41.874563" lon="12.508945"><ele>36.75</ele></trkpt>
   <trkpt lat="41.874859" lon="12.50922"><ele>37</ele></trkpt>
   <trkpt lat="41.87503" lon="12.509403"><ele>36.25</ele></trkpt>
   <trkpt lat="41.875262" lon="12.509689"><ele>36.75</ele></trkpt>
   <trkpt lat="41.875411" lon="12.509899"><ele>38.25</ele></trkpt>
   <trkpt lat="41.875555" lon="12.510123"><ele>37.5</ele></trkpt>
   <trkpt lat="41.875659" lon="12.510303"><ele>38.25</ele></trkpt>
   <trkpt lat="41.87581" lon="12.51059"><ele>39.75</ele></trkpt>
   <trkpt lat="41.875959" lon="12.510926"><ele>39.5</ele></trkpt>
   <trkpt lat="41.876034" lon="12.511119"><ele>39.5</ele></trkpt>
   <trkpt lat="41.876147" lon="12.511448"><ele>37.5</ele></trkpt>
   <trkpt lat="41.876222" lon="12.511705"><ele>38.5</ele></trkpt>
   <trkpt lat="41.876271" lon="12.511902"><ele>38</ele></trkpt>
   <trkpt lat="41.876341" lon="12.512242"><ele>38.25</ele></trkpt>
   <trkpt lat="41.876382" lon="12.512485"><ele>38</ele></trkpt>
   <trkpt lat="41.876416" lon="12.512751"><ele>38.75</ele></trkpt>
   <trkpt lat="41.876477" lon="12.513455"><ele>39.5</ele></trkpt>
   <trkpt lat="41.876618" lon="12.515651"><ele>41</ele></trkpt>
   <trkpt lat="41.876744" lon="12.517584"><ele>40.5</ele></trkpt>
   <trkpt lat="41.876798" lon="12.518157"><ele>41.75</ele></trkpt>
   <trkpt lat="41.876861" lon="12.518588"><ele>42.25</ele></trkpt>
   <trkpt lat="41.876928" lon="12.518917"><ele>40.75</ele></trkpt>
   <trkpt lat="41.877" lon="12.519202"><ele>40.25</ele></trkpt>
   <trkpt lat="41.877047" lon="12.519365"><ele>41.5</ele></trkpt>
   <trkpt lat="41.87711" lon="12.519552"><ele>43</ele></trkpt>
   <trkpt lat="41.877268" lon="12.519984"><ele>41.5</ele></trkpt>
   <trkpt lat="41.877383" lon="12.52024"><ele>41.75</ele></trkpt>
   <trkpt lat="41.877544" lon="12.520558"><ele>40.25</ele></trkpt>
   <trkpt lat="41.87774" lon="12.520894"><ele>40.75</ele></trkpt>
   <trkpt lat="41.878497" lon="12.522061"><ele>40</ele></trkpt>
   <trkpt lat="41.878812" lon="12.522543"><ele>39.75</ele></trkpt>
   <trkpt lat="41.87892" lon="12.522712"><ele>39.5</ele></trkpt>
   <trkpt lat="41.879363" lon="12.523393"><ele>42</ele></trkpt>
   <trkpt lat="41.879859" lon="12.524154"><ele>42</ele></trkpt>
   <trkpt lat="41.880078" lon="12.524478"><ele>42</ele></trkpt>
   <trkpt lat="41.880303" lon="12.524778"><ele>42</ele></trkpt>
   <trkpt lat="41.880519" lon="12.525033"><ele>41.75</ele></trkpt>
   <trkpt lat="41.88077" lon="12.525289"><ele>42</ele></trkpt>
   <trkpt lat="41.880875" lon="12.525388"><ele>42</ele></trkpt>
   <trkpt lat="41.881149" lon="12.525616"><ele>42</ele></trkpt>
   <trkpt lat="41.88137" lon="12.525773"><ele>42</ele></trkpt>
   <trkpt lat="41.881601" lon="12.525921"><ele>42</ele></trkpt>
   <trkpt lat="41.881868" lon="12.52607"><ele>42</ele></trkpt>
   <trkpt lat="41.882183" lon="12.52622"><ele>42</ele></trkpt>
   <trkpt lat="41.882525" lon="12.526354"><ele>42</ele></trkpt>
   <trkpt lat="41.882708" lon="12.526413"><ele>42</ele></trkpt>
   <trkpt lat="41.883154" lon="12.526528"><ele>42</ele></trkpt>
   <trkpt lat="41.883368" lon="12.526562"><ele>42</ele></trkpt>
   <trkpt lat="41.883691" lon="12.526596"><ele>41.75</ele></trkpt>
   <trkpt lat="41.883975" lon="12.526603"><ele>41.5</ele></trkpt>
   <trkpt lat="41.88415" lon="12.526597"><ele>41.5</ele></trkpt>
   <trkpt lat="41.884384" lon="12.526576"><ele>41.5</ele></trkpt>
   <trkpt lat="41.88479" lon="12.526502"><ele>42</ele></trkpt>
   <trkpt lat="41.884969" lon="12.526454"><ele>42</ele></trkpt>
   <trkpt lat="41.885181" lon="12.526386"><ele>42</ele></trkpt>
   <trkpt lat="41.885524" lon="12.526248"><ele>42.75</ele></trkpt>
   <trkpt lat="41.885779" lon="12.526123"><ele>43.75</ele></trkpt>
   <trkpt lat="41.885998" lon="12.526003"><ele>46.5</ele></trkpt>
   <trkpt lat="41.886242" lon="12.52585"><ele>46.5</ele></trkpt>
   <trkpt lat="41.886531" lon="12.525652"><ele>47.25</ele></trkpt>
   <trkpt lat="41.886642" lon="12.525567"><ele>44.5</ele></trkpt>
   <trkpt lat="41.886781" lon="12.525455"><ele>46.25</ele></trkpt>
   <trkpt lat="41.887054" lon="12.525206"><ele>45.75</ele></trkpt>
   <trkpt lat="41.887311" lon="12.524925"><ele>45.5</ele></trkpt>
   <trkpt lat="41.887451" lon="12.524755"><ele>45.25</ele></trkpt>
   <trkpt lat="41.887652" lon="12.524484"><ele>46</ele></trkpt>
   <trkpt lat="41.887869" lon="12.524153"><ele>46.5</ele></trkpt>
   <trkpt lat="41.888076" lon="12.523785"><ele>45.75</ele></trkpt>
   <trkpt lat="41.888624" lon="12.522731"><ele>49.5</ele></trkpt>
   <trkpt lat="41.891281" lon="12.517657"><ele>46</ele></trkpt>
   <trkpt lat="41.891562" lon="12.517121"><ele>46</ele></trkpt>
   <trkpt lat="41.891871" lon="12.516514"><ele>50.5</ele></trkpt>
   <trkpt lat="41.892001" lon="12.516242"><ele>48.75</ele></trkpt>
   <trkpt lat="41.892326" lon="12.515562"><ele>45</ele></trkpt>
   <trkpt lat="41.892491" lon="12.515223"><ele>46.75</ele></trkpt>
   <trkpt lat="41.892888" lon="12.514429"><ele>51.75</ele></trkpt>
   <trkpt lat="41.893186" lon="12.513882"><ele>51.25</ele></trkpt>
   <trkpt lat="41.893435" lon="12.513442"><ele>52.5</ele></trkpt>
   <trkpt lat="41.893562" lon="12.513235"><ele>53.25</ele></trkpt>
   <trkpt lat="41.893789" lon="12.512893"><ele>54</ele></trkpt>
   <trkpt lat="41.893897" lon="12.512719"><ele>54.75</ele></trkpt>
   <trkpt lat="41.894023" lon="12.512508"><ele>54.25</ele></trkpt>
   <trkpt lat="41.894148" lon="12.512317"><ele>54.75</ele></trkpt>
   <trkpt lat="41.894497" lon="12.511806"><ele>56</ele></trkpt>
   <trkpt lat="41.894619" lon="12.511607"><ele>55.75</ele></trkpt>
   <trkpt lat="41.895103" lon="12.510899"><ele>56</ele></trkpt>
   <trkpt lat="41.895218" lon="12.510713"><ele>56</ele></trkpt>
   <trkpt lat="41.895422" lon="12.510382"><ele>55.75</ele></trkpt>
   <trkpt lat="41.895596" lon="12.510101"><ele>51.5</ele></trkpt>
   <trkpt lat="41.895694" lon="12.509941"><ele>51.5</ele></trkpt>
   <trkpt lat="41.895949" lon="12.50957"><ele>57</ele></trkpt>
   <trkpt lat="41.896294" lon="12.509109"><ele>57</ele></trkpt>
   <trkpt lat="41.89655" lon="12.508784"><ele>57</ele></trkpt>
   <trkpt lat="41.896908" lon="12.508329"><ele>57</ele></trkpt>
   <trkpt lat="41.897134" lon="12.508044"><ele>58</ele></trkpt>
   <trkpt lat="41.897449" lon="12.507635"><ele>58</ele></trkpt>
   <trkpt lat="41.89773" lon="12.507263"><ele>57.75</ele></trkpt>
   <trkpt lat="41.898304" lon="12.506291"><ele>58</ele></trkpt>
   <trkpt lat="41.898531" lon="12.505906"><ele>58</ele></trkpt>
   <trkpt lat="41.900497" lon="12.502574"><ele>58</ele></trkpt>
   <trkpt lat="41.900575" lon="12.502441"><ele>58</ele></trkpt>
  </trkseg>
 </trk>
</gpx>