<?xml version="1.0" encoding="UTF-8"?>
<!-- track-length = 39513 filtered ascend = 18 plain-ascend = -1 cost=39513 energy=0.5kwh time=52m 41s -->
<gpx 
 xmlns="http://www.topografix.com/GPX/1/1" 
 xmlns:xsi="http://www.w3.org/2001/XMLSchema-instance" 
 xsi:schemaLocation="http://www.topografix.com/GPX/1/1 http://www.topografix.com/GPX/1/1/gpx.xsd" 
 version="1.1" 
 creator="BRouter-Web 0.18.1">
 <trk>
  <name>Utrecht -&gt; Amsterdam (39.5km)</name>
  <trkseg>
   <trkpt lat="52.089345" lon="5.109504"><ele>4</ele></trkpt>
   <trkpt lat="52.089527" lon="5.109336"><ele>4</ele></trkpt>
   <trkpt lat="52.089614" lon="5.109255"><ele>4</ele></trkpt>
   <trkpt lat="52.089658" lon="5.109215"><ele>4</ele></trkpt>
   <trkpt lat="52.08967" lon="5.109203"><ele>4</ele></trkpt>
   <trkpt lat="52.08979" lon="5.109096"><ele>4</ele></trkpt>
   <trkpt lat="52.089885" lon="5.10901"><ele>4</ele></trkpt>
   <trkpt lat="52.08998" lon="5.108928"><ele>4</ele></trkpt>
   <trkpt lat="52.090085" lon="5.108838"><ele>4</ele></trkpt>
   <trkpt lat="52.090369" lon="5.108618"><ele>4</ele></trkpt>
   <trkpt lat="52.090748" lon="5.108367"><ele>4.5</ele></trkpt>
   <trkpt lat="52.090906" lon="5.108262"><ele>4.5</ele></trkpt>
   <trkpt lat="52.090946" lon="5.108236"><ele>4.25</ele></trkpt>
   <trkpt lat="52.091048" lon="5.108177"><ele>4</ele></trkpt>
   <trkpt lat="52.091074" lon="5.108162"><ele>4</ele></trkpt>
   <trkpt lat="52.091519" lon="5.107913"><ele>4</ele></trkpt>
   <trkpt lat="52.09172" lon="5.107788"><ele>4</ele></trkpt>
   <trkpt lat="52.092058" lon="5.107554"><ele>4.5</ele></trkpt>
   <trkpt lat="52.092402" lon="5.107284"><ele>3.75</ele></trkpt>
   <trkpt lat="52.092937" lon="5.106788"><ele>3.75</ele></trkpt>
   <trkpt lat="52.093185" lon="5.106551"><ele>4</ele></trkpt>
   <trkpt lat="52.093372" lon="5.106371"><ele>3.75</ele></trkpt>
   <trkpt lat="52.093918" lon="5.105845"><ele>4</ele></trkpt>
   <trkpt lat="52.094069" lon="5.105686"><ele>3.75</ele></trkpt>
   <trkpt lat="52.094327" lon="5.105376"><ele>4</ele></trkpt>
   <trkpt lat="52.094449" lon="5.105208"><ele>3.75</ele></trkpt>
   <trkpt lat="52.094618" lon="5.104953"><ele>3.75</ele></trkpt>
   <trkpt lat="52.094791" lon="5.10466"><ele>4</ele></trkpt>
   <trkpt lat="52.094896" lon="5.104463"><ele>4</ele></trkpt>
   <trkpt lat="52.095091" lon="5.104049"><ele>3.25</ele></trkpt>
   <trkpt lat="52.095214" lon="5.103744"><ele>3</ele></trkpt>
   <trkpt lat="52.095228" lon="5.103708"><ele>3</ele></trkpt>
   <trkpt lat="52.095343" lon="5.103385"><ele>3</ele></trkpt>
   <trkpt lat="52.095487" lon="5.102931"><ele>3</ele></trkpt>
   <trkpt lat="52.095932" lon="5.101512"><ele>2.5</ele></trkpt>
   <trkpt lat="52.096111" lon="5.10101"><ele>2</ele></trkpt>
   <trkpt lat="52.096211" lon="5.100756"><ele>3.25</ele></trkpt>
   <trkpt lat="52.096402" lon="5.100312"><ele>2</ele></trkpt>
   <trkpt lat="52.096569" lon="5.099959"><ele>2</ele></trkpt>
   <trkpt lat="52.096766" lon="5.099586"><ele>2.25</ele></trkpt>
   <trkpt lat="52.096885" lon="5.099375"><ele>2</ele></trkpt>
   <trkpt lat="52.097109" lon="5.099009"><ele>2.25</ele></trkpt>
   <trkpt lat="52.098617" lon="5.096755"><ele>2.75</ele></trkpt>
   <trkpt lat="52.099047" lon="5.096113"><ele>2.5</ele></trkpt>
   <trkpt lat="52.099224" lon="5.095849"><ele>2.75</ele></trkpt>
   <trkpt lat="52.099296" lon="5.09574"><ele>2.75</ele></trkpt>
   <trkpt lat="52.099395" lon="5.095591"><ele>2.75</ele></trkpt>
   <trkpt lat="52.100119" lon="5.094475"><ele>3.25</ele></trkpt>
   <trkpt lat="52.100137" lon="5.094447"><ele>3.25</ele></trkpt>
   <trkpt lat="52.100388" lon="5.094049"><ele>3.25</ele></trkpt>
   <trkpt lat="52.101002" lon="5.093053"><ele>4</ele></trkpt>
   <trkpt lat="52.101309" lon="5.09254"><ele>4.25</ele></trkpt>
   <trkpt lat="52.102372" lon="5.090708"><ele>5.75</ele></trkpt>
   <trkpt lat="52.102857" lon="5.089866"><ele>5.75</ele></trkpt>
   <trkpt lat="52.102981" lon="5.08965"><ele>5.75</ele></trkpt>
   <trkpt lat="52.103191" lon="5.089285"><ele>5.75</ele></trkpt>
   <trkpt lat="52.103401" lon="5.088921"><ele>5.75</ele></trkpt>
   <trkpt lat="52.103701" lon="5.088398"><ele>5.75</ele></trkpt>
   <trkpt lat="52.103773" lon="5.088274"><ele>5.75</ele></trkpt>
   <trkpt lat="52.103791" lon="5.088242"><ele>5.75</ele></trkpt>
   <trkpt lat="52.104052" lon="5.087789"><ele>5.75</ele></trkpt>
   <trkpt lat="52.104079" lon="5.087741"><ele>5.75</ele></trkpt>
   <trkpt lat="52.104099" lon="5.087707"><ele>6</ele></trkpt>
   <trkpt lat="52.104117" lon="5.087675"><ele>6.25</ele></trkpt>
   <trkpt lat="52.104814" lon="5.086466"><ele>5.75</ele></trkpt>
   <trkpt lat="52.104853" lon="5.086397"><ele>5.75</ele></trkpt>
   <trkpt lat="52.104869" lon="5.086369"><ele>5.75</ele></trkpt>
   <trkpt lat="52.104875" lon="5.08636"><ele>5.75</ele></trkpt>
   <trkpt lat="52.105024" lon="5.086101"><ele>6.75</ele></trkpt>
   <trkpt lat="52.105194" lon="5.085805"><ele>6</ele></trkpt>
   <trkpt lat="52.105212" lon="5.085774"><ele>6</ele></trkpt>
   <trkpt lat="52.106297" lon="5.08389"><ele>6.75</ele></trkpt>
   <trkpt lat="52.106389" lon="5.083731"><ele>6.75</ele></trkpt>
   <trkpt lat="52.106406" lon="5.083701"><ele>6.75</ele></trkpt>
   <trkpt lat="52.106461" lon="5.083606"><ele>6.75</ele></trkpt>
   <trkpt lat="52.107087" lon="5.082513"><ele>7</ele></trkpt>
   <trkpt lat="52.108417" lon="5.080145"><ele>7.75</ele></trkpt>
   <trkpt lat="52.10873" lon="5.079592"><ele>7.75</ele></trkpt>
   <trkpt lat="52.108748" lon="5.079561"><ele>7.75</ele></trkpt>
   <trkpt lat="52.109261" lon="5.078661"><ele>9.25</ele></trkpt>
   <trkpt lat="52.109509" lon="5.078231"><ele>3.75</ele></trkpt>
   <trkpt lat="52.111085" lon="5.075494"><ele>3</ele></trkpt>
   <trkpt lat="52.111136" lon="5.075406"><ele>5.5</ele></trkpt>
   <trkpt lat="52.112374" lon="5.073284"><ele>7</ele></trkpt>
   <trkpt lat="52.112392" lon="5.073253"><ele>6.75</ele></trkpt>
   <trkpt lat="52.112412" lon="5.073219"><ele>6.25</ele></trkpt>
   <trkpt lat="52.112537" lon="5.073009"><ele>5.5</ele></trkpt>
   <trkpt lat="52.112712" lon="5.072713"><ele>7.25</ele></trkpt>
   <trkpt lat="52.112788" lon="5.072585"><ele>7.75</ele></trkpt>
   <trkpt lat="52.113111" lon="5.072036"><ele>7.25</ele></trkpt>
   <trkpt lat="52.113128" lon="5.072008"><ele>7.25</ele></trkpt>
   <trkpt lat="52.11382" lon="5.070822"><ele>6.75</ele></trkpt>
   <trkpt lat="52.117146" lon="5.06504"><ele>4.25</ele></trkpt>
   <trkpt lat="52.117904" lon="5.063724"><ele>3.5</ele></trkpt>
   <trkpt lat="52.118213" lon="5.063187"><ele>3.5</ele></trkpt>
   <trkpt lat="52.118232" lon="5.063153"><ele>3.5</ele></trkpt>
   <trkpt lat="52.11995" lon="5.060166"><ele>2.75</ele></trkpt>
   <trkpt lat="52.12041" lon="5.05938"><ele>2.75</ele></trkpt>
   <trkpt lat="52.120993" lon="5.058415"><ele>2.5</ele></trkpt>
   <trkpt lat="52.122177" lon="5.056529"><ele>2.75</ele></trkpt>
   <trkpt lat="52.122715" lon="5.055656"><ele>2</ele></trkpt>
   <trkpt lat="52.123204" lon="5.054834"><ele>2</ele></trkpt>
   <trkpt lat="52.123684" lon="5.054005"><ele>1.75</ele></trkpt>
   <trkpt lat="52.124504" lon="5.052555"><ele>1</ele></trkpt>
   <trkpt lat="52.124605" lon="5.052375"><ele>0.5</ele></trkpt>
   <trkpt lat="52.124722" lon="5.052167"><ele>1.75</ele></trkpt>
   <trkpt lat="52.125064" lon="5.051562"><ele>1.5</ele></trkpt>
   <trkpt lat="52.125073" lon="5.051546"><ele>1.5</ele></trkpt>
   <trkpt lat="52.126129" lon="5.049676"><ele>2</ele></trkpt>
   <trkpt lat="52.127396" lon="5.047467"><ele>1.5</ele></trkpt>
   <trkpt lat="52.127539" lon="5.047218"><ele>1.75</ele></trkpt>
   <trkpt lat="52.127846" lon="5.046723"><ele>2</ele></trkpt>
   <trkpt lat="52.128253" lon="5.046103"><ele>1.75</ele></trkpt>
   <trkpt lat="52.12856" lon="5.045608"><ele>1.75</ele></trkpt>
   <trkpt lat="52.129014" lon="5.044818"><ele>2.75</ele></trkpt>
   <trkpt lat="52.129166" lon="5.044554"><ele>2</ele></trkpt>
   <trkpt lat="52.130506" lon="5.042266"><ele>1.5</ele></trkpt>
   <trkpt lat="52.131161" lon="5.041153"><ele>1</ele></trkpt>
   <trkpt lat="52.131444" lon="5.040672"><ele>0.75</ele></trkpt>
   <trkpt lat="52.133544" lon="5.037109"><ele>1</ele></trkpt>
   <trkpt lat="52.133736" lon="5.036783"><ele>1</ele></trkpt>
   <trkpt lat="52.133789" lon="5.036695"><ele>1</ele></trkpt>
   <trkpt lat="52.134198" lon="5.036"><ele>1</ele></trkpt>
   <trkpt lat="52.134507" lon="5.03551"><ele>1</ele></trkpt>
   <trkpt lat="52.134816" lon="5.035055"><ele>1</ele></trkpt>
   <trkpt lat="52.135126" lon="5.034565"><ele>1</ele></trkpt>
   <trkpt lat="52.135218" lon="5.03441"><ele>1</ele></trkpt>
   <trkpt lat="52.135414" lon="5.034077"><ele>1.5</ele></trkpt>
   <trkpt lat="52.135612" lon="5.033739"><ele>1.5</ele></trkpt>
   <trkpt lat="52.13581" lon="5.033399"><ele>1</ele></trkpt>
   <trkpt lat="52.135934" lon="5.033187"><ele>1</ele></trkpt>
   <trkpt lat="52.135986" lon="5.033097"><ele>1</ele></trkpt>
   <trkpt lat="52.136261" lon="5.032621"><ele>1</ele></trkpt>
   <trkpt lat="52.136607" lon="5.032017"><ele>1</ele></trkpt>
   <trkpt lat="52.136854" lon="5.031587"><ele>1</ele></trkpt>
   <trkpt lat="52.13692" lon="5.031471"><ele>1</ele></trkpt>
   <trkpt lat="52.137421" lon="5.030598"><ele>1</ele></trkpt>
   <trkpt lat="52.1381" lon="5.029504"><ele>1</ele></trkpt>
   <trkpt lat="52.138419" lon="5.028949"><ele>1</ele></trkpt>
   <trkpt lat="52.138473" lon="5.028855"><ele>1</ele></trkpt>
   <trkpt lat="52.13953" lon="5.027022"><ele>1</ele></trkpt>
   <trkpt lat="52.140993" lon="5.024567"><ele>1</ele></trkpt>
   <trkpt lat="52.141728" lon="5.023314"><ele>1</ele></trkpt>
   <trkpt lat="52.144099" lon="5.019182"><ele>1</ele></trkpt>
   <trkpt lat="52.14662" lon="5.014785"><ele>1</ele></trkpt>
   <trkpt lat="52.149032" lon="5.010573"><ele>1</ele></trkpt>
   <trkpt lat="52.149619" lon="5.009526"><ele>1</ele></trkpt>
   <trkpt lat="52.14994" lon="5.008933"><ele>0.75</ele></trkpt>
   <trkpt lat="52.150344" lon="5.008163"><ele>0.75</ele></trkpt>
   <trkpt lat="52.150798" lon="5.007256"><ele>0.75</ele></trkpt>
   <trkpt lat="52.151115" lon="5.006599"><ele>0.75</ele></trkpt>
   <trkpt lat="52.152367" lon="5.003949"><ele>0.75</ele></trkpt>
   <trkpt lat="52.152687" lon="5.003296"><ele>0.5</ele></trkpt>
   <trkpt lat="52.152953" lon="5.002773"><ele>0.5</ele></trkpt>
   <trkpt lat="52.15299" lon="5.002703"><ele>0.5</ele></trkpt>
   <trkpt lat="52.153485" lon="5.001784"><ele>0.5</ele></trkpt>
   <trkpt lat="52.153767" lon="5.001294"><ele>0.5</ele></trkpt>
   <trkpt lat="52.15424" lon="5.000512"><ele>0.5</ele></trkpt>
   <trkpt lat="52.154558" lon="5.000015"><ele>0.5</ele></trkpt>
   <trkpt lat="52.154727" lon="4.99976"><ele>0.5</ele></trkpt>
   <trkpt lat="52.155122" lon="4.999185"><ele>0.5</ele></trkpt>
   <trkpt lat="52.1554" lon="4.998799"><ele>0.5</ele></trkpt>
   <trkpt lat="52.155792" lon="4.998277"><ele>0.25</ele></trkpt>
   <trkpt lat="52.156355" lon="4.997572"><ele>0.25</ele></trkpt>
   <trkpt lat="52.156713" lon="4.99715"><ele>0.25</ele></trkpt>
   <trkpt lat="52.157176" lon="4.996633"><ele>0.25</ele></trkpt>
   <trkpt lat="52.157634" lon="4.996151"><ele>0.25</ele></trkpt>
   <trkpt lat="52.158099" lon="4.995692"><ele>0.25</ele></trkpt>
   <trkpt lat="52.158596" lon="4.995229"><ele>0.25</ele></trkpt>
   <trkpt lat="52.158939" lon="4.994928"><ele>0.25</ele></trkpt>
   <trkpt lat="52.159374" lon="4.994565"><ele>0.25</ele></trkpt>
   <trkpt lat="52.159988" lon="4.994088"><ele>0.25</ele></trkpt>
   <trkpt lat="52.160591" lon="4.99366"><ele>0.25</ele></trkpt>
   <trkpt lat="52.161064" lon="4.993351"><ele>0.25</ele></trkpt>
   <trkpt lat="52.161614" lon="4.993018"><ele>0.25</ele></trkpt>
   <trkpt lat="52.162099" lon="4.99275"><ele>0.25</ele></trkpt>
   <trkpt lat="52.162303" lon="4.992644"><ele>0.25</ele></trkpt>
   <trkpt lat="52.162909" lon="4.99235"><ele>0.25</ele></trkpt>
   <trkpt lat="52.163319" lon="4.992171"><ele>0.25</ele></trkpt>
   <trkpt lat="52.163725" lon="4.992008"><ele>0.25</ele></trkpt>
   <trkpt lat="52.164076" lon="4.991881"><ele>0.25</ele></trkpt>
   <trkpt lat="52.164529" lon="4.991731"><ele>0.25</ele></trkpt>
   <trkpt lat="52.165099" lon="4.991567"><ele>0.25</ele></trkpt>
   <trkpt lat="52.165686" lon="4.991425"><ele>0.5</ele></trkpt>
   <trkpt lat="52.166222" lon="4.991319"><ele>0.75</ele></trkpt>
   <trkpt lat="52.166751" lon="4.991229"><ele>1.25</ele></trkpt>
   <trkpt lat="52.16748" lon="4.991123"><ele>1.75</ele></trkpt>
   <trkpt lat="52.168437" lon="4.99094"><ele>1.75</ele></trkpt>
   <trkpt lat="52.168883" lon="4.990887"><ele>2</ele></trkpt>
   <trkpt lat="52.169628" lon="4.990805"><ele>4</ele></trkpt>
   <trkpt lat="52.170106" lon="4.99077"><ele>3.5</ele></trkpt>
   <trkpt lat="52.170165" lon="4.990767"><ele>3.5</ele></trkpt>
   <trkpt lat="52.1702" lon="4.990766"><ele>3.75</ele></trkpt>
   <trkpt lat="52.170458" lon="4.990753"><ele>3.75</ele></trkpt>
   <trkpt lat="52.170512" lon="4.990751"><ele>3.75</ele></trkpt>
   <trkpt lat="52.170785" lon="4.990743"><ele>4</ele></trkpt>
   <trkpt lat="52.170958" lon="4.990741"><ele>4</ele></trkpt>
   <trkpt lat="52.171303" lon="4.990741"><ele>4</ele></trkpt>
   <trkpt lat="52.171866" lon="4.990758"><ele>3.25</ele></trkpt>
   <trkpt lat="52.171928" lon="4.990761"><ele>3.25</ele></trkpt>
   <trkpt lat="52.172035" lon="4.990767"><ele>3.25</ele></trkpt>
   <trkpt lat="52.172038" lon="4.990767"><ele>3.5</ele></trkpt>
   <trkpt lat="52.172101" lon="4.99077"><ele>3.5</ele></trkpt>
   <trkpt lat="52.172583" lon="4.990807"><ele>4</ele></trkpt>
   <trkpt lat="52.1734" lon="4.9909"><ele>3.5</ele></trkpt>
   <trkpt lat="52.174004" lon="4.990995"><ele>3</ele></trkpt>
   <trkpt lat="52.174343" lon="4.991058"><ele>3</ele></trkpt>
   <trkpt lat="52.175044" lon="4.991211"><ele>2.5</ele></trkpt>
   <trkpt lat="52.175559" lon="4.991344"><ele>2.25</ele></trkpt>
   <trkpt lat="52.176083" lon="4.991495"><ele>2</ele></trkpt>
   <trkpt lat="52.176926" lon="4.991763"><ele>1.5</ele></trkpt>
   <trkpt lat="52.178151" lon="4.992155"><ele>1</ele></trkpt>
   <trkpt lat="52.179003" lon="4.992423"><ele>1</ele></trkpt>
   <trkpt lat="52.179085" lon="4.992449"><ele>1</ele></trkpt>
   <trkpt lat="52.179969" lon="4.99271"><ele>1</ele></trkpt>
   <trkpt lat="52.180707" lon="4.992912"><ele>0.5</ele></trkpt>
   <trkpt lat="52.183262" lon="4.993607"><ele>1</ele></trkpt>
   <trkpt lat="52.190332" lon="4.995532"><ele>1.75</ele></trkpt>
   <trkpt lat="52.192798" lon="4.996202"><ele>2</ele></trkpt>
   <trkpt lat="52.194852" lon="4.996761"><ele>2.25</ele></trkpt>
   <trkpt lat="52.199678" lon="4.998074"><ele>3</ele></trkpt>
   <trkpt lat="52.200547" lon="4.998311"><ele>2.75</ele></trkpt>
   <trkpt lat="52.201021" lon="4.99844"><ele>2.5</ele></trkpt>
   <trkpt lat="52.204246" lon="4.99932"><ele>1.25</ele></trkpt>
   <trkpt lat="52.206033" lon="4.999854"><ele>0.75</ele></trkpt>
   <trkpt lat="52.206287" lon="4.999931"><ele>0.75</ele></trkpt>
   <trkpt lat="52.206569" lon="5.000015"><ele>0.75</ele></trkpt>
   <trkpt lat="52.207763" lon="5.000351"><ele>0.75</ele></trkpt>
   <trkpt lat="52.21034" lon="5.001056"><ele>0.75</ele></trkpt>
   <trkpt lat="52.21896" lon="5.003408"><ele>0.75</ele></trkpt>
   <trkpt lat="52.219793" lon="5.003635"><ele>0.75</ele></trkpt>
   <trkpt lat="52.219795" lon="5.003636"><ele>0.75</ele></trkpt>
   <trkpt lat="52.221585" lon="5.004125"><ele>0.75</ele></trkpt>
   <trkpt lat="52.22165" lon="5.004143"><ele>0.75</ele></trkpt>
   <trkpt lat="52.229457" lon="5.006268"><ele>0.75</ele></trkpt>
   <trkpt lat="52.233089" lon="5.007255"><ele>0.75</ele></trkpt>
   <trkpt lat="52.233107" lon="5.00726"><ele>0.75</ele></trkpt>
   <trkpt lat="52.234293" lon="5.007575"><ele>0.75</ele></trkpt>
   <trkpt lat="52.23494" lon="5.007728"><ele>0.75</ele></trkpt>
   <trkpt lat="52.235597" lon="5.007856"><ele>0.75</ele></trkpt>
   <trkpt lat="52.236231" lon="5.007953"><ele>0.75</ele></trkpt>
   <trkpt lat="52.23657" lon="5.007994"><ele>0.75</ele></trkpt>
   <trkpt lat="52.237291" lon="5.008062"><ele>0.75</ele></trkpt>
   <trkpt lat="52.23775" lon="5.008088"><ele>0.5</ele></trkpt>
   <trkpt lat="52.23813" lon="5.008097"><ele>0.5</ele></trkpt>
   <trkpt lat="52.238565" lon="5.008095"><ele>0.5</ele></trkpt>
   <trkpt lat="52.239041" lon="5.008078"><ele>0.5</ele></trkpt>
   <trkpt lat="52.239644" lon="5.008032"><ele>0.5</ele></trkpt>
   <trkpt lat="52.239962" lon="5.007997"><ele>0.5</ele></trkpt>
   <trkpt lat="52.240533" lon="5.007916"><ele>0.5</ele></trkpt>
   <trkpt lat="52.240874" lon="5.007855"><ele>0.25</ele></trkpt>
   <trkpt lat="52.241184" lon="5.007793"><ele>0.25</ele></trkpt>
   <trkpt lat="52.241708" lon="5.007671"><ele>0.25</ele></trkpt>
   <trkpt lat="52.242235" lon="5.007527"><ele>0.25</ele></trkpt>
   <trkpt lat="52.242572" lon="5.007424"><ele>0.25</ele></trkpt>
   <trkpt lat="52.243201" lon="5.007208"><ele>0.25</ele></trkpt>
   <trkpt lat="52.243663" lon="5.00703"><ele>0.25</ele></trkpt>
   <trkpt lat="52.244084" lon="5.006853"><ele>0</ele></trkpt>
   <trkpt lat="52.244683" lon="5.006576"><ele>0</ele></trkpt>
   <trkpt lat="52.244964" lon="5.006436"><ele>0</ele></trkpt>
   <trkpt lat="52.245238" lon="5.006294"><ele>0</ele></trkpt>
   <trkpt lat="52.24575" lon="5.006009"><ele>0</ele></trkpt>
   <trkpt lat="52.246492" lon="5.005555"><ele>0</ele></trkpt>
   <trkpt lat="52.246512" lon="5.005542"><ele>0</ele></trkpt>
   <trkpt lat="52.247086" lon="5.005157"><ele>0</ele></trkpt>
   <trkpt lat="52.247416" lon="5.00492"><ele>0</ele></trkpt>
   <trkpt lat="52.248046" lon="5.004441"><ele>0</ele></trkpt>
   <trkpt lat="52.248467" lon="5.004098"><ele>0</ele></trkpt>
   <trkpt lat="52.249009" lon="5.003632"><ele>0</ele></trkpt>
   <trkpt lat="52.249457" lon="5.003232"><ele>0</ele></trkpt>
   <trkpt lat="52.251703" lon="5.001188"><ele>-0.25</ele></trkpt>
   <trkpt lat="52.252371" lon="5.000579"><ele>-0.25</ele></trkpt>
   <trkpt lat="52.253534" lon="4.999518"><ele>-0.5</ele></trkpt>
   <trkpt lat="52.258229" lon="4.995242"><ele>-0.75</ele></trkpt>
   <trkpt lat="52.258246" lon="4.995226"><ele>-0.75</ele></trkpt>
   <trkpt lat="52.26187" lon="4.991923"><ele>-1.25</ele></trkpt>
   <trkpt lat="52.262967" lon="4.990955"><ele>-1.25</ele></trkpt>
   <trkpt lat="52.263553" lon="4.990464"><ele>-1</ele></trkpt>
   <trkpt lat="52.264241" lon="4.989907"><ele>-1</ele></trkpt>
   <trkpt lat="52.266108" lon="4.988471"><ele>-1</ele></trkpt>
   <trkpt lat="52.267052" lon="4.987712"><ele>-1</ele></trkpt>
   <trkpt lat="52.26801" lon="4.986896"><ele>-1</ele></trkpt>
   <trkpt lat="52.269" lon="4.986009"><ele>-1</ele></trkpt>
   <trkpt lat="52.269086" lon="4.985931"><ele>-1</ele></trkpt>
   <trkpt lat="52.269595" lon="4.98547"><ele>-1</ele></trkpt>
   <trkpt lat="52.269981" lon="4.98512"><ele>-1</ele></trkpt>
   <trkpt lat="52.270593" lon="4.984567"><ele>-1</ele></trkpt>
   <trkpt lat="52.273863" lon="4.981608"><ele>-2</ele></trkpt>
   <trkpt lat="52.274342" lon="4.981173"><ele>-2.25</ele></trkpt>
   <trkpt lat="52.275948" lon="4.979728"><ele>-2.75</ele></trkpt>
   <trkpt lat="52.276541" lon="4.97921"><ele>-2.75</ele></trkpt>
   <trkpt lat="52.277406" lon="4.978474"><ele>-1</ele></trkpt>
   <trkpt lat="52.278146" lon="4.977865"><ele>0.25</ele></trkpt>
   <trkpt lat="52.278151" lon="4.977862"><ele>0.25</ele></trkpt>
   <trkpt lat="52.278271" lon="4.977763"><ele>0.5</ele></trkpt>
   <trkpt lat="52.278481" lon="4.977592"><ele>1</ele></trkpt>
   <trkpt lat="52.279309" lon="4.976916"><ele>1</ele></trkpt>
   <trkpt lat="52.280299" lon="4.976076"><ele>1.5</ele></trkpt>
   <trkpt lat="52.280343" lon="4.976038"><ele>1</ele></trkpt>
   <trkpt lat="52.280373" lon="4.976013"><ele>0.75</ele></trkpt>
   <trkpt lat="52.280508" lon="4.975896"><ele>0.5</ele></trkpt>
   <trkpt lat="52.281372" lon="4.975225"><ele>1</ele></trkpt>
   <trkpt lat="52.282217" lon="4.974498"><ele>1.25</ele></trkpt>
   <trkpt lat="52.284892" lon="4.972194"><ele>3.25</ele></trkpt>
   <trkpt lat="52.285367" lon="4.971776"><ele>3</ele></trkpt>
   <trkpt lat="52.286199" lon="4.971023"><ele>3</ele></trkpt>
   <trkpt lat="52.286768" lon="4.970506"><ele>3</ele></trkpt>
   <trkpt lat="52.28954" lon="4.967976"><ele>3.25</ele></trkpt>
   <trkpt lat="52.290758" lon="4.966883"><ele>3.25</ele></trkpt>
   <trkpt lat="52.291106" lon="4.966577"><ele>3.5</ele></trkpt>
   <trkpt lat="52.292643" lon="4.965244"><ele>3</ele></trkpt>
   <trkpt lat="52.2928" lon="4.965108"><ele>3</ele></trkpt>
   <trkpt lat="52.292816" lon="4.965094"><ele>3</ele></trkpt>
   <trkpt lat="52.293411" lon="4.964578"><ele>2.75</ele></trkpt>
   <trkpt lat="52.293616" lon="4.9644"><ele>2.75</ele></trkpt>
   <trkpt lat="52.295675" lon="4.962615"><ele>2.75</ele></trkpt>
   <trkpt lat="52.29569" lon="4.962602"><ele>2.75</ele></trkpt>
   <trkpt lat="52.296407" lon="4.96197"><ele>3.5</ele></trkpt>
   <trkpt lat="52.297407" lon="4.961071"><ele>0.5</ele></trkpt>
   <trkpt lat="52.297572" lon="4.960921"><ele>0</ele></trkpt>
   <trkpt lat="52.298046" lon="4.960485"><ele>2.25</ele></trkpt>
   <trkpt lat="52.298382" lon="4.960174"><ele>0.75</ele></trkpt>
   <trkpt lat="52.299149" lon="4.959455"><ele>1</ele></trkpt>
   <trkpt lat="52.29936" lon="4.959254"><ele>0.75</ele></trkpt>
   <trkpt lat="52.299905" lon="4.958735"><ele>0.5</ele></trkpt>
   <trkpt lat="52.300857" lon="4.957839"><ele>0.25</ele></trkpt>
   <trkpt lat="52.301647" lon="4.957112"><ele>0.25</ele></trkpt>
   <trkpt lat="52.301875" lon="4.956904"><ele>2.5</ele></trkpt>
   <trkpt lat="52.302159" lon="4.956645"><ele>2.25</ele></trkpt>
   <trkpt lat="52.302456" lon="4.956373"><ele>1.75</ele></trkpt>
   <trkpt lat="52.30248" lon="4.956351"><ele>1.75</ele></trkpt>
   <trkpt lat="52.303035" lon="4.955844"><ele>1.5</ele></trkpt>
   <trkpt lat="52.30325" lon="4.955648"><ele>1.5</ele></trkpt>
   <trkpt lat="52.303264" lon="4.955635"><ele>1.5</ele></trkpt>
   <trkpt lat="52.304428" lon="4.954577"><ele>1.5</ele></trkpt>
   <trkpt lat="52.30591" lon="4.953268"><ele>1.25</ele></trkpt>
   <trkpt lat="52.306137" lon="4.953067"><ele>1.25</ele></trkpt>
   <trkpt lat="52.306777" lon="4.952503"><ele>1.25</ele></trkpt>
   <trkpt lat="52.307059" lon="4.952254"><ele>1.25</ele></trkpt>
   <trkpt lat="52.307639" lon="4.951743"><ele>0.75</ele></trkpt>
   <trkpt lat="52.307697" lon="4.951692"><ele>-0.25</ele></trkpt>
   <trkpt lat="52.307935" lon="4.951482"><ele>0.5</ele></trkpt>
   <trkpt lat="52.310378" lon="4.949327"><ele>3</ele></trkpt>
   <trkpt lat="52.310518" lon="4.949204"><ele>2.5</ele></trkpt>
   <trkpt lat="52.310686" lon="4.949055"><ele>2</ele></trkpt>
   <trkpt lat="52.311029" lon="4.948752"><ele>1.75</ele></trkpt>
   <trkpt lat="52.311809" lon="4.948055"><ele>1</ele></trkpt>
   <trkpt lat="52.311936" lon="4.947939"><ele>1</ele></trkpt>
   <trkpt lat="52.312419" lon="4.9475"><ele>0.5</ele></trkpt>
   <trkpt lat="52.31248" lon="4.947445"><ele>0.5</ele></trkpt>
   <trkpt lat="52.312617" lon="4.94732"><ele>0.5</ele></trkpt>
   <trkpt lat="52.313096" lon="4.946884"><ele>0</ele></trkpt>
   <trkpt lat="52.313407" lon="4.946597"><ele>0</ele></trkpt>
   <trkpt lat="52.313463" lon="4.946546"><ele>0</ele></trkpt>
   <trkpt lat="52.313669" lon="4.946356"><ele>4.75</ele></trkpt>
   <trkpt lat="52.31375" lon="4.946282"><ele>4.25</ele></trkpt>
   <trkpt lat="52.314537" lon="4.945555"><ele>4.75</ele></trkpt>
   <trkpt lat="52.315165" lon="4.944978"><ele>5.25</ele></trkpt>
   <trkpt lat="52.315532" lon="4.94464"><ele>5.75</ele></trkpt>
   <trkpt lat="52.316327" lon="4.943888"><ele>5.75</ele></trkpt>
   <trkpt lat="52.316944" lon="4.94329"><ele>4.75</ele></trkpt>
   <trkpt lat="52.317587" lon="4.942658"><ele>4</ele></trkpt>
   <trkpt lat="52.317804" lon="4.942444"><ele>3.5</ele></trkpt>
   <trkpt lat="52.317862" lon="4.942388"><ele>3.5</ele></trkpt>
   <trkpt lat="52.318431" lon="4.941827"><ele>4.75</ele></trkpt>
   <trkpt lat="52.318705" lon="4.941558"><ele>5.25</ele></trkpt>
   <trkpt lat="52.319184" lon="4.941088"><ele>6.25</ele></trkpt>
   <trkpt lat="52.319339" lon="4.940935"><ele>6.5</ele></trkpt>
   <trkpt lat="52.319369" lon="4.940906"><ele>6.5</ele></trkpt>
   <trkpt lat="52.319542" lon="4.940736"><ele>6.75</ele></trkpt>
   <trkpt lat="52.320675" lon="4.939623"><ele>7</ele></trkpt>
   <trkpt lat="52.321557" lon="4.938777"><ele>7</ele></trkpt>
   <trkpt lat="52.321638" lon="4.938701"><ele>7.5</ele></trkpt>
   <trkpt lat="52.321907" lon="4.938451"><ele>7.75</ele></trkpt>
   <trkpt lat="52.322385" lon="4.938002"><ele>7.75</ele></trkpt>
   <trkpt lat="52.323086" lon="4.93732"><ele>8</ele></trkpt>
   <trkpt lat="52.32311" lon="4.937296"><ele>8</ele></trkpt>
   <trkpt lat="52.323181" lon="4.937223"><ele>8</ele></trkpt>
   <trkpt lat="52.323664" lon="4.936727"><ele>8.25</ele></trkpt>
   <trkpt lat="52.323846" lon="4.93654"><ele>8.25</ele></trkpt>
   <trkpt lat="52.323938" lon="4.936446"><ele>8.25</ele></trkpt>
   <trkpt lat="52.32404" lon="4.936342"><ele>8.5</ele></trkpt>
   <trkpt lat="52.324218" lon="4.936159"><ele>8.5</ele></trkpt>
   <trkpt lat="52.324237" lon="4.936138"><ele>8.25</ele></trkpt>
   <trkpt lat="52.324448" lon="4.935915"><ele>8</ele></trkpt>
   <trkpt lat="52.324581" lon="4.935772"><ele>7.75</ele></trkpt>
   <trkpt lat="52.324594" lon="4.935757"><ele>8</ele></trkpt>
   <trkpt lat="52.324613" lon="4.935737"><ele>8</ele></trkpt>
   <trkpt lat="52.3261" lon="4.934098"><ele>6.5</ele></trkpt>
   <trkpt lat="52.32618" lon="4.934013"><ele>6.5</ele></trkpt>
   <trkpt lat="52.327001" lon="4.933153"><ele>5.75</ele></trkpt>
   <trkpt lat="52.327663" lon="4.93249"><ele>5.75</ele></trkpt>
   <trkpt lat="52.328329" lon="4.931849"><ele>5.75</ele></trkpt>
   <trkpt lat="52.328844" lon="4.931368"><ele>5.75</ele></trkpt>
   <trkpt lat="52.329332" lon="4.93092"><ele>5.75</ele></trkpt>
   <trkpt lat="52.331348" lon="4.929076"><ele>4.75</ele></trkpt>
   <trkpt lat="52.331455" lon="4.928978"><ele>4.75</ele></trkpt>
   <trkpt lat="52.331562" lon="4.92888"><ele>4.75</ele></trkpt>
   <trkpt lat="52.331715" lon="4.928739"><ele>4.5</ele></trkpt>
   <trkpt lat="52.332674" lon="4.927862"><ele>4.25</ele></trkpt>
   <trkpt lat="52.333739" lon="4.926887"><ele>4</ele></trkpt>
   <trkpt lat="52.334102" lon="4.926555"><ele>3.75</ele></trkpt>
   <trkpt lat="52.337717" lon="4.923246"><ele>3.75</ele></trkpt>
   <trkpt lat="52.338384" lon="4.922645"><ele>3.75</ele></trkpt>
   <trkpt lat="52.338557" lon="4.922496"><ele>3.75</ele></trkpt>
   <trkpt lat="52.339345" lon="4.921844"><ele>3.75</ele></trkpt>
   <trkpt lat="52.339815" lon="4.921478"><ele>3.5</ele></trkpt>
   <trkpt lat="52.340198" lon="4.921194"><ele>4</ele></trkpt>
   <trkpt lat="52.340342" lon="4.921091"><ele>4.5</ele></trkpt>
   <trkpt lat="52.340406" lon="4.921044"><ele>4.5</ele></trkpt>
   <trkpt lat="52.34042" lon="4.921035"><ele>4.25</ele></trkpt>
   <trkpt lat="52.340568" lon="4.920931"><ele>4</ele></trkpt>
   <trkpt lat="52.341024" lon="4.920621"><ele>3.25</ele></trkpt>
   <trkpt lat="52.341671" lon="4.920207"><ele>3.25</ele></trkpt>
   <trkpt lat="52.341752" lon="4.920158"><ele>3.25</ele></trkpt>
   <trkpt lat="52.3425" lon="4.919697"><ele>3.5</ele></trkpt>
   <trkpt lat="52.342821" lon="4.919503"><ele>3.75</ele></trkpt>
   <trkpt lat="52.343093" lon="4.919356"><ele>3.75</ele></trkpt>
   <trkpt lat="52.34344" lon="4.919208"><ele>4</ele></trkpt>
   <trkpt lat="52.343766" lon="4.919102"><ele>4</ele></trkpt>
   <trkpt lat="52.344575" lon="4.918852"><ele>4.25</ele></trkpt>
   <trkpt lat="52.344772" lon="4.918781"><ele>4.5</ele></trkpt>
   <trkpt lat="52.345041" lon="4.918657"><ele>5</ele></trkpt>
   <trkpt lat="52.345307" lon="4.918507"><ele>4.5</ele></trkpt>
   <trkpt lat="52.346466" lon="4.917799"><ele>6</ele></trkpt>
   <trkpt lat="52.346507" lon="4.917776"><ele>6</ele></trkpt>
   <trkpt lat="52.346584" lon="4.917728"><ele>6.25</ele></trkpt>
   <trkpt lat="52.346646" lon="4.917692"><ele>6.25</ele></trkpt>
   <trkpt lat="52.346904" lon="4.917534"><ele>5</ele></trkpt>
   <trkpt lat="52.347072" lon="4.917431"><ele>4.25</ele></trkpt>
   <trkpt lat="52.347241" lon="4.917328"><ele>4.25</ele></trkpt>
   <trkpt lat="52.347409" lon="4.917227"><ele>4.5</ele></trkpt>
   <trkpt lat="52.347651" lon="4.917078"><ele>4.25</ele></trkpt>
   <trkpt lat="52.347785" lon="4.916994"><ele>4.25</ele></trkpt>
   <trkpt lat="52.348066" lon="4.916812"><ele>4.25</ele></trkpt>
   <trkpt lat="52.348608" lon="4.916419"><ele>4.25</ele></trkpt>
   <trkpt lat="52.349198" lon="4.915977"><ele>4.25</ele></trkpt>
   <trkpt lat="52.349819" lon="4.915509"><ele>3.75</ele></trkpt>
   <trkpt lat="52.350326" lon="4.915128"><ele>3.25</ele></trkpt>
   <trkpt lat="52.350623" lon="4.914919"><ele>3</ele></trkpt>
   <trkpt lat="52.350882" lon="4.914766"><ele>2.75</ele></trkpt>
   <trkpt lat="52.351199" lon="4.914626"><ele>2.5</ele></trkpt>
   <trkpt lat="52.35139" lon="4.914565"><ele>2.25</ele></trkpt>
   <trkpt lat="52.351529" lon="4.914532"><ele>2.5</ele></trkpt>
   <trkpt lat="52.351827" lon="4.914492"><ele>5</ele></trkpt>
   <trkpt lat="52.352033" lon="4.914487"><ele>5</ele></trkpt>
   <trkpt lat="52.352158" lon="4.914494"><ele>5</ele></trkpt>
   <trkpt lat="52.352275" lon="4.914507"><ele>4.75</ele></trkpt>
   <trkpt lat="52.352505" lon="4.914551"><ele>4.25</ele></trkpt>
   <trkpt lat="52.352607" lon="4.914578"><ele>4.25</ele></trkpt>
   <trkpt lat="52.352859" lon="4.914669"><ele>4.75</ele></trkpt>
   <trkpt lat="52.353114" lon="4.914791"><ele>4.75</ele></trkpt>
   <trkpt lat="52.353397" lon="4.914967"><ele>4.25</ele></trkpt>
   <trkpt lat="52.353518" lon="4.915056"><ele>4</ele></trkpt>
   <trkpt lat="52.35377" lon="4.915273"><ele>3.75</ele></trkpt>
   <trkpt lat="52.353946" lon="4.91545"><ele>3.75</ele></trkpt>
   <trkpt lat="52.354076" lon="4.915595"><ele>3.75</ele></trkpt>
   <trkpt lat="52.354277" lon="4.915853"><ele>3.75</ele></trkpt>
   <trkpt lat="52.354489" lon="4.916164"><ele>3.75</ele></trkpt>
   <trkpt lat="52.354648" lon="4.916436"><ele>3.75</ele></trkpt>
   <trkpt lat="52.354759" lon="4.916651"><ele>4.5</ele></trkpt>
   <trkpt lat="52.354769" lon="4.91667"><ele>4.5</ele></trkpt>
   <trkpt lat="52.354967" lon="4.91711"><ele>4.75</ele></trkpt>
   <trkpt lat="52.355158" lon="4.917619"><ele>3</ele></trkpt>
   <trkpt lat="52.355324" lon="4.918124"><ele>3</ele></trkpt>
   <trkpt lat="52.355568" lon="4.918946"><ele>3.5</ele></trkpt>
   <trkpt lat="52.355712" lon="4.919451"><ele>3.75</ele></trkpt>
   <trkpt lat="52.356407" lon="4.921892"><ele>3.75</ele></trkpt>
   <trkpt lat="52.356916" lon="4.923586"><ele>4.5</ele></trkpt>
   <trkpt lat="52.357017" lon="4.923926"><ele>3</ele></trkpt>
   <trkpt lat="52.357293" lon="4.924848"><ele>2.5</ele></trkpt>
   <trkpt lat="52.357511" lon="4.925482"><ele>4.5</ele></trkpt>
   <trkpt lat="52.357575" lon="4.92565"><ele>4.25</ele></trkpt>
   <trkpt lat="52.357808" lon="4.926429"><ele>4</ele></trkpt>
   <trkpt lat="52.357935" lon="4.92685"><ele>3.75</ele></trkpt>
   <trkpt lat="52.358021" lon="4.927117"><ele>3.75</ele></trkpt>
   <trkpt lat="52.358134" lon="4.927438"><ele>3.5</ele></trkpt>
   <trkpt lat="52.358295" lon="4.927823"><ele>3.75</ele></trkpt>
   <trkpt lat="52.358475" lon="4.928184"><ele>2.75</ele></trkpt>
   <trkpt lat="52.35867" lon="4.928516"><ele>3.75</ele></trkpt>
   <trkpt lat="52.358882" lon="4.928836"><ele>4</ele></trkpt>
   <trkpt lat="52.358898" lon="4.928858"><ele>4</ele></trkpt>
   <trkpt lat="52.358995" lon="4.928993"><ele>4</ele></trkpt>
   <trkpt lat="52.359164" lon="4.929213"><ele>4.25</ele></trkpt>
   <trkpt lat="52.359314" lon="4.929395"><ele>4.25</ele></trkpt>
   <trkpt lat="52.359534" lon="4.92964"><ele>4.25</ele></trkpt>
   <trkpt lat="52.359734" lon="4.929838"><ele>4</ele></trkpt>
   <trkpt lat="52.359808" lon="4.929906"><ele>4.5</ele></trkpt>
   <trkpt lat="52.359964" lon="4.930035"><ele>5</ele></trkpt>
   <trkpt lat="52.360052" lon="4.930103"><ele>4.75</ele></trkpt>
   <trkpt lat="52.360124" lon="4.930154"><ele>4.75</ele></trkpt>
   <trkpt lat="52.360182" lon="4.930194"><ele>4.75</ele></trkpt>
   <trkpt lat="52.360335" lon="4.93029"><ele>5</ele></trkpt>
   <trkpt lat="52.360431" lon="4.930346"><ele>4.5</ele></trkpt>
   <trkpt lat="52.360615" lon="4.930446"><ele>4</ele></trkpt>
   <trkpt lat="52.360924" lon="4.930603"><ele>3</ele></trkpt>
   <trkpt lat="52.361017" lon="4.930649"><ele>3</ele></trkpt>
   <trkpt lat="52.361049" lon="4.930665"><ele>2.75</ele></trkpt>
   <trkpt lat="52.361086" lon="4.930681"><ele>2.5</ele></trkpt>
   <trkpt lat="52.361355" lon="4.930776"><ele>3.25</ele></trkpt>
   <trkpt lat="52.361426" lon="4.930799"><ele>3.5</ele></trkpt>
   <trkpt lat="52.361659" lon="4.930847"><ele>4.75</ele></trkpt>
   <trkpt lat="52.361839" lon="4.930867"><ele>5</ele></trkpt>
   <trkpt lat="52.36207" lon="4.930873"><ele>5</ele></trkpt>
   <trkpt lat="52.362459" lon="4.930852"><ele>5</ele></trkpt>
   <trkpt lat="52.362907" lon="4.930818"><ele>4.75</ele></trkpt>
   <trkpt lat="52.363225" lon="4.930795"><ele>2.25</ele></trkpt>
   <trkpt lat="52.363441" lon="4.930779"><ele>2.25</ele></trkpt>
   <trkpt lat="52.363496" lon="4.930774"><ele>2.75</ele></trkpt>
   <trkpt lat="52.364183" lon="4.930731"><ele>3.75</ele></trkpt>
   <trkpt lat="52.364442" lon="4.930734"><ele>3.75</ele></trkpt>
   <trkpt lat="52.36468" lon="4.930758"><ele>4</ele></trkpt>
   <trkpt lat="52.36488" lon="4.930795"><ele>4.5</ele></trkpt>
   <trkpt lat="52.365071" lon="4.930847"><ele>4.75</ele></trkpt>
   <trkpt lat="52.365252" lon="4.930909"><ele>4.25</ele></trkpt>
   <trkpt lat="52.365439" lon="4.930988"><ele>4</ele></trkpt>
   <trkpt lat="52.365752" lon="4.931152"><ele>4.25</ele></trkpt>
   <trkpt lat="52.365949" lon="4.931269"><ele>3.5</ele></trkpt>
   <trkpt lat="52.366145" lon="4.931387"><ele>3</ele></trkpt>
   <trkpt lat="52.366411" lon="4.931547"><ele>2.25</ele></trkpt>
   <trkpt lat="52.36689" lon="4.931835"><ele>0.75</ele></trkpt>
   <trkpt lat="52.367068" lon="4.931941"><ele>1.25</ele></trkpt>
   <trkpt lat="52.367615" lon="4.932271"><ele>2.75</ele></trkpt>
   <trkpt lat="52.368367" lon="4.932719"><ele>5.25</ele></trkpt>
   <trkpt lat="52.3686" lon="4.932847"><ele>5.25</ele></trkpt>
   <trkpt lat="52.368792" lon="4.932936"><ele>4.5</ele></trkpt>
   <trkpt lat="52.368896" lon="4.932977"><ele>4.75</ele></trkpt>
   <trkpt lat="52.369013" lon="4.933016"><ele>5.25</ele></trkpt>
   <trkpt lat="52.369014" lon="4.933016"><ele>5.25</ele></trkpt>
   <trkpt lat="52.369099" lon="4.933043"><ele>5.75</ele></trkpt>
   <trkpt lat="52.369205" lon="4.933069"><ele>6</ele></trkpt>
   <trkpt lat="52.369385" lon="4.933106"><ele>6</ele></trkpt>
   <trkpt lat="52.369633" lon="4.933128"><ele>5.5</ele></trkpt>
   <trkpt lat="52.369835" lon="4.933125"><ele>5.75</ele></trkpt>
   <trkpt lat="52.370158" lon="4.933085"><ele>6.5</ele></trkpt>
   <trkpt lat="52.370444" lon="4.933017"><ele>4</ele></trkpt>
   <trkpt lat="52.37072" lon="4.932944"><ele>3.75</ele></trkpt>
   <trkpt lat="52.371007" lon="4.932862"><ele>6</ele></trkpt>
   <trkpt lat="52.371246" lon="4.932764"><ele>6.5</ele></trkpt>
   <trkpt lat="52.371512" lon="4.932627"><ele>5.25</ele></trkpt>
   <trkpt lat="52.371614" lon="4.932564"><ele>6.25</ele></trkpt>
   <trkpt lat="52.371793" lon="4.932433"><ele>5.25</ele></trkpt>
   <trkpt lat="52.371977" lon="4.932281"><ele>3.25</ele></trkpt>
   <trkpt lat="52.372198" lon="4.932069"><ele>5</ele></trkpt>
   <trkpt lat="52.372378" lon="4.931861"><ele>5</ele></trkpt>
   <trkpt lat="52.372569" lon="4.931613"><ele>5.5</ele></trkpt>
   <trkpt lat="52.372785" lon="4.931289"><ele>5.5</ele></trkpt>
   <trkpt lat="52.372984" lon="4.930939"><ele>5.5</ele></trkpt>
   <trkpt lat="52.373124" lon="4.930646"><ele>4.25</ele></trkpt>
   <trkpt lat="52.37323" lon="4.930397"><ele>4.75</ele></trkpt>
   <trkpt lat="52.373347" lon="4.93009"><ele>5</ele></trkpt>
   <trkpt lat="52.373444" lon="4.929803"><ele>3.75</ele></trkpt>
   <trkpt lat="52.373528" lon="4.929503"><ele>4.5</ele></trkpt>
   <trkpt lat="52.373633" lon="4.929074"><ele>5.25</ele></trkpt>
   <trkpt lat="52.373727" lon="4.928681"><ele>3.5</ele></trkpt>
   <trkpt lat="52.373938" lon="4.927892"><ele>3.5</ele></trkpt>
   <trkpt lat="52.374099" lon="4.92737"><ele>3.5</ele></trkpt>
   <trkpt lat="52.374834" lon="4.925085"><ele>3.75</ele></trkpt>
   <trkpt lat="52.374958" lon="4.924699"><ele>3.75</ele></trkpt>
   <trkpt lat="52.375143" lon="4.92407"><ele>3.75</ele></trkpt>
   <trkpt lat="52.375253" lon="4.923627"><ele>3.75</ele></trkpt>
   <trkpt lat="52.375341" lon="4.923214"><ele>3.5</ele></trkpt>
   <trkpt lat="52.375427" lon="4.922733"><ele>3.25</ele></trkpt>
   <trkpt lat="52.375429" lon="4.922718"><ele>3.25</ele></trkpt>
   <trkpt lat="52.375605" lon="4.921551"><ele>2.75</ele></trkpt>
   <trkpt lat="52.375646" lon="4.921279"><ele>2.75</ele></trkpt>
   <trkpt lat="52.375748" lon="4.920606"><ele>4.25</ele></trkpt>
   <trkpt lat="52.375922" lon="4.919455"><ele>3.75</ele></trkpt>
   <trkpt lat="52.376242" lon="4.917462"><ele>3.25</ele></trkpt>
   <trkpt lat="52.376556" lon="4.915512"><ele>4</ele></trkpt>
   <trkpt lat="52.376557" lon="4.915506"><ele>4</ele></trkpt>
   <trkpt lat="52.376663" lon="4.914843"><ele>5.75</ele></trkpt>
   <trkpt lat="52.376724" lon="4.91447"><ele>3.75</ele></trkpt>
   <trkpt lat="52.376768" lon="4.914151"><ele>3.25</ele></trkpt>
   <trkpt lat="52.376768" lon="4.914148"><ele>3.25</ele></trkpt>
   <trkpt lat="52.376779" lon="4.914051"><ele>3.25</ele></trkpt>
   <trkpt lat="52.376827" lon="4.913566"><ele>3.75</ele></trkpt>
   <trkpt lat="52.376843" lon="4.91329"><ele>4</ele></trkpt>
   <trkpt lat="52.376853" lon="4.912839"><ele>4.25</ele></trkpt>
   <trkpt lat="52.376846" lon="4.912389"><ele>4.5</ele></trkpt>
   <trkpt lat="52.37683" lon="4.912101"><ele>3.75</ele></trkpt>
   <trkpt lat="52.376804" lon="4.911723"><ele>3</ele></trkpt>
   <trkpt lat="52.376743" lon="4.910934"><ele>1.5</ele></trkpt>
   <trkpt lat="52.376715" lon="4.910586"><ele>0.75</ele></trkpt>
   <trkpt lat="52.3767" lon="4.910402"><ele>1</ele></trkpt>
   <trkpt lat="52.376697" lon="4.910362"><ele>1.5</ele></trkpt>
   <trkpt lat="52.376693" lon="4.910315"><ele>2.25</ele></trkpt>
   <trkpt lat="52.376684" lon="4.910104"><ele>5.25</ele></trkpt>
   <trkpt lat="52.376672" lon="4.909811"><ele>5.25</ele></trkpt>
   <trkpt lat="52.376665" lon="4.909407"><ele>5.75</ele></trkpt>
   <trkpt lat="52.376655" lon="4.909042"><ele>5.5</ele></trkpt>
   <trkpt lat="52.37667" lon="4.908525"><ele>5</ele></trkpt>
   <trkpt lat="52.37671" lon="4.908137"><ele>5</ele></trkpt>
   <trkpt lat="52.376743" lon="4.907885"><ele>5.25</ele></trkpt>
   <trkpt lat="52.376756" lon="4.907632"><ele>5.25</ele></trkpt>
   <trkpt lat="52.376791" lon="4.907237"><ele>5</ele></trkpt>
   <trkpt lat="52.376793" lon="4.907222"><ele>4.75</ele></trkpt>
   <trkpt lat="52.376881" lon="4.90657"><ele>4.25</ele></trkpt>
   <trkpt lat="52.376918" lon="4.906293"><ele>4.5</ele></trkpt>
   <trkpt lat="52.376999" lon="4.90581"><ele>4.75</ele></trkpt>
   <trkpt lat="52.377063" lon="4.905499"><ele>4.75</ele></trkpt>
   <trkpt lat="52.377174" lon="4.905039"><ele>5.25</ele></trkpt>
   <trkpt lat="52.377288" lon="4.904682"><ele>5.75</ele></trkpt>
   <trkpt lat="52.377422" lon="4.904315"><ele>4.25</ele></trkpt>
   <trkpt lat="52.377472" lon="4.904189"><ele>3.75</ele></trkpt>
   <trkpt lat="52.377581" lon="4.903886"><ele>2.5</ele></trkpt>
   <trkpt lat="52.377715" lon="4.903518"><ele>1</ele></trkpt>
   <trkpt lat="52.377721" lon="4.903501"><ele>1.25</ele></trkpt>
   <trkpt lat="52.37796" lon="4.902938"><ele>11</ele></trkpt>
   <trkpt lat="52.378029" lon="4.90276"><ele>11.75</ele></trkpt>
   <trkpt lat="52.378153" lon="4.902419"><ele>3.25</ele></trkpt>
   <trkpt lat="52.378534" lon="4.901376"><ele>2</ele></trkpt>
   <trkpt lat="52.378533" lon="4.901376"><ele>2</ele></trkpt>
   <trkpt lat="52.378539" lon="4.901357"><ele>2</ele></trkpt>
   <trkpt lat="52.378541" lon="4.901352"><ele>2</ele></trkpt>
   <trkpt lat="52.378647" lon="4.901065"><ele>2</ele></trkpt>
   <trkpt lat="52.378703" lon="4.900911"><ele>2</ele></trkpt>
   <trkpt lat="52.378827" lon="4.900568"><ele>2</ele></trkpt>
   <trkpt lat="52.378832" lon="4.900556"><ele>2</ele></trkpt>
   <trkpt lat="52.378891" lon="4.90039"><ele>2.5</ele></trkpt>
  </trkseg>
 </trk>
</gpx>