<?xml version="1.0" encoding="UTF-8"?>
<!-- track-length = 51371 filtered ascend = 22 plain-ascend = 6 cost=51371 energy=0.6kwh time=1h 8m 30s -->
<gpx 
 xmlns="http://www.topografix.com/GPX/1/1" 
 xmlns:xsi="http://www.w3.org/2001/XMLSchema-instance" 
 xsi:schemaLocation="http://www.topografix.com/GPX/1/1 http://www.topografix.com/GPX/1/1/gpx.xsd" 
 version="1.1" 
 creator="BRouter-Web 0.18.1">
 <trk>
  <name>The Hague -&gt; Amsterdam (51.4km)</name>
  <trkseg>
   <trkpt lat="52.08042" lon="4.325573"><ele>1</ele></trkpt>
   <trkpt lat="52.079718" lon="4.326471"><ele>1</ele></trkpt>
   <trkpt lat="52.078833" lon="4.327603"><ele>1</ele></trkpt>
   <trkpt lat="52.078349" lon="4.328232"><ele>1</ele></trkpt>
   <trkpt lat="52.078009" lon="4.328676"><ele>1</ele></trkpt>
   <trkpt lat="52.077946" lon="4.328758"><ele>1</ele></trkpt>
   <trkpt lat="52.077768" lon="4.329008"><ele>1</ele></trkpt>
   <trkpt lat="52.077628" lon="4.329223"><ele>1</ele></trkpt>
   <trkpt lat="52.077443" lon="4.329504"><ele>1</ele></trkpt>
   <trkpt lat="52.077307" lon="4.329691"><ele>1</ele></trkpt>
   <trkpt lat="52.077016" lon="4.330076"><ele>1</ele></trkpt>
   <trkpt lat="52.076957" lon="4.330163"><ele>1</ele></trkpt>
   <trkpt lat="52.076786" lon="4.330433"><ele>1</ele></trkpt>
   <trkpt lat="52.076594" lon="4.330793"><ele>1</ele></trkpt>
   <trkpt lat="52.076437" lon="4.331143"><ele>1</ele></trkpt>
   <trkpt lat="52.076313" lon="4.331473"><ele>1</ele></trkpt>
   <trkpt lat="52.076228" lon="4.331732"><ele>1.25</ele></trkpt>
   <trkpt lat="52.076131" lon="4.332088"><ele>1.5</ele></trkpt>
   <trkpt lat="52.076067" lon="4.332375"><ele>1.75</ele></trkpt>
   <trkpt lat="52.076019" lon="4.332633"><ele>2</ele></trkpt>
   <trkpt lat="52.075962" lon="4.332989"><ele>2.25</ele></trkpt>
   <trkpt lat="52.075926" lon="4.333313"><ele>2.25</ele></trkpt>
   <trkpt lat="52.075926" lon="4.333314"><ele>2.25</ele></trkpt>
   <trkpt lat="52.075902" lon="4.333664"><ele>2.5</ele></trkpt>
   <trkpt lat="52.075888" lon="4.334119"><ele>2.5</ele></trkpt>
   <trkpt lat="52.075898" lon="4.334525"><ele>2.75</ele></trkpt>
   <trkpt lat="52.075933" lon="4.33501"><ele>3.25</ele></trkpt>
   <trkpt lat="52.075996" lon="4.335484"><ele>3.75</ele></trkpt>
   <trkpt lat="52.076062" lon="4.335843"><ele>4</ele></trkpt>
   <trkpt lat="52.076119" lon="4.336104"><ele>4.75</ele></trkpt>
   <trkpt lat="52.076161" lon="4.336265"><ele>4.25</ele></trkpt>
   <trkpt lat="52.076201" lon="4.336417"><ele>4.25</ele></trkpt>
   <trkpt lat="52.076272" lon="4.336664"><ele>4.5</ele></trkpt>
   <trkpt lat="52.076357" lon="4.336934"><ele>5</ele></trkpt>
   <trkpt lat="52.076505" lon="4.337362"><ele>5.75</ele></trkpt>
   <trkpt lat="52.07656" lon="4.337505"><ele>5.75</ele></trkpt>
   <trkpt lat="52.076728" lon="4.337924"><ele>5.5</ele></trkpt>
   <trkpt lat="52.076942" lon="4.338418"><ele>3</ele></trkpt>
   <trkpt lat="52.077056" lon="4.338676"><ele>2.5</ele></trkpt>
   <trkpt lat="52.07718" lon="4.338957"><ele>5.5</ele></trkpt>
   <trkpt lat="52.077516" lon="4.339715"><ele>5.75</ele></trkpt>
   <trkpt lat="52.077561" lon="4.339817"><ele>5.5</ele></trkpt>
   <trkpt lat="52.07758" lon="4.33986"><ele>5.5</ele></trkpt>
   <trkpt lat="52.077591" lon="4.339886"><ele>5.5</ele></trkpt>
   <trkpt lat="52.077592" lon="4.339887"><ele>5.5</ele></trkpt>
   <trkpt lat="52.077677" lon="4.34008"><ele>6</ele></trkpt>
   <trkpt lat="52.077941" lon="4.34068"><ele>6</ele></trkpt>
   <trkpt lat="52.078125" lon="4.341096"><ele>6.25</ele></trkpt>
   <trkpt lat="52.078408" lon="4.341736"><ele>5.75</ele></trkpt>
   <trkpt lat="52.07869" lon="4.342377"><ele>6</ele></trkpt>
   <trkpt lat="52.078775" lon="4.34257"><ele>6.25</ele></trkpt>
   <trkpt lat="52.078831" lon="4.342695"><ele>6</ele></trkpt>
   <trkpt lat="52.079132" lon="4.343402"><ele>6.5</ele></trkpt>
   <trkpt lat="52.079535" lon="4.344384"><ele>4.5</ele></trkpt>
   <trkpt lat="52.079823" lon="4.345038"><ele>3.75</ele></trkpt>
   <trkpt lat="52.079909" lon="4.345231"><ele>5.25</ele></trkpt>
   <trkpt lat="52.080444" lon="4.346443"><ele>4.5</ele></trkpt>
   <trkpt lat="52.080661" lon="4.34691"><ele>4.25</ele></trkpt>
   <trkpt lat="52.08086" lon="4.347285"><ele>4.5</ele></trkpt>
   <trkpt lat="52.08103" lon="4.347564"><ele>3.75</ele></trkpt>
   <trkpt lat="52.081087" lon="4.347647"><ele>4</ele></trkpt>
   <trkpt lat="52.081249" lon="4.347871"><ele>4</ele></trkpt>
   <trkpt lat="52.081434" lon="4.348096"><ele>4.25</ele></trkpt>
   <trkpt lat="52.081574" lon="4.348247"><ele>4.25</ele></trkpt>
   <trkpt lat="52.081913" lon="4.348561"><ele>3.75</ele></trkpt>
   <trkpt lat="52.0824" lon="4.348956"><ele>3.25</ele></trkpt>
   <trkpt lat="52.082634" lon="4.349153"><ele>3</ele></trkpt>
   <trkpt lat="52.08281" lon="4.349315"><ele>3</ele></trkpt>
   <trkpt lat="52.082935" lon="4.349441"><ele>2.75</ele></trkpt>
   <trkpt lat="52.083144" lon="4.34968"><ele>2.75</ele></trkpt>
   <trkpt lat="52.083297" lon="4.349874"><ele>2.75</ele></trkpt>
   <trkpt lat="52.0835" lon="4.350165"><ele>2.75</ele></trkpt>
   <trkpt lat="52.083612" lon="4.350345"><ele>2.75</ele></trkpt>
   <trkpt lat="52.083804" lon="4.350684"><ele>1.25</ele></trkpt>
   <trkpt lat="52.083933" lon="4.350944"><ele>2</ele></trkpt>
   <trkpt lat="52.084076" lon="4.351268"><ele>1</ele></trkpt>
   <trkpt lat="52.084176" lon="4.351522"><ele>1.75</ele></trkpt>
   <trkpt lat="52.084258" lon="4.351752"><ele>1</ele></trkpt>
   <trkpt lat="52.084338" lon="4.351998"><ele>0.25</ele></trkpt>
   <trkpt lat="52.084438" lon="4.352347"><ele>0.25</ele></trkpt>
   <trkpt lat="52.084557" lon="4.352839"><ele>0.75</ele></trkpt>
   <trkpt lat="52.084614" lon="4.353104"><ele>0.75</ele></trkpt>
   <trkpt lat="52.084669" lon="4.35337"><ele>0.75</ele></trkpt>
   <trkpt lat="52.084785" lon="4.35401"><ele>1</ele></trkpt>
   <trkpt lat="52.085114" lon="4.355972"><ele>1.75</ele></trkpt>
   <trkpt lat="52.085191" lon="4.356383"><ele>1.75</ele></trkpt>
   <trkpt lat="52.085208" lon="4.356474"><ele>2</ele></trkpt>
   <trkpt lat="52.085211" lon="4.356486"><ele>2</ele></trkpt>
   <trkpt lat="52.085281" lon="4.356819"><ele>2</ele></trkpt>
   <trkpt lat="52.085403" lon="4.357297"><ele>2.25</ele></trkpt>
   <trkpt lat="52.085485" lon="4.357574"><ele>2.25</ele></trkpt>
   <trkpt lat="52.085594" lon="4.357902"><ele>2.25</ele></trkpt>
   <trkpt lat="52.085708" lon="4.358212"><ele>2.25</ele></trkpt>
   <trkpt lat="52.085865" lon="4.358604"><ele>2.25</ele></trkpt>
   <trkpt lat="52.08622" lon="4.359428"><ele>2.5</ele></trkpt>
   <trkpt lat="52.086305" lon="4.359624"><ele>2.5</ele></trkpt>
   <trkpt lat="52.087045" lon="4.361282"><ele>2.75</ele></trkpt>
   <trkpt lat="52.087737" lon="4.362813"><ele>2</ele></trkpt>
   <trkpt lat="52.088046" lon="4.36347"><ele>1.5</ele></trkpt>
   <trkpt lat="52.088773" lon="4.364987"><ele>1</ele></trkpt>
   <trkpt lat="52.088853" lon="4.36516"><ele>0.75</ele></trkpt>
   <trkpt lat="52.089821" lon="4.367262"><ele>0</ele></trkpt>
   <trkpt lat="52.089865" lon="4.367355"><ele>0</ele></trkpt>
   <trkpt lat="52.090158" lon="4.367991"><ele>0</ele></trkpt>
   <trkpt lat="52.090174" lon="4.368026"><ele>0.5</ele></trkpt>
   <trkpt lat="52.090193" lon="4.368068"><ele>1</ele></trkpt>
   <trkpt lat="52.090211" lon="4.368107"><ele>1</ele></trkpt>
   <trkpt lat="52.09031" lon="4.368322"><ele>1</ele></trkpt>
   <trkpt lat="52.090337" lon="4.368382"><ele>1.25</ele></trkpt>
   <trkpt lat="52.090464" lon="4.368663"><ele>1.5</ele></trkpt>
   <trkpt lat="52.0905" lon="4.368741"><ele>1.25</ele></trkpt>
   <trkpt lat="52.090681" lon="4.369142"><ele>1.25</ele></trkpt>
   <trkpt lat="52.091622" lon="4.371244"><ele>1.25</ele></trkpt>
   <trkpt lat="52.091632" lon="4.371267"><ele>1.25</ele></trkpt>
   <trkpt lat="52.091652" lon="4.371311"><ele>1.25</ele></trkpt>
   <trkpt lat="52.092161" lon="4.372565"><ele>1.25</ele></trkpt>
   <trkpt lat="52.092283" lon="4.372841"><ele>1.25</ele></trkpt>
   <trkpt lat="52.092318" lon="4.37292"><ele>1.25</ele></trkpt>
   <trkpt lat="52.09295" lon="4.374327"><ele>1.25</ele></trkpt>
   <trkpt lat="52.093553" lon="4.37566"><ele>1.25</ele></trkpt>
   <trkpt lat="52.093807" lon="4.376218"><ele>1.25</ele></trkpt>
   <trkpt lat="52.093913" lon="4.376447"><ele>1.25</ele></trkpt>
   <trkpt lat="52.094817" lon="4.378442"><ele>1.25</ele></trkpt>
   <trkpt lat="52.09482" lon="4.37845"><ele>1.25</ele></trkpt>
   <trkpt lat="52.095809" lon="4.380673"><ele>1.25</ele></trkpt>
   <trkpt lat="52.095898" lon="4.380876"><ele>1.25</ele></trkpt>
   <trkpt lat="52.096995" lon="4.383356"><ele>1.25</ele></trkpt>
   <trkpt lat="52.096999" lon="4.383365"><ele>1.25</ele></trkpt>
   <trkpt lat="52.104519" lon="4.400371"><ele>1.25</ele></trkpt>
   <trkpt lat="52.105011" lon="4.401443"><ele>1.25</ele></trkpt>
   <trkpt lat="52.10545" lon="4.402335"><ele>1.25</ele></trkpt>
   <trkpt lat="52.105856" lon="4.40311"><ele>1.25</ele></trkpt>
   <trkpt lat="52.105862" lon="4.40312"><ele>1.25</ele></trkpt>
   <trkpt lat="52.106147" lon="4.40365"><ele>1.25</ele></trkpt>
   <trkpt lat="52.106737" lon="4.404719"><ele>1.25</ele></trkpt>
   <trkpt lat="52.107111" lon="4.405379"><ele>1.25</ele></trkpt>
   <trkpt lat="52.107603" lon="4.406222"><ele>1.25</ele></trkpt>
   <trkpt lat="52.107983" lon="4.406858"><ele>1.25</ele></trkpt>
   <trkpt lat="52.108354" lon="4.407462"><ele>1.25</ele></trkpt>
   <trkpt lat="52.108992" lon="4.408452"><ele>1.25</ele></trkpt>
   <trkpt lat="52.116332" lon="4.419403"><ele>1.25</ele></trkpt>
   <trkpt lat="52.116338" lon="4.419413"><ele>1.25</ele></trkpt>
   <trkpt lat="52.118823" lon="4.423123"><ele>1.25</ele></trkpt>
   <trkpt lat="52.118864" lon="4.423184"><ele>1.25</ele></trkpt>
   <trkpt lat="52.123362" lon="4.4299"><ele>1.5</ele></trkpt>
   <trkpt lat="52.123787" lon="4.430508"><ele>1.5</ele></trkpt>
   <trkpt lat="52.124357" lon="4.431271"><ele>1.5</ele></trkpt>
   <trkpt lat="52.124848" lon="4.431892"><ele>1.5</ele></trkpt>
   <trkpt lat="52.126235" lon="4.433646"><ele>1.75</ele></trkpt>
   <trkpt lat="52.126382" lon="4.433832"><ele>1.5</ele></trkpt>
   <trkpt lat="52.126432" lon="4.433895"><ele>1.5</ele></trkpt>
   <trkpt lat="52.126621" lon="4.434132"><ele>1.5</ele></trkpt>
   <trkpt lat="52.126966" lon="4.434556"><ele>1.5</ele></trkpt>
   <trkpt lat="52.127401" lon="4.435066"><ele>1.5</ele></trkpt>
   <trkpt lat="52.127409" lon="4.435075"><ele>1.5</ele></trkpt>
   <trkpt lat="52.128076" lon="4.435812"><ele>1.5</ele></trkpt>
   <trkpt lat="52.128971" lon="4.436781"><ele>1.25</ele></trkpt>
   <trkpt lat="52.136227" lon="4.444633"><ele>1.75</ele></trkpt>
   <trkpt lat="52.138169" lon="4.446734"><ele>1.75</ele></trkpt>
   <trkpt lat="52.138177" lon="4.446743"><ele>1.75</ele></trkpt>
   <trkpt lat="52.140967" lon="4.449762"><ele>2</ele></trkpt>
   <trkpt lat="52.141763" lon="4.450611"><ele>2.25</ele></trkpt>
   <trkpt lat="52.145124" lon="4.454044"><ele>2.25</ele></trkpt>
   <trkpt lat="52.1456" lon="4.454539"><ele>2.75</ele></trkpt>
   <trkpt lat="52.146476" lon="4.455479"><ele>3.5</ele></trkpt>
   <trkpt lat="52.147201" lon="4.456286"><ele>4.25</ele></trkpt>
   <trkpt lat="52.147611" lon="4.45676"><ele>4.5</ele></trkpt>
   <trkpt lat="52.14811" lon="4.457358"><ele>4.5</ele></trkpt>
   <trkpt lat="52.14813" lon="4.457382"><ele>4.5</ele></trkpt>
   <trkpt lat="52.148135" lon="4.457389"><ele>4.5</ele></trkpt>
   <trkpt lat="52.148905" lon="4.458351"><ele>4.75</ele></trkpt>
   <trkpt lat="52.148911" lon="4.458359"><ele>4.75</ele></trkpt>
   <trkpt lat="52.149865" lon="4.459601"><ele>4.75</ele></trkpt>
   <trkpt lat="52.150206" lon="4.460053"><ele>4.75</ele></trkpt>
   <trkpt lat="52.151327" lon="4.461554"><ele>4.75</ele></trkpt>
   <trkpt lat="52.151379" lon="4.461623"><ele>4.5</ele></trkpt>
   <trkpt lat="52.151787" lon="4.46217"><ele>3.25</ele></trkpt>
   <trkpt lat="52.151877" lon="4.46229"><ele>3</ele></trkpt>
   <trkpt lat="52.152064" lon="4.462539"><ele>2.5</ele></trkpt>
   <trkpt lat="52.152087" lon="4.462569"><ele>2.5</ele></trkpt>
   <trkpt lat="52.154217" lon="4.465382"><ele>3</ele></trkpt>
   <trkpt lat="52.155352" lon="4.466896"><ele>3.25</ele></trkpt>
   <trkpt lat="52.155562" lon="4.467176"><ele>3.25</ele></trkpt>
   <trkpt lat="52.156236" lon="4.468079"><ele>3.5</ele></trkpt>
   <trkpt lat="52.156529" lon="4.468472"><ele>3.5</ele></trkpt>
   <trkpt lat="52.156665" lon="4.468656"><ele>3.75</ele></trkpt>
   <trkpt lat="52.156763" lon="4.468785"><ele>3.75</ele></trkpt>
   <trkpt lat="52.156805" lon="4.46884"><ele>3.75</ele></trkpt>
   <trkpt lat="52.157708" lon="4.47005"><ele>4.25</ele></trkpt>
   <trkpt lat="52.157879" lon="4.470278"><ele>4.25</ele></trkpt>
   <trkpt lat="52.158755" lon="4.471445"><ele>4</ele></trkpt>
   <trkpt lat="52.158929" lon="4.471686"><ele>4</ele></trkpt>
   <trkpt lat="52.159202" lon="4.472046"><ele>4</ele></trkpt>
   <trkpt lat="52.159621" lon="4.472613"><ele>3.75</ele></trkpt>
   <trkpt lat="52.159638" lon="4.472636"><ele>4</ele></trkpt>
   <trkpt lat="52.15982" lon="4.472884"><ele>4</ele></trkpt>
   <trkpt lat="52.160837" lon="4.474281"><ele>4</ele></trkpt>
   <trkpt lat="52.16112" lon="4.47467"><ele>4</ele></trkpt>
   <trkpt lat="52.162847" lon="4.477047"><ele>4.5</ele></trkpt>
   <trkpt lat="52.163912" lon="4.478573"><ele>4.75</ele></trkpt>
   <trkpt lat="52.164119" lon="4.478875"><ele>5</ele></trkpt>
   <trkpt lat="52.164176" lon="4.478957"><ele>5</ele></trkpt>
   <trkpt lat="52.164447" lon="4.479349"><ele>4.5</ele></trkpt>
   <trkpt lat="52.165207" lon="4.48045"><ele>3.75</ele></trkpt>
   <trkpt lat="52.165709" lon="4.481169"><ele>3.25</ele></trkpt>
   <trkpt lat="52.166124" lon="4.481727"><ele>2.75</ele></trkpt>
   <trkpt lat="52.166448" lon="4.482158"><ele>2.25</ele></trkpt>
   <trkpt lat="52.167078" lon="4.482991"><ele>1.75</ele></trkpt>
   <trkpt lat="52.167148" lon="4.483083"><ele>1.5</ele></trkpt>
   <trkpt lat="52.167352" lon="4.483352"><ele>1.5</ele></trkpt>
   <trkpt lat="52.167397" lon="4.483412"><ele>1.25</ele></trkpt>
   <trkpt lat="52.16742" lon="4.483442"><ele>1.25</ele></trkpt>
   <trkpt lat="52.167596" lon="4.483672"><ele>1</ele></trkpt>
   <trkpt lat="52.168186" lon="4.484425"><ele>1.25</ele></trkpt>
   <trkpt lat="52.169042" lon="4.485476"><ele>5</ele></trkpt>
   <trkpt lat="52.17017" lon="4.486853"><ele>5</ele></trkpt>
   <trkpt lat="52.170278" lon="4.486982"><ele>4.75</ele></trkpt>
   <trkpt lat="52.171241" lon="4.488157"><ele>4.5</ele></trkpt>
   <trkpt lat="52.171672" lon="4.488688"><ele>4.25</ele></trkpt>
   <trkpt lat="52.172176" lon="4.48932"><ele>4.25</ele></trkpt>
   <trkpt lat="52.172425" lon="4.489637"><ele>4.25</ele></trkpt>
   <trkpt lat="52.172616" lon="4.489916"><ele>4.25</ele></trkpt>
   <trkpt lat="52.172772" lon="4.490164"><ele>4.5</ele></trkpt>
   <trkpt lat="52.172801" lon="4.490211"><ele>4.5</ele></trkpt>
   <trkpt lat="52.172902" lon="4.490372"><ele>4.75</ele></trkpt>
   <trkpt lat="52.173056" lon="4.490617"><ele>4.75</ele></trkpt>
   <trkpt lat="52.173248" lon="4.490895"><ele>4.5</ele></trkpt>
   <trkpt lat="52.173417" lon="4.491111"><ele>4.75</ele></trkpt>
   <trkpt lat="52.173427" lon="4.491122"><ele>4.75</ele></trkpt>
   <trkpt lat="52.173477" lon="4.491183"><ele>4.5</ele></trkpt>
   <trkpt lat="52.174154" lon="4.49205"><ele>4.75</ele></trkpt>
   <trkpt lat="52.174626" lon="4.492649"><ele>4.25</ele></trkpt>
   <trkpt lat="52.175032" lon="4.493147"><ele>4.5</ele></trkpt>
   <trkpt lat="52.175226" lon="4.493378"><ele>4.25</ele></trkpt>
   <trkpt lat="52.175856" lon="4.494079"><ele>4</ele></trkpt>
   <trkpt lat="52.175933" lon="4.49416"><ele>4</ele></trkpt>
   <trkpt lat="52.17643" lon="4.494666"><ele>3.75</ele></trkpt>
   <trkpt lat="52.17695" lon="4.495157"><ele>3.25</ele></trkpt>
   <trkpt lat="52.177398" lon="4.49555"><ele>2.75</ele></trkpt>
   <trkpt lat="52.177832" lon="4.495896"><ele>2.5</ele></trkpt>
   <trkpt lat="52.178174" lon="4.496146"><ele>2.25</ele></trkpt>
   <trkpt lat="52.178482" lon="4.496357"><ele>2</ele></trkpt>
   <trkpt lat="52.178738" lon="4.496524"><ele>1.75</ele></trkpt>
   <trkpt lat="52.17901" lon="4.496688"><ele>1.5</ele></trkpt>
   <trkpt lat="52.179327" lon="4.496868"><ele>1.25</ele></trkpt>
   <trkpt lat="52.179678" lon="4.497052"><ele>1</ele></trkpt>
   <trkpt lat="52.180272" lon="4.497326"><ele>0.75</ele></trkpt>
   <trkpt lat="52.180619" lon="4.497465"><ele>0.5</ele></trkpt>
   <trkpt lat="52.181017" lon="4.497608"><ele>0.75</ele></trkpt>
   <trkpt lat="52.181656" lon="4.497794"><ele>0.75</ele></trkpt>
   <trkpt lat="52.182137" lon="4.497902"><ele>0.75</ele></trkpt>
   <trkpt lat="52.182706" lon="4.497994"><ele>0.75</ele></trkpt>
   <trkpt lat="52.183147" lon="4.498035"><ele>0.75</ele></trkpt>
   <trkpt lat="52.183371" lon="4.498047"><ele>0.75</ele></trkpt>
   <trkpt lat="52.183573" lon="4.498054"><ele>1</ele></trkpt>
   <trkpt lat="52.184028" lon="4.498049"><ele>1</ele></trkpt>
   <trkpt lat="52.184668" lon="4.498001"><ele>1</ele></trkpt>
   <trkpt lat="52.185172" lon="4.497927"><ele>1.25</ele></trkpt>
   <trkpt lat="52.185529" lon="4.497858"><ele>1.25</ele></trkpt>
   <trkpt lat="52.185894" lon="4.497772"><ele>1.25</ele></trkpt>
   <trkpt lat="52.186565" lon="4.497579"><ele>1.5</ele></trkpt>
   <trkpt lat="52.187281" lon="4.497342"><ele>1.75</ele></trkpt>
   <trkpt lat="52.188481" lon="4.496924"><ele>2</ele></trkpt>
   <trkpt lat="52.188504" lon="4.496916"><ele>2</ele></trkpt>
   <trkpt lat="52.189303" lon="4.496637"><ele>2</ele></trkpt>
   <trkpt lat="52.190147" lon="4.496343"><ele>2.25</ele></trkpt>
   <trkpt lat="52.190896" lon="4.496075"><ele>2.25</ele></trkpt>
   <trkpt lat="52.191338" lon="4.495902"><ele>2.5</ele></trkpt>
   <trkpt lat="52.191784" lon="4.495713"><ele>2.75</ele></trkpt>
   <trkpt lat="52.192161" lon="4.495537"><ele>3</ele></trkpt>
   <trkpt lat="52.192642" lon="4.49529"><ele>3.5</ele></trkpt>
   <trkpt lat="52.194267" lon="4.494405"><ele>3.5</ele></trkpt>
   <trkpt lat="52.194661" lon="4.494202"><ele>3.75</ele></trkpt>
   <trkpt lat="52.195094" lon="4.493995"><ele>3.25</ele></trkpt>
   <trkpt lat="52.195504" lon="4.493821"><ele>3.75</ele></trkpt>
   <trkpt lat="52.196059" lon="4.493619"><ele>4.75</ele></trkpt>
   <trkpt lat="52.196571" lon="4.493468"><ele>4</ele></trkpt>
   <trkpt lat="52.197012" lon="4.493364"><ele>5.5</ele></trkpt>
   <trkpt lat="52.197259" lon="4.493316"><ele>5.75</ele></trkpt>
   <trkpt lat="52.19763" lon="4.493259"><ele>4.75</ele></trkpt>
   <trkpt lat="52.197987" lon="4.493218"><ele>4.25</ele></trkpt>
   <trkpt lat="52.198418" lon="4.493191"><ele>6</ele></trkpt>
   <trkpt lat="52.198788" lon="4.493186"><ele>5.75</ele></trkpt>
   <trkpt lat="52.199147" lon="4.493195"><ele>5.25</ele></trkpt>
   <trkpt lat="52.19954" lon="4.493223"><ele>5</ele></trkpt>
   <trkpt lat="52.200039" lon="4.493282"><ele>6.25</ele></trkpt>
   <trkpt lat="52.200346" lon="4.493336"><ele>6.75</ele></trkpt>
   <trkpt lat="52.200767" lon="4.493427"><ele>4.5</ele></trkpt>
   <trkpt lat="52.20131" lon="4.493577"><ele>4</ele></trkpt>
   <trkpt lat="52.201814" lon="4.493749"><ele>3.75</ele></trkpt>
   <trkpt lat="52.201873" lon="4.493771"><ele>3.75</ele></trkpt>
   <trkpt lat="52.20193" lon="4.493794"><ele>3.75</ele></trkpt>
   <trkpt lat="52.202396" lon="4.493989"><ele>3.5</ele></trkpt>
   <trkpt lat="52.202881" lon="4.494222"><ele>3.25</ele></trkpt>
   <trkpt lat="52.20332" lon="4.494461"><ele>3</ele></trkpt>
   <trkpt lat="52.203844" lon="4.494782"><ele>2.75</ele></trkpt>
   <trkpt lat="52.204274" lon="4.495076"><ele>2.5</ele></trkpt>
   <trkpt lat="52.204638" lon="4.495347"><ele>2.25</ele></trkpt>
   <trkpt lat="52.205016" lon="4.495652"><ele>2.25</ele></trkpt>
   <trkpt lat="52.205522" lon="4.496097"><ele>1.75</ele></trkpt>
   <trkpt lat="52.20594" lon="4.496499"><ele>1.75</ele></trkpt>
   <trkpt lat="52.206345" lon="4.496921"><ele>1.5</ele></trkpt>
   <trkpt lat="52.206757" lon="4.497386"><ele>1.25</ele></trkpt>
   <trkpt lat="52.207236" lon="4.497972"><ele>0.75</ele></trkpt>
   <trkpt lat="52.207631" lon="4.498499"><ele>0.5</ele></trkpt>
   <trkpt lat="52.207988" lon="4.499012"><ele>0.25</ele></trkpt>
   <trkpt lat="52.20835" lon="4.499569"><ele>0</ele></trkpt>
   <trkpt lat="52.208683" lon="4.500118"><ele>0</ele></trkpt>
   <trkpt lat="52.209019" lon="4.500715"><ele>0</ele></trkpt>
   <trkpt lat="52.20926" lon="4.501172"><ele>0</ele></trkpt>
   <trkpt lat="52.209523" lon="4.501701"><ele>0</ele></trkpt>
   <trkpt lat="52.209794" lon="4.502281"><ele>0</ele></trkpt>
   <trkpt lat="52.209908" lon="4.502534"><ele>0</ele></trkpt>
   <trkpt lat="52.210211" lon="4.503245"><ele>0</ele></trkpt>
   <trkpt lat="52.210515" lon="4.503999"><ele>0</ele></trkpt>
   <trkpt lat="52.211994" lon="4.507798"><ele>0.25</ele></trkpt>
   <trkpt lat="52.212299" lon="4.508582"><ele>0.25</ele></trkpt>
   <trkpt lat="52.212892" lon="4.510116"><ele>0.25</ele></trkpt>
   <trkpt lat="52.21317" lon="4.510852"><ele>0.25</ele></trkpt>
   <trkpt lat="52.213438" lon="4.511587"><ele>0.5</ele></trkpt>
   <trkpt lat="52.213749" lon="4.512474"><ele>0.5</ele></trkpt>
   <trkpt lat="52.214068" lon="4.51342"><ele>0.5</ele></trkpt>
   <trkpt lat="52.214457" lon="4.514636"><ele>0.5</ele></trkpt>
   <trkpt lat="52.214684" lon="4.515375"><ele>0.5</ele></trkpt>
   <trkpt lat="52.215039" lon="4.516597"><ele>0.5</ele></trkpt>
   <trkpt lat="52.215123" lon="4.516895"><ele>0.5</ele></trkpt>
   <trkpt lat="52.215305" lon="4.51756"><ele>0.75</ele></trkpt>
   <trkpt lat="52.215517" lon="4.518363"><ele>0.75</ele></trkpt>
   <trkpt lat="52.215686" lon="4.519028"><ele>0.75</ele></trkpt>
   <trkpt lat="52.215888" lon="4.519852"><ele>0.75</ele></trkpt>
   <trkpt lat="52.216203" lon="4.521219"><ele>0.75</ele></trkpt>
   <trkpt lat="52.216451" lon="4.522375"><ele>0.75</ele></trkpt>
   <trkpt lat="52.216602" lon="4.523118"><ele>1</ele></trkpt>
   <trkpt lat="52.217789" lon="4.529129"><ele>1.25</ele></trkpt>
   <trkpt lat="52.217808" lon="4.529226"><ele>1.25</ele></trkpt>
   <trkpt lat="52.219083" lon="4.535702"><ele>1.75</ele></trkpt>
   <trkpt lat="52.220036" lon="4.540536"><ele>2.25</ele></trkpt>
   <trkpt lat="52.220423" lon="4.542505"><ele>2.5</ele></trkpt>
   <trkpt lat="52.220741" lon="4.544093"><ele>2.75</ele></trkpt>
   <trkpt lat="52.220942" lon="4.545024"><ele>2.75</ele></trkpt>
   <trkpt lat="52.221169" lon="4.545982"><ele>2.75</ele></trkpt>
   <trkpt lat="52.22132" lon="4.54658"><ele>3</ele></trkpt>
   <trkpt lat="52.221544" lon="4.547403"><ele>3</ele></trkpt>
   <trkpt lat="52.221754" lon="4.548123"><ele>3.25</ele></trkpt>
   <trkpt lat="52.221932" lon="4.548701"><ele>3.25</ele></trkpt>
   <trkpt lat="52.222361" lon="4.55"><ele>1.25</ele></trkpt>
   <trkpt lat="52.223049" lon="4.551999"><ele>1</ele></trkpt>
   <trkpt lat="52.223238" lon="4.552544"><ele>0.75</ele></trkpt>
   <trkpt lat="52.223367" lon="4.552918"><ele>0.75</ele></trkpt>
   <trkpt lat="52.223378" lon="4.552949"><ele>0.75</ele></trkpt>
   <trkpt lat="52.223449" lon="4.553156"><ele>0.75</ele></trkpt>
   <trkpt lat="52.223463" lon="4.553196"><ele>0.75</ele></trkpt>
   <trkpt lat="52.223587" lon="4.553556"><ele>0.75</ele></trkpt>
   <trkpt lat="52.223778" lon="4.554107"><ele>1</ele></trkpt>
   <trkpt lat="52.223948" lon="4.554601"><ele>1.25</ele></trkpt>
   <trkpt lat="52.224473" lon="4.556133"><ele>2.5</ele></trkpt>
   <trkpt lat="52.224706" lon="4.556835"><ele>1.75</ele></trkpt>
   <trkpt lat="52.2249" lon="4.557447"><ele>1.25</ele></trkpt>
   <trkpt lat="52.225087" lon="4.558071"><ele>0.75</ele></trkpt>
   <trkpt lat="52.22524" lon="4.558609"><ele>0</ele></trkpt>
   <trkpt lat="52.225409" lon="4.559237"><ele>-0.25</ele></trkpt>
   <trkpt lat="52.225618" lon="4.560079"><ele>-1.25</ele></trkpt>
   <trkpt lat="52.225766" lon="4.560724"><ele>-1.75</ele></trkpt>
   <trkpt lat="52.225877" lon="4.56124"><ele>-2.5</ele></trkpt>
   <trkpt lat="52.226025" lon="4.56198"><ele>-2.5</ele></trkpt>
   <trkpt lat="52.226178" lon="4.562833"><ele>-2.75</ele></trkpt>
   <trkpt lat="52.226298" lon="4.563576"><ele>-3.5</ele></trkpt>
   <trkpt lat="52.226401" lon="4.564287"><ele>-1.5</ele></trkpt>
   <trkpt lat="52.22649" lon="4.56498"><ele>-3.25</ele></trkpt>
   <trkpt lat="52.226583" lon="4.565803"><ele>-2.5</ele></trkpt>
   <trkpt lat="52.226695" lon="4.567022"><ele>-1.5</ele></trkpt>
   <trkpt lat="52.226748" lon="4.567738"><ele>-3</ele></trkpt>
   <trkpt lat="52.226882" lon="4.569877"><ele>0</ele></trkpt>
   <trkpt lat="52.226954" lon="4.571093"><ele>1.75</ele></trkpt>
   <trkpt lat="52.226963" lon="4.571241"><ele>1.75</ele></trkpt>
   <trkpt lat="52.227026" lon="4.572283"><ele>1.75</ele></trkpt>
   <trkpt lat="52.227169" lon="4.574663"><ele>1.75</ele></trkpt>
   <trkpt lat="52.227218" lon="4.575494"><ele>1.75</ele></trkpt>
   <trkpt lat="52.228125" lon="4.590636"><ele>-4</ele></trkpt>
   <trkpt lat="52.228196" lon="4.591619"><ele>-4</ele></trkpt>
   <trkpt lat="52.228267" lon="4.592454"><ele>-4</ele></trkpt>
   <trkpt lat="52.22834" lon="4.593181"><ele>-4</ele></trkpt>
   <trkpt lat="52.228414" lon="4.593824"><ele>-4.5</ele></trkpt>
   <trkpt lat="52.228558" lon="4.5949"><ele>-4</ele></trkpt>
   <trkpt lat="52.228726" lon="4.595952"><ele>-4.5</ele></trkpt>
   <trkpt lat="52.228836" lon="4.596567"><ele>-4</ele></trkpt>
   <trkpt lat="52.228974" lon="4.597279"><ele>-4.25</ele></trkpt>
   <trkpt lat="52.229107" lon="4.597913"><ele>-4.5</ele></trkpt>
   <trkpt lat="52.229248" lon="4.598537"><ele>-4</ele></trkpt>
   <trkpt lat="52.229433" lon="4.599296"><ele>-4</ele></trkpt>
   <trkpt lat="52.229549" lon="4.599742"><ele>-4</ele></trkpt>
   <trkpt lat="52.229782" lon="4.600585"><ele>-3.5</ele></trkpt>
   <trkpt lat="52.229996" lon="4.601298"><ele>-4</ele></trkpt>
   <trkpt lat="52.23026" lon="4.602126"><ele>-4</ele></trkpt>
   <trkpt lat="52.230348" lon="4.602391"><ele>-4</ele></trkpt>
   <trkpt lat="52.230565" lon="4.603002"><ele>-4</ele></trkpt>
   <trkpt lat="52.230818" lon="4.603672"><ele>-4</ele></trkpt>
   <trkpt lat="52.231081" lon="4.604332"><ele>-4</ele></trkpt>
   <trkpt lat="52.231274" lon="4.604797"><ele>-4.25</ele></trkpt>
   <trkpt lat="52.231495" lon="4.605304"><ele>-4.5</ele></trkpt>
   <trkpt lat="52.231777" lon="4.605921"><ele>-4.75</ele></trkpt>
   <trkpt lat="52.23204" lon="4.606466"><ele>-4.75</ele></trkpt>
   <trkpt lat="52.232361" lon="4.607098"><ele>-4.5</ele></trkpt>
   <trkpt lat="52.232632" lon="4.607604"><ele>-4.25</ele></trkpt>
   <trkpt lat="52.232983" lon="4.608227"><ele>-4.25</ele></trkpt>
   <trkpt lat="52.233293" lon="4.608748"><ele>-4</ele></trkpt>
   <trkpt lat="52.233716" lon="4.609421"><ele>-4.75</ele></trkpt>
   <trkpt lat="52.234331" lon="4.610341"><ele>-4.5</ele></trkpt>
   <trkpt lat="52.238062" lon="4.615676"><ele>-4.25</ele></trkpt>
   <trkpt lat="52.238143" lon="4.615791"><ele>-4.25</ele></trkpt>
   <trkpt lat="52.238429" lon="4.616198"><ele>-4.25</ele></trkpt>
   <trkpt lat="52.238451" lon="4.616229"><ele>-4.25</ele></trkpt>
   <trkpt lat="52.23846" lon="4.616243"><ele>-4.25</ele></trkpt>
   <trkpt lat="52.238668" lon="4.616539"><ele>-4.25</ele></trkpt>
   <trkpt lat="52.245427" lon="4.626194"><ele>-4</ele></trkpt>
   <trkpt lat="52.2499" lon="4.632587"><ele>-4</ele></trkpt>
   <trkpt lat="52.250117" lon="4.632897"><ele>-4.25</ele></trkpt>
   <trkpt lat="52.254585" lon="4.639287"><ele>-4.75</ele></trkpt>
   <trkpt lat="52.254752" lon="4.639526"><ele>-4.75</ele></trkpt>
   <trkpt lat="52.255952" lon="4.641244"><ele>-3.5</ele></trkpt>
   <trkpt lat="52.257894" lon="4.644019"><ele>-1.75</ele></trkpt>
   <trkpt lat="52.258055" lon="4.644249"><ele>-1.75</ele></trkpt>
   <trkpt lat="52.258532" lon="4.644932"><ele>-1.75</ele></trkpt>
   <trkpt lat="52.258713" lon="4.645191"><ele>-2</ele></trkpt>
   <trkpt lat="52.258894" lon="4.64545"><ele>-2</ele></trkpt>
   <trkpt lat="52.259192" lon="4.645877"><ele>-2.25</ele></trkpt>
   <trkpt lat="52.259403" lon="4.646177"><ele>-2.25</ele></trkpt>
   <trkpt lat="52.259618" lon="4.646484"><ele>-2.25</ele></trkpt>
   <trkpt lat="52.259909" lon="4.646901"><ele>-2.5</ele></trkpt>
   <trkpt lat="52.263115" lon="4.651486"><ele>-4</ele></trkpt>
   <trkpt lat="52.264907" lon="4.65405"><ele>-4</ele></trkpt>
   <trkpt lat="52.266965" lon="4.656997"><ele>-4</ele></trkpt>
   <trkpt lat="52.270412" lon="4.661929"><ele>-4</ele></trkpt>
   <trkpt lat="52.272348" lon="4.664698"><ele>-4</ele></trkpt>
   <trkpt lat="52.273849" lon="4.666849"><ele>-4</ele></trkpt>
   <trkpt lat="52.279023" lon="4.67426"><ele>-3.5</ele></trkpt>
   <trkpt lat="52.279137" lon="4.674423"><ele>-3.5</ele></trkpt>
   <trkpt lat="52.279309" lon="4.67467"><ele>-3.5</ele></trkpt>
   <trkpt lat="52.279667" lon="4.675182"><ele>-3.5</ele></trkpt>
   <trkpt lat="52.279696" lon="4.675224"><ele>-3.5</ele></trkpt>
   <trkpt lat="52.279749" lon="4.675299"><ele>-3.5</ele></trkpt>
   <trkpt lat="52.279934" lon="4.675563"><ele>-3.25</ele></trkpt>
   <trkpt lat="52.280071" lon="4.67576"><ele>-3.25</ele></trkpt>
   <trkpt lat="52.280236" lon="4.675995"><ele>-3.25</ele></trkpt>
   <trkpt lat="52.281339" lon="4.677577"><ele>-3.25</ele></trkpt>
   <trkpt lat="52.282735" lon="4.679577"><ele>-3.25</ele></trkpt>
   <trkpt lat="52.283215" lon="4.680267"><ele>-3.25</ele></trkpt>
   <trkpt lat="52.283874" lon="4.68125"><ele>-4</ele></trkpt>
   <trkpt lat="52.284293" lon="4.681899"><ele>-4</ele></trkpt>
   <trkpt lat="52.28452" lon="4.68226"><ele>-3.75</ele></trkpt>
   <trkpt lat="52.285167" lon="4.683338"><ele>-3</ele></trkpt>
   <trkpt lat="52.285828" lon="4.684529"><ele>-1</ele></trkpt>
   <trkpt lat="52.285967" lon="4.684786"><ele>-1</ele></trkpt>
   <trkpt lat="52.287065" lon="4.686827"><ele>-1</ele></trkpt>
   <trkpt lat="52.287377" lon="4.687407"><ele>-1</ele></trkpt>
   <trkpt lat="52.287817" lon="4.688231"><ele>-1</ele></trkpt>
   <trkpt lat="52.288189" lon="4.688958"><ele>-1.25</ele></trkpt>
   <trkpt lat="52.288332" lon="4.689246"><ele>-1.25</ele></trkpt>
   <trkpt lat="52.288839" lon="4.690294"><ele>-1.25</ele></trkpt>
   <trkpt lat="52.29034" lon="4.693586"><ele>-1.5</ele></trkpt>
   <trkpt lat="52.290595" lon="4.69415"><ele>-1.5</ele></trkpt>
   <trkpt lat="52.290904" lon="4.694801"><ele>-1.75</ele></trkpt>
   <trkpt lat="52.29121" lon="4.695474"><ele>-1.75</ele></trkpt>
   <trkpt lat="52.291511" lon="4.696174"><ele>-1.25</ele></trkpt>
   <trkpt lat="52.291828" lon="4.696958"><ele>-1.25</ele></trkpt>
   <trkpt lat="52.29241" lon="4.698414"><ele>-0.5</ele></trkpt>
   <trkpt lat="52.292588" lon="4.698856"><ele>-0.25</ele></trkpt>
   <trkpt lat="52.292633" lon="4.698969"><ele>-0.25</ele></trkpt>
   <trkpt lat="52.29274" lon="4.69924"><ele>-0.25</ele></trkpt>
   <trkpt lat="52.292825" lon="4.699455"><ele>-0.25</ele></trkpt>
   <trkpt lat="52.293095" lon="4.700185"><ele>-0.25</ele></trkpt>
   <trkpt lat="52.293304" lon="4.700794"><ele>-0.25</ele></trkpt>
   <trkpt lat="52.293529" lon="4.7015"><ele>-0.5</ele></trkpt>
   <trkpt lat="52.293714" lon="4.702126"><ele>-0.5</ele></trkpt>
   <trkpt lat="52.2939" lon="4.702804"><ele>-0.75</ele></trkpt>
   <trkpt lat="52.294018" lon="4.703272"><ele>-0.75</ele></trkpt>
   <trkpt lat="52.294104" lon="4.703632"><ele>0</ele></trkpt>
   <trkpt lat="52.294221" lon="4.704153"><ele>0.5</ele></trkpt>
   <trkpt lat="52.294347" lon="4.704769"><ele>1.75</ele></trkpt>
   <trkpt lat="52.294997" lon="4.708094"><ele>1.75</ele></trkpt>
   <trkpt lat="52.29526" lon="4.709495"><ele>2.25</ele></trkpt>
   <trkpt lat="52.295449" lon="4.710569"><ele>1.5</ele></trkpt>
   <trkpt lat="52.29546" lon="4.710632"><ele>1.5</ele></trkpt>
   <trkpt lat="52.295547" lon="4.711136"><ele>1</ele></trkpt>
   <trkpt lat="52.295654" lon="4.711799"><ele>0.75</ele></trkpt>
   <trkpt lat="52.295722" lon="4.712265"><ele>0.75</ele></trkpt>
   <trkpt lat="52.295828" lon="4.713142"><ele>0.75</ele></trkpt>
   <trkpt lat="52.295921" lon="4.714119"><ele>0.75</ele></trkpt>
   <trkpt lat="52.295979" lon="4.714837"><ele>0.75</ele></trkpt>
   <trkpt lat="52.296008" lon="4.715212"><ele>0.75</ele></trkpt>
   <trkpt lat="52.296055" lon="4.715932"><ele>0.75</ele></trkpt>
   <trkpt lat="52.296066" lon="4.716126"><ele>0.5</ele></trkpt>
   <trkpt lat="52.296205" lon="4.718989"><ele>-1</ele></trkpt>
   <trkpt lat="52.296226" lon="4.719433"><ele>-1.25</ele></trkpt>
   <trkpt lat="52.296275" lon="4.720453"><ele>-2</ele></trkpt>
   <trkpt lat="52.296318" lon="4.721152"><ele>-2.5</ele></trkpt>
   <trkpt lat="52.296488" lon="4.723343"><ele>-4</ele></trkpt>
   <trkpt lat="52.296562" lon="4.724483"><ele>-4</ele></trkpt>
   <trkpt lat="52.296624" lon="4.725386"><ele>-4.75</ele></trkpt>
   <trkpt lat="52.296707" lon="4.726413"><ele>-4.75</ele></trkpt>
   <trkpt lat="52.296838" lon="4.727738"><ele>-4.5</ele></trkpt>
   <trkpt lat="52.29691" lon="4.728389"><ele>-7.5</ele></trkpt>
   <trkpt lat="52.297043" lon="4.729442"><ele>-4.5</ele></trkpt>
   <trkpt lat="52.297046" lon="4.729463"><ele>-4.5</ele></trkpt>
   <trkpt lat="52.297051" lon="4.729499"><ele>-4.5</ele></trkpt>
   <trkpt lat="52.297056" lon="4.729536"><ele>-4.5</ele></trkpt>
   <trkpt lat="52.297061" lon="4.729574"><ele>-4.25</ele></trkpt>
   <trkpt lat="52.297085" lon="4.729745"><ele>-4</ele></trkpt>
   <trkpt lat="52.29709" lon="4.729785"><ele>-4</ele></trkpt>
   <trkpt lat="52.297095" lon="4.72982"><ele>-4</ele></trkpt>
   <trkpt lat="52.297101" lon="4.729862"><ele>-4</ele></trkpt>
   <trkpt lat="52.297124" lon="4.730032"><ele>-4</ele></trkpt>
   <trkpt lat="52.29713" lon="4.730074"><ele>-4</ele></trkpt>
   <trkpt lat="52.297135" lon="4.730109"><ele>-4</ele></trkpt>
   <trkpt lat="52.297141" lon="4.730152"><ele>-4</ele></trkpt>
   <trkpt lat="52.297144" lon="4.730176"><ele>-3.75</ele></trkpt>
   <trkpt lat="52.297282" lon="4.731099"><ele>-3.75</ele></trkpt>
   <trkpt lat="52.297384" lon="4.731727"><ele>-3.75</ele></trkpt>
   <trkpt lat="52.297526" lon="4.732541"><ele>-3.75</ele></trkpt>
   <trkpt lat="52.297641" lon="4.733159"><ele>-3.75</ele></trkpt>
   <trkpt lat="52.297914" lon="4.734522"><ele>-3.75</ele></trkpt>
   <trkpt lat="52.298264" lon="4.736082"><ele>-3.75</ele></trkpt>
   <trkpt lat="52.298528" lon="4.737147"><ele>-3.75</ele></trkpt>
   <trkpt lat="52.29868" lon="4.737731"><ele>-3.75</ele></trkpt>
   <trkpt lat="52.298924" lon="4.738619"><ele>-3.75</ele></trkpt>
   <trkpt lat="52.299246" lon="4.739712"><ele>-3.75</ele></trkpt>
   <trkpt lat="52.299466" lon="4.740421"><ele>-3.75</ele></trkpt>
   <trkpt lat="52.299929" lon="4.741813"><ele>-3.75</ele></trkpt>
   <trkpt lat="52.300295" lon="4.74284"><ele>-3.75</ele></trkpt>
   <trkpt lat="52.30062" lon="4.743707"><ele>-3.75</ele></trkpt>
   <trkpt lat="52.302095" lon="4.747543"><ele>-3.5</ele></trkpt>
   <trkpt lat="52.303571" lon="4.751384"><ele>-3.5</ele></trkpt>
   <trkpt lat="52.303604" lon="4.751468"><ele>-3.5</ele></trkpt>
   <trkpt lat="52.303646" lon="4.75158"><ele>-3.5</ele></trkpt>
   <trkpt lat="52.303648" lon="4.751585"><ele>-3.5</ele></trkpt>
   <trkpt lat="52.304019" lon="4.75255"><ele>-3.5</ele></trkpt>
   <trkpt lat="52.304821" lon="4.75463"><ele>-3.5</ele></trkpt>
   <trkpt lat="52.304941" lon="4.754929"><ele>-3.5</ele></trkpt>
   <trkpt lat="52.304945" lon="4.754938"><ele>-3.5</ele></trkpt>
   <trkpt lat="52.305207" lon="4.755554"><ele>-3.5</ele></trkpt>
   <trkpt lat="52.305424" lon="4.756033"><ele>-3.5</ele></trkpt>
   <trkpt lat="52.305765" lon="4.756734"><ele>-3.5</ele></trkpt>
   <trkpt lat="52.306148" lon="4.757466"><ele>-3.5</ele></trkpt>
   <trkpt lat="52.30615" lon="4.75747"><ele>-3.5</ele></trkpt>
   <trkpt lat="52.306298" lon="4.757741"><ele>-3.5</ele></trkpt>
   <trkpt lat="52.306357" lon="4.75785"><ele>-3.5</ele></trkpt>
   <trkpt lat="52.306548" lon="4.75819"><ele>-3.5</ele></trkpt>
   <trkpt lat="52.30687" lon="4.758749"><ele>-3.5</ele></trkpt>
   <trkpt lat="52.307171" lon="4.759243"><ele>-3.5</ele></trkpt>
   <trkpt lat="52.307367" lon="4.759548"><ele>-3.5</ele></trkpt>
   <trkpt lat="52.307384" lon="4.759574"><ele>-3.5</ele></trkpt>
   <trkpt lat="52.307536" lon="4.759803"><ele>-3.5</ele></trkpt>
   <trkpt lat="52.307981" lon="4.760433"><ele>-3.5</ele></trkpt>
   <trkpt lat="52.308228" lon="4.760761"><ele>-3.5</ele></trkpt>
   <trkpt lat="52.30836" lon="4.760931"><ele>-3.5</ele></trkpt>
   <trkpt lat="52.308716" lon="4.761388"><ele>-3.5</ele></trkpt>
   <trkpt lat="52.308971" lon="4.761716"><ele>-3.25</ele></trkpt>
   <trkpt lat="52.309277" lon="4.762107"><ele>-3.25</ele></trkpt>
   <trkpt lat="52.309528" lon="4.762429"><ele>-3.25</ele></trkpt>
   <trkpt lat="52.309581" lon="4.762498"><ele>-3.25</ele></trkpt>
   <trkpt lat="52.309811" lon="4.762792"><ele>-3.25</ele></trkpt>
   <trkpt lat="52.30998" lon="4.763009"><ele>-3.25</ele></trkpt>
   <trkpt lat="52.309994" lon="4.763026"><ele>-3.25</ele></trkpt>
   <trkpt lat="52.310151" lon="4.763225"><ele>-3.25</ele></trkpt>
   <trkpt lat="52.310197" lon="4.763283"><ele>-3.25</ele></trkpt>
   <trkpt lat="52.310237" lon="4.763334"><ele>-3.25</ele></trkpt>
   <trkpt lat="52.310303" lon="4.763415"><ele>-3.25</ele></trkpt>
   <trkpt lat="52.310376" lon="4.763506"><ele>-3.25</ele></trkpt>
   <trkpt lat="52.310464" lon="4.763613"><ele>-3.25</ele></trkpt>
   <trkpt lat="52.310885" lon="4.764116"><ele>-3.25</ele></trkpt>
   <trkpt lat="52.311168" lon="4.764442"><ele>-3.25</ele></trkpt>
   <trkpt lat="52.311409" lon="4.764703"><ele>-3.25</ele></trkpt>
   <trkpt lat="52.311413" lon="4.764707"><ele>-3.25</ele></trkpt>
   <trkpt lat="52.311418" lon="4.764712"><ele>-3.25</ele></trkpt>
   <trkpt lat="52.3116" lon="4.76491"><ele>-3.25</ele></trkpt>
   <trkpt lat="52.311604" lon="4.764914"><ele>-3.25</ele></trkpt>
   <trkpt lat="52.312797" lon="4.766194"><ele>-3.25</ele></trkpt>
   <trkpt lat="52.313406" lon="4.766845"><ele>-3.25</ele></trkpt>
   <trkpt lat="52.314745" lon="4.768276"><ele>-3.25</ele></trkpt>
   <trkpt lat="52.315871" lon="4.769481"><ele>-3.25</ele></trkpt>
   <trkpt lat="52.315939" lon="4.769553"><ele>-3.25</ele></trkpt>
   <trkpt lat="52.318577" lon="4.772376"><ele>-3</ele></trkpt>
   <trkpt lat="52.320573" lon="4.774512"><ele>-3</ele></trkpt>
   <trkpt lat="52.321235" lon="4.775223"><ele>-3</ele></trkpt>
   <trkpt lat="52.321659" lon="4.775706"><ele>-3</ele></trkpt>
   <trkpt lat="52.32216" lon="4.776332"><ele>-3</ele></trkpt>
   <trkpt lat="52.322528" lon="4.776837"><ele>-3</ele></trkpt>
   <trkpt lat="52.322797" lon="4.77723"><ele>-3</ele></trkpt>
   <trkpt lat="52.322972" lon="4.777499"><ele>-3</ele></trkpt>
   <trkpt lat="52.323207" lon="4.777878"><ele>-3</ele></trkpt>
   <trkpt lat="52.323457" lon="4.778302"><ele>-3</ele></trkpt>
   <trkpt lat="52.323758" lon="4.778849"><ele>-3</ele></trkpt>
   <trkpt lat="52.323914" lon="4.779148"><ele>-3</ele></trkpt>
   <trkpt lat="52.324146" lon="4.779617"><ele>-3</ele></trkpt>
   <trkpt lat="52.32436" lon="4.780073"><ele>-3</ele></trkpt>
   <trkpt lat="52.324555" lon="4.780514"><ele>-3</ele></trkpt>
   <trkpt lat="52.324741" lon="4.780959"><ele>-3</ele></trkpt>
   <trkpt lat="52.324919" lon="4.781413"><ele>-3</ele></trkpt>
   <trkpt lat="52.325091" lon="4.781874"><ele>-3</ele></trkpt>
   <trkpt lat="52.325248" lon="4.782324"><ele>-3</ele></trkpt>
   <trkpt lat="52.325474" lon="4.783016"><ele>-3</ele></trkpt>
   <trkpt lat="52.325619" lon="4.783501"><ele>-3</ele></trkpt>
   <trkpt lat="52.325863" lon="4.784397"><ele>-3</ele></trkpt>
   <trkpt lat="52.325997" lon="4.784943"><ele>-3</ele></trkpt>
   <trkpt lat="52.326129" lon="4.785535"><ele>-3</ele></trkpt>
   <trkpt lat="52.326138" lon="4.785579"><ele>-3</ele></trkpt>
   <trkpt lat="52.326147" lon="4.785622"><ele>-3</ele></trkpt>
   <trkpt lat="52.326167" lon="4.785717"><ele>-3.25</ele></trkpt>
   <trkpt lat="52.326176" lon="4.785761"><ele>-3.5</ele></trkpt>
   <trkpt lat="52.326195" lon="4.785856"><ele>-3.75</ele></trkpt>
   <trkpt lat="52.326204" lon="4.785899"><ele>-3.75</ele></trkpt>
   <trkpt lat="52.326223" lon="4.785996"><ele>-3.5</ele></trkpt>
   <trkpt lat="52.326233" lon="4.786042"><ele>-3.5</ele></trkpt>
   <trkpt lat="52.326252" lon="4.786139"><ele>-3.5</ele></trkpt>
   <trkpt lat="52.32626" lon="4.78618"><ele>-3.5</ele></trkpt>
   <trkpt lat="52.326279" lon="4.786277"><ele>-3.75</ele></trkpt>
   <trkpt lat="52.326287" lon="4.78632"><ele>-4</ele></trkpt>
   <trkpt lat="52.326296" lon="4.786371"><ele>-4.25</ele></trkpt>
   <trkpt lat="52.326539" lon="4.787682"><ele>-3</ele></trkpt>
   <trkpt lat="52.326728" lon="4.788616"><ele>-3</ele></trkpt>
   <trkpt lat="52.326925" lon="4.789501"><ele>-4.5</ele></trkpt>
   <trkpt lat="52.327234" lon="4.790752"><ele>-2.75</ele></trkpt>
   <trkpt lat="52.327251" lon="4.79082"><ele>-2.75</ele></trkpt>
   <trkpt lat="52.327444" lon="4.791567"><ele>-1.75</ele></trkpt>
   <trkpt lat="52.327608" lon="4.792173"><ele>-1.25</ele></trkpt>
   <trkpt lat="52.327834" lon="4.792948"><ele>-0.75</ele></trkpt>
   <trkpt lat="52.328048" lon="4.793611"><ele>-0.25</ele></trkpt>
   <trkpt lat="52.328253" lon="4.794188"><ele>0</ele></trkpt>
   <trkpt lat="52.328436" lon="4.794676"><ele>0.75</ele></trkpt>
   <trkpt lat="52.328676" lon="4.795284"><ele>2</ele></trkpt>
   <trkpt lat="52.328852" lon="4.79571"><ele>2.75</ele></trkpt>
   <trkpt lat="52.329128" lon="4.796348"><ele>4.25</ele></trkpt>
   <trkpt lat="52.329495" lon="4.797144"><ele>4.25</ele></trkpt>
   <trkpt lat="52.329762" lon="4.797689"><ele>5</ele></trkpt>
   <trkpt lat="52.33019" lon="4.798511"><ele>6</ele></trkpt>
   <trkpt lat="52.330464" lon="4.799006"><ele>6.75</ele></trkpt>
   <trkpt lat="52.33082" lon="4.799618"><ele>7</ele></trkpt>
   <trkpt lat="52.332458" lon="4.802295"><ele>7</ele></trkpt>
   <trkpt lat="52.333088" lon="4.803324"><ele>7</ele></trkpt>
   <trkpt lat="52.333476" lon="4.803958"><ele>7</ele></trkpt>
   <trkpt lat="52.335104" lon="4.806613"><ele>7</ele></trkpt>
   <trkpt lat="52.335699" lon="4.807598"><ele>6.75</ele></trkpt>
   <trkpt lat="52.336085" lon="4.808274"><ele>6.75</ele></trkpt>
   <trkpt lat="52.336456" lon="4.808984"><ele>6.5</ele></trkpt>
   <trkpt lat="52.336785" lon="4.809697"><ele>6.25</ele></trkpt>
   <trkpt lat="52.337026" lon="4.810281"><ele>5.75</ele></trkpt>
   <trkpt lat="52.337158" lon="4.81063"><ele>5.5</ele></trkpt>
   <trkpt lat="52.337302" lon="4.811036"><ele>6</ele></trkpt>
   <trkpt lat="52.337452" lon="4.811494"><ele>5.5</ele></trkpt>
   <trkpt lat="52.337609" lon="4.812021"><ele>5.75</ele></trkpt>
   <trkpt lat="52.337754" lon="4.812558"><ele>5.75</ele></trkpt>
   <trkpt lat="52.3378" lon="4.812745"><ele>5.75</ele></trkpt>
   <trkpt lat="52.337845" lon="4.812934"><ele>5.5</ele></trkpt>
   <trkpt lat="52.337958" lon="4.813441"><ele>5.5</ele></trkpt>
   <trkpt lat="52.338064" lon="4.813991"><ele>5.5</ele></trkpt>
   <trkpt lat="52.338167" lon="4.814608"><ele>5.5</ele></trkpt>
   <trkpt lat="52.338217" lon="4.814951"><ele>5.5</ele></trkpt>
   <trkpt lat="52.33828" lon="4.815457"><ele>5.5</ele></trkpt>
   <trkpt lat="52.338346" lon="4.816087"><ele>5.75</ele></trkpt>
   <trkpt lat="52.338405" lon="4.816872"><ele>5.75</ele></trkpt>
   <trkpt lat="52.338429" lon="4.817357"><ele>5.5</ele></trkpt>
   <trkpt lat="52.338448" lon="4.818031"><ele>5.25</ele></trkpt>
   <trkpt lat="52.338453" lon="4.81842"><ele>5.25</ele></trkpt>
   <trkpt lat="52.338455" lon="4.819179"><ele>5.25</ele></trkpt>
   <trkpt lat="52.338455" lon="4.819225"><ele>5.25</ele></trkpt>
   <trkpt lat="52.338448" lon="4.821511"><ele>3.5</ele></trkpt>
   <trkpt lat="52.338445" lon="4.821677"><ele>2.5</ele></trkpt>
   <trkpt lat="52.338443" lon="4.821872"><ele>4</ele></trkpt>
   <trkpt lat="52.338438" lon="4.822151"><ele>5</ele></trkpt>
   <trkpt lat="52.338428" lon="4.822702"><ele>5.5</ele></trkpt>
   <trkpt lat="52.338403" lon="4.823954"><ele>5.25</ele></trkpt>
   <trkpt lat="52.338373" lon="4.825463"><ele>5.5</ele></trkpt>
   <trkpt lat="52.338356" lon="4.82734"><ele>6</ele></trkpt>
   <trkpt lat="52.338356" lon="4.828629"><ele>6.5</ele></trkpt>
   <trkpt lat="52.338358" lon="4.829596"><ele>6.5</ele></trkpt>
   <trkpt lat="52.33836" lon="4.830503"><ele>6.5</ele></trkpt>
   <trkpt lat="52.33836" lon="4.83053"><ele>6.5</ele></trkpt>
   <trkpt lat="52.338362" lon="4.831895"><ele>5.5</ele></trkpt>
   <trkpt lat="52.338351" lon="4.832738"><ele>5.5</ele></trkpt>
   <trkpt lat="52.338328" lon="4.83355"><ele>5.75</ele></trkpt>
   <trkpt lat="52.338292" lon="4.834364"><ele>5.75</ele></trkpt>
   <trkpt lat="52.338241" lon="4.835177"><ele>5.5</ele></trkpt>
   <trkpt lat="52.338175" lon="4.835956"><ele>5.5</ele></trkpt>
   <trkpt lat="52.338091" lon="4.836755"><ele>6</ele></trkpt>
   <trkpt lat="52.337858" lon="4.838746"><ele>6.75</ele></trkpt>
   <trkpt lat="52.337706" lon="4.840065"><ele>7.5</ele></trkpt>
   <trkpt lat="52.337654" lon="4.840504"><ele>7.75</ele></trkpt>
   <trkpt lat="52.337609" lon="4.840946"><ele>7.75</ele></trkpt>
   <trkpt lat="52.337525" lon="4.842007"><ele>8</ele></trkpt>
   <trkpt lat="52.337511" lon="4.842269"><ele>8.75</ele></trkpt>
   <trkpt lat="52.337476" lon="4.842987"><ele>8.75</ele></trkpt>
   <trkpt lat="52.337456" lon="4.84374"><ele>8.25</ele></trkpt>
   <trkpt lat="52.337452" lon="4.844465"><ele>8.25</ele></trkpt>
   <trkpt lat="52.33746" lon="4.845102"><ele>8.75</ele></trkpt>
   <trkpt lat="52.3375" lon="4.846182"><ele>5.25</ele></trkpt>
   <trkpt lat="52.337539" lon="4.846932"><ele>1</ele></trkpt>
   <trkpt lat="52.337552" lon="4.84717"><ele>1</ele></trkpt>
   <trkpt lat="52.337615" lon="4.848359"><ele>4.75</ele></trkpt>
   <trkpt lat="52.337712" lon="4.850381"><ele>8</ele></trkpt>
   <trkpt lat="52.337769" lon="4.851989"><ele>7.75</ele></trkpt>
   <trkpt lat="52.337816" lon="4.853337"><ele>6.75</ele></trkpt>
   <trkpt lat="52.337834" lon="4.853781"><ele>4.75</ele></trkpt>
   <trkpt lat="52.337881" lon="4.854692"><ele>7</ele></trkpt>
   <trkpt lat="52.338004" lon="4.857093"><ele>3</ele></trkpt>
   <trkpt lat="52.338058" lon="4.858131"><ele>2.25</ele></trkpt>
   <trkpt lat="52.338145" lon="4.859813"><ele>6.5</ele></trkpt>
   <trkpt lat="52.338167" lon="4.860277"><ele>6</ele></trkpt>
   <trkpt lat="52.338185" lon="4.860651"><ele>6.25</ele></trkpt>
   <trkpt lat="52.338192" lon="4.860789"><ele>6.25</ele></trkpt>
   <trkpt lat="52.338233" lon="4.861644"><ele>6</ele></trkpt>
   <trkpt lat="52.338367" lon="4.863355"><ele>6</ele></trkpt>
   <trkpt lat="52.338447" lon="4.865058"><ele>6.25</ele></trkpt>
   <trkpt lat="52.338461" lon="4.865397"><ele>6.25</ele></trkpt>
   <trkpt lat="52.338505" lon="4.866097"><ele>6</ele></trkpt>
   <trkpt lat="52.338522" lon="4.86629"><ele>6</ele></trkpt>
   <trkpt lat="52.338583" lon="4.867186"><ele>6</ele></trkpt>
   <trkpt lat="52.338588" lon="4.867319"><ele>5.75</ele></trkpt>
   <trkpt lat="52.338621" lon="4.868169"><ele>5.5</ele></trkpt>
   <trkpt lat="52.33865" lon="4.869045"><ele>5</ele></trkpt>
   <trkpt lat="52.33865" lon="4.869052"><ele>5</ele></trkpt>
   <trkpt lat="52.338651" lon="4.869077"><ele>5</ele></trkpt>
   <trkpt lat="52.338656" lon="4.869214"><ele>5</ele></trkpt>
   <trkpt lat="52.338657" lon="4.869235"><ele>5</ele></trkpt>
   <trkpt lat="52.338657" lon="4.869238"><ele>5</ele></trkpt>
   <trkpt lat="52.338664" lon="4.869385"><ele>6</ele></trkpt>
   <trkpt lat="52.338683" lon="4.86986"><ele>6.25</ele></trkpt>
   <trkpt lat="52.338696" lon="4.870165"><ele>6.5</ele></trkpt>
   <trkpt lat="52.338721" lon="4.870771"><ele>6.75</ele></trkpt>
   <trkpt lat="52.338726" lon="4.870875"><ele>7</ele></trkpt>
   <trkpt lat="52.33873" lon="4.870979"><ele>7</ele></trkpt>
   <trkpt lat="52.338762" lon="4.871764"><ele>6.5</ele></trkpt>
   <trkpt lat="52.338792" lon="4.872519"><ele>6.5</ele></trkpt>
   <trkpt lat="52.338807" lon="4.872872"><ele>6.5</ele></trkpt>
   <trkpt lat="52.338816" lon="4.873113"><ele>6.5</ele></trkpt>
   <trkpt lat="52.338817" lon="4.873125"><ele>6.5</ele></trkpt>
   <trkpt lat="52.33882" lon="4.87322"><ele>6.75</ele></trkpt>
  </trkseg>
 </trk>
</gpx>