<?xml version="1.0" encoding="UTF-8"?>
<!-- track-length = 9965 filtered ascend = 3 plain-ascend = 0 cost=9965 energy=0.1kwh time=13m 17s -->
<gpx 
 xmlns="http://www.topografix.com/GPX/1/1" 
 xmlns:xsi="http://www.w3.org/2001/XMLSchema-instance" 
 xsi:schemaLocation="http://www.topografix.com/GPX/1/1 http://www.topografix.com/GPX/1/1/gpx.xsd" 
 version="1.1" 
 creator="BRouter-Web 0.18.1">
 <trk>
  <name>Делфт -&gt; The Hague (10km)</name>
  <trkseg>
   <trkpt lat="52.007545" lon="4.356627"><ele>1</ele></trkpt>
   <trkpt lat="52.007557" lon="4.356622"><ele>1</ele></trkpt>
   <trkpt lat="52.008182" lon="4.356323"><ele>1</ele></trkpt>
   <trkpt lat="52.008494" lon="4.356154"><ele>1</ele></trkpt>
   <trkpt lat="52.008884" lon="4.355922"><ele>1</ele></trkpt>
   <trkpt lat="52.009131" lon="4.35577"><ele>1</ele></trkpt>
   <trkpt lat="52.009436" lon="4.355559"><ele>1</ele></trkpt>
   <trkpt lat="52.010122" lon="4.355045"><ele>1</ele></trkpt>
   <trkpt lat="52.010674" lon="4.35457"><ele>1</ele></trkpt>
   <trkpt lat="52.010983" lon="4.354274"><ele>1</ele></trkpt>
   <trkpt lat="52.011325" lon="4.353934"><ele>1</ele></trkpt>
   <trkpt lat="52.013312" lon="4.351848"><ele>1</ele></trkpt>
   <trkpt lat="52.013555" lon="4.351579"><ele>1</ele></trkpt>
   <trkpt lat="52.014912" lon="4.350149"><ele>1</ele></trkpt>
   <trkpt lat="52.015227" lon="4.349816"><ele>1</ele></trkpt>
   <trkpt lat="52.015234" lon="4.349809"><ele>1</ele></trkpt>
   <trkpt lat="52.0154" lon="4.349632"><ele>1</ele></trkpt>
   <trkpt lat="52.01711" lon="4.347823"><ele>1</ele></trkpt>
   <trkpt lat="52.017117" lon="4.347815"><ele>1</ele></trkpt>
   <trkpt lat="52.017351" lon="4.347564"><ele>1</ele></trkpt>
   <trkpt lat="52.017731" lon="4.347141"><ele>1</ele></trkpt>
   <trkpt lat="52.017932" lon="4.34691"><ele>1</ele></trkpt>
   <trkpt lat="52.018526" lon="4.346198"><ele>1</ele></trkpt>
   <trkpt lat="52.020502" lon="4.343788"><ele>1</ele></trkpt>
   <trkpt lat="52.020521" lon="4.343764"><ele>1</ele></trkpt>
   <trkpt lat="52.020648" lon="4.343611"><ele>1</ele></trkpt>
   <trkpt lat="52.020744" lon="4.343493"><ele>0.75</ele></trkpt>
   <trkpt lat="52.021217" lon="4.342916"><ele>0.75</ele></trkpt>
   <trkpt lat="52.021974" lon="4.34198"><ele>0.75</ele></trkpt>
   <trkpt lat="52.021985" lon="4.341967"><ele>0.5</ele></trkpt>
   <trkpt lat="52.022328" lon="4.341533"><ele>0.5</ele></trkpt>
   <trkpt lat="52.02243" lon="4.341403"><ele>0.5</ele></trkpt>
   <trkpt lat="52.023282" lon="4.340316"><ele>0.5</ele></trkpt>
   <trkpt lat="52.023289" lon="4.340307"><ele>0.25</ele></trkpt>
   <trkpt lat="52.023867" lon="4.339569"><ele>0.25</ele></trkpt>
   <trkpt lat="52.028526" lon="4.333614"><ele>-0.25</ele></trkpt>
   <trkpt lat="52.02863" lon="4.333482"><ele>-0.25</ele></trkpt>
   <trkpt lat="52.028655" lon="4.33345"><ele>-0.25</ele></trkpt>
   <trkpt lat="52.029581" lon="4.332267"><ele>-0.5</ele></trkpt>
   <trkpt lat="52.031347" lon="4.33001"><ele>-0.75</ele></trkpt>
   <trkpt lat="52.031452" lon="4.329876"><ele>-0.75</ele></trkpt>
   <trkpt lat="52.031701" lon="4.329558"><ele>-0.75</ele></trkpt>
   <trkpt lat="52.03215" lon="4.328985"><ele>-1</ele></trkpt>
   <trkpt lat="52.032903" lon="4.328025"><ele>-1.75</ele></trkpt>
   <trkpt lat="52.035315" lon="4.324939"><ele>-4</ele></trkpt>
   <trkpt lat="52.036957" lon="4.32286"><ele>-3.75</ele></trkpt>
   <trkpt lat="52.037518" lon="4.32214"><ele>-3.5</ele></trkpt>
   <trkpt lat="52.037795" lon="4.321787"><ele>-3.5</ele></trkpt>
   <trkpt lat="52.037998" lon="4.321527"><ele>-3.5</ele></trkpt>
   <trkpt lat="52.03815" lon="4.321333"><ele>-3.5</ele></trkpt>
   <trkpt lat="52.038373" lon="4.321049"><ele>-3.5</ele></trkpt>
   <trkpt lat="52.038557" lon="4.320813"><ele>-3.5</ele></trkpt>
   <trkpt lat="52.03876" lon="4.320553"><ele>-3.5</ele></trkpt>
   <trkpt lat="52.039148" lon="4.320057"><ele>-3.25</ele></trkpt>
   <trkpt lat="52.039346" lon="4.319804"><ele>-3.25</ele></trkpt>
   <trkpt lat="52.039573" lon="4.319515"><ele>-3.25</ele></trkpt>
   <trkpt lat="52.040633" lon="4.318157"><ele>-3.25</ele></trkpt>
   <trkpt lat="52.040645" lon="4.318142"><ele>-3.25</ele></trkpt>
   <trkpt lat="52.040704" lon="4.318066"><ele>-3.25</ele></trkpt>
   <trkpt lat="52.040717" lon="4.318049"><ele>-3.25</ele></trkpt>
   <trkpt lat="52.040766" lon="4.317985"><ele>-3.25</ele></trkpt>
   <trkpt lat="52.040951" lon="4.317745"><ele>-3</ele></trkpt>
   <trkpt lat="52.042651" lon="4.315557"><ele>-2</ele></trkpt>
   <trkpt lat="52.043309" lon="4.314722"><ele>-1.5</ele></trkpt>
   <trkpt lat="52.043616" lon="4.314344"><ele>-1.25</ele></trkpt>
   <trkpt lat="52.04401" lon="4.313882"><ele>-1</ele></trkpt>
   <trkpt lat="52.044369" lon="4.313485"><ele>-0.75</ele></trkpt>
   <trkpt lat="52.04483" lon="4.313006"><ele>-0.5</ele></trkpt>
   <trkpt lat="52.045257" lon="4.312593"><ele>-0.25</ele></trkpt>
   <trkpt lat="52.045651" lon="4.312233"><ele>0</ele></trkpt>
   <trkpt lat="52.046009" lon="4.311919"><ele>0</ele></trkpt>
   <trkpt lat="52.046495" lon="4.311523"><ele>0.25</ele></trkpt>
   <trkpt lat="52.046734" lon="4.311339"><ele>0.25</ele></trkpt>
   <trkpt lat="52.046964" lon="4.311164"><ele>0.5</ele></trkpt>
   <trkpt lat="52.047531" lon="4.310762"><ele>0.75</ele></trkpt>
   <trkpt lat="52.048168" lon="4.310349"><ele>1</ele></trkpt>
   <trkpt lat="52.048817" lon="4.309973"><ele>1.5</ele></trkpt>
   <trkpt lat="52.049121" lon="4.309811"><ele>1.75</ele></trkpt>
   <trkpt lat="52.049759" lon="4.309505"><ele>1.75</ele></trkpt>
   <trkpt lat="52.050115" lon="4.309356"><ele>1.75</ele></trkpt>
   <trkpt lat="52.050501" lon="4.30921"><ele>1.75</ele></trkpt>
   <trkpt lat="52.051128" lon="4.309008"><ele>2</ele></trkpt>
   <trkpt lat="52.051147" lon="4.309002"><ele>2</ele></trkpt>
   <trkpt lat="52.051158" lon="4.308999"><ele>2</ele></trkpt>
   <trkpt lat="52.05135" lon="4.308945"><ele>2.5</ele></trkpt>
   <trkpt lat="52.051362" lon="4.308942"><ele>2.5</ele></trkpt>
   <trkpt lat="52.051366" lon="4.308941"><ele>2.5</ele></trkpt>
   <trkpt lat="52.051803" lon="4.308833"><ele>2.75</ele></trkpt>
   <trkpt lat="52.052263" lon="4.308739"><ele>3</ele></trkpt>
   <trkpt lat="52.052903" lon="4.308642"><ele>3.75</ele></trkpt>
   <trkpt lat="52.053362" lon="4.308597"><ele>4.75</ele></trkpt>
   <trkpt lat="52.053667" lon="4.308579"><ele>4.75</ele></trkpt>
   <trkpt lat="52.054007" lon="4.308569"><ele>4.75</ele></trkpt>
   <trkpt lat="52.054611" lon="4.308578"><ele>4.25</ele></trkpt>
   <trkpt lat="52.054778" lon="4.308585"><ele>2.75</ele></trkpt>
   <trkpt lat="52.055183" lon="4.308611"><ele>2.25</ele></trkpt>
   <trkpt lat="52.055671" lon="4.308656"><ele>3.75</ele></trkpt>
   <trkpt lat="52.056021" lon="4.3087"><ele>4</ele></trkpt>
   <trkpt lat="52.056609" lon="4.308802"><ele>4</ele></trkpt>
   <trkpt lat="52.057172" lon="4.308935"><ele>3.75</ele></trkpt>
   <trkpt lat="52.058153" lon="4.309229"><ele>3.75</ele></trkpt>
   <trkpt lat="52.058464" lon="4.309327"><ele>3.75</ele></trkpt>
   <trkpt lat="52.058515" lon="4.309343"><ele>3.75</ele></trkpt>
   <trkpt lat="52.058541" lon="4.309352"><ele>3.75</ele></trkpt>
   <trkpt lat="52.058561" lon="4.309358"><ele>3.75</ele></trkpt>
   <trkpt lat="52.058784" lon="4.309429"><ele>3.75</ele></trkpt>
   <trkpt lat="52.058872" lon="4.309459"><ele>3.75</ele></trkpt>
   <trkpt lat="52.058878" lon="4.309462"><ele>3.75</ele></trkpt>
   <trkpt lat="52.059388" lon="4.309645"><ele>3.75</ele></trkpt>
   <trkpt lat="52.059879" lon="4.309856"><ele>3</ele></trkpt>
   <trkpt lat="52.060464" lon="4.310145"><ele>3.25</ele></trkpt>
   <trkpt lat="52.060816" lon="4.310341"><ele>3.25</ele></trkpt>
   <trkpt lat="52.061188" lon="4.310575"><ele>3.75</ele></trkpt>
   <trkpt lat="52.061195" lon="4.310579"><ele>3.75</ele></trkpt>
   <trkpt lat="52.061655" lon="4.310884"><ele>3.5</ele></trkpt>
   <trkpt lat="52.062067" lon="4.311162"><ele>3.5</ele></trkpt>
   <trkpt lat="52.062267" lon="4.311311"><ele>3.25</ele></trkpt>
   <trkpt lat="52.062524" lon="4.311521"><ele>3.5</ele></trkpt>
   <trkpt lat="52.062884" lon="4.311852"><ele>3.5</ele></trkpt>
   <trkpt lat="52.063453" lon="4.312438"><ele>3.5</ele></trkpt>
   <trkpt lat="52.063584" lon="4.312576"><ele>3.5</ele></trkpt>
   <trkpt lat="52.063766" lon="4.312771"><ele>3.75</ele></trkpt>
   <trkpt lat="52.064108" lon="4.313143"><ele>3.75</ele></trkpt>
   <trkpt lat="52.06433" lon="4.313424"><ele>3.75</ele></trkpt>
   <trkpt lat="52.064575" lon="4.313653"><ele>3.5</ele></trkpt>
   <trkpt lat="52.065066" lon="4.31419"><ele>3</ele></trkpt>
   <trkpt lat="52.06536" lon="4.314529"><ele>3</ele></trkpt>
   <trkpt lat="52.065632" lon="4.314875"><ele>3</ele></trkpt>
   <trkpt lat="52.065969" lon="4.315353"><ele>3</ele></trkpt>
   <trkpt lat="52.06622" lon="4.315751"><ele>3.25</ele></trkpt>
   <trkpt lat="52.066474" lon="4.316192"><ele>3.5</ele></trkpt>
   <trkpt lat="52.066484" lon="4.31621"><ele>3.5</ele></trkpt>
   <trkpt lat="52.066629" lon="4.316467"><ele>3.75</ele></trkpt>
   <trkpt lat="52.066804" lon="4.316747"><ele>3.5</ele></trkpt>
   <trkpt lat="52.067023" lon="4.317065"><ele>3.5</ele></trkpt>
   <trkpt lat="52.067334" lon="4.317649"><ele>3.75</ele></trkpt>
   <trkpt lat="52.067567" lon="4.318169"><ele>3.75</ele></trkpt>
   <trkpt lat="52.067865" lon="4.318714"><ele>3.75</ele></trkpt>
   <trkpt lat="52.068077" lon="4.319133"><ele>3.75</ele></trkpt>
   <trkpt lat="52.068255" lon="4.319522"><ele>4.5</ele></trkpt>
   <trkpt lat="52.068566" lon="4.320222"><ele>4</ele></trkpt>
   <trkpt lat="52.068747" lon="4.320631"><ele>4</ele></trkpt>
   <trkpt lat="52.069034" lon="4.321278"><ele>3.5</ele></trkpt>
   <trkpt lat="52.069336" lon="4.321954"><ele>3.75</ele></trkpt>
   <trkpt lat="52.069668" lon="4.3227"><ele>3</ele></trkpt>
   <trkpt lat="52.0698" lon="4.322997"><ele>2.5</ele></trkpt>
   <trkpt lat="52.06992" lon="4.323252"><ele>3.25</ele></trkpt>
   <trkpt lat="52.07008" lon="4.323568"><ele>4</ele></trkpt>
   <trkpt lat="52.070524" lon="4.324376"><ele>4</ele></trkpt>
   <trkpt lat="52.070555" lon="4.324432"><ele>4</ele></trkpt>
   <trkpt lat="52.070654" lon="4.324615"><ele>3.75</ele></trkpt>
   <trkpt lat="52.071046" lon="4.32533"><ele>3.75</ele></trkpt>
   <trkpt lat="52.071356" lon="4.325903"><ele>3.25</ele></trkpt>
   <trkpt lat="52.07151" lon="4.32619"><ele>3.25</ele></trkpt>
   <trkpt lat="52.071598" lon="4.326353"><ele>3.25</ele></trkpt>
   <trkpt lat="52.071715" lon="4.32657"><ele>3</ele></trkpt>
   <trkpt lat="52.071723" lon="4.326585"><ele>3</ele></trkpt>
   <trkpt lat="52.071905" lon="4.326951"><ele>2.75</ele></trkpt>
   <trkpt lat="52.072036" lon="4.327258"><ele>3</ele></trkpt>
   <trkpt lat="52.072314" lon="4.32787"><ele>3</ele></trkpt>
   <trkpt lat="52.072424" lon="4.328107"><ele>3.25</ele></trkpt>
   <trkpt lat="52.073285" lon="4.329971"><ele>3</ele></trkpt>
   <trkpt lat="52.073477" lon="4.330367"><ele>2.75</ele></trkpt>
   <trkpt lat="52.073634" lon="4.33063"><ele>3</ele></trkpt>
   <trkpt lat="52.07382" lon="4.33087"><ele>2.75</ele></trkpt>
   <trkpt lat="52.073939" lon="4.330994"><ele>2.5</ele></trkpt>
   <trkpt lat="52.074087" lon="4.331121"><ele>2.5</ele></trkpt>
   <trkpt lat="52.074234" lon="4.331217"><ele>2.25</ele></trkpt>
   <trkpt lat="52.074366" lon="4.331285"><ele>2</ele></trkpt>
   <trkpt lat="52.074452" lon="4.33132"><ele>2.25</ele></trkpt>
   <trkpt lat="52.074611" lon="4.331366"><ele>2</ele></trkpt>
   <trkpt lat="52.07478" lon="4.331389"><ele>1.75</ele></trkpt>
   <trkpt lat="52.074927" lon="4.331388"><ele>1.5</ele></trkpt>
   <trkpt lat="52.075083" lon="4.331367"><ele>1.75</ele></trkpt>
   <trkpt lat="52.075295" lon="4.331298"><ele>1.5</ele></trkpt>
   <trkpt lat="52.075442" lon="4.331225"><ele>1</ele></trkpt>
   <trkpt lat="52.075534" lon="4.331168"><ele>1</ele></trkpt>
   <trkpt lat="52.07569" lon="4.331049"><ele>1</ele></trkpt>
   <trkpt lat="52.075782" lon="4.330968"><ele>1</ele></trkpt>
   <trkpt lat="52.076018" lon="4.33072"><ele>1</ele></trkpt>
   <trkpt lat="52.076063" lon="4.330666"><ele>1</ele></trkpt>
   <trkpt lat="52.07615" lon="4.330554"><ele>1</ele></trkpt>
   <trkpt lat="52.076331" lon="4.330291"><ele>1</ele></trkpt>
   <trkpt lat="52.076478" lon="4.330041"><ele>1</ele></trkpt>
   <trkpt lat="52.076665" lon="4.329758"><ele>1</ele></trkpt>
   <trkpt lat="52.076831" lon="4.329529"><ele>1</ele></trkpt>
   <trkpt lat="52.077265" lon="4.328913"><ele>1</ele></trkpt>
   <trkpt lat="52.077642" lon="4.32832"><ele>1</ele></trkpt>
   <trkpt lat="52.077711" lon="4.328209"><ele>1</ele></trkpt>
   <trkpt lat="52.077878" lon="4.32795"><ele>1</ele></trkpt>
   <trkpt lat="52.07814" lon="4.327577"><ele>1</ele></trkpt>
   <trkpt lat="52.078695" lon="4.32686"><ele>1</ele></trkpt>
   <trkpt lat="52.0795" lon="4.325832"><ele>1</ele></trkpt>
   <trkpt lat="52.080166" lon="4.324983"><ele>1</ele></trkpt>
   <trkpt lat="52.080631" lon="4.324388"><ele>1</ele></trkpt>
  </trkseg>
 </trk>
</gpx>