<?xml version="1.0" encoding="UTF-8"?>
<!-- track-length = 18813 filtered ascend = 44 plain-ascend = -17 cost=18813 energy=0.2kwh time=25m 5s -->
<gpx 
 xmlns="http://www.topografix.com/GPX/1/1" 
 xmlns:xsi="http://www.w3.org/2001/XMLSchema-instance" 
 xsi:schemaLocation="http://www.topografix.com/GPX/1/1 http://www.topografix.com/GPX/1/1/gpx.xsd" 
 version="1.1" 
 creator="BRouter-Web 0.18.1">
 <trk>
  <name>Al Marsa -&gt; معتمدية باب بحر (18.8km)</name>
  <trkseg>
   <trkpt lat="36.882887" lon="10.333644"><ele>19</ele></trkpt>
   <trkpt lat="36.882852" lon="10.333679"><ele>19</ele></trkpt>
   <trkpt lat="36.882477" lon="10.334054"><ele>21</ele></trkpt>
   <trkpt lat="36.882201" lon="10.334356"><ele>21</ele></trkpt>
   <trkpt lat="36.88199" lon="10.334667"><ele>21</ele></trkpt>
   <trkpt lat="36.881802" lon="10.335015"><ele>23</ele></trkpt>
   <trkpt lat="36.881619" lon="10.335379"><ele>25</ele></trkpt>
   <trkpt lat="36.881497" lon="10.335673"><ele>25</ele></trkpt>
   <trkpt lat="36.881385" lon="10.336021"><ele>25</ele></trkpt>
   <trkpt lat="36.880942" lon="10.33748"><ele>31.75</ele></trkpt>
   <trkpt lat="36.880754" lon="10.338033"><ele>36</ele></trkpt>
   <trkpt lat="36.880645" lon="10.338273"><ele>33.5</ele></trkpt>
   <trkpt lat="36.880559" lon="10.338436"><ele>33</ele></trkpt>
   <trkpt lat="36.880434" lon="10.338643"><ele>33</ele></trkpt>
   <trkpt lat="36.880315" lon="10.338789"><ele>33</ele></trkpt>
   <trkpt lat="36.880185" lon="10.338938"><ele>33</ele></trkpt>
   <trkpt lat="36.879878" lon="10.339207"><ele>38</ele></trkpt>
   <trkpt lat="36.879708" lon="10.339319"><ele>38</ele></trkpt>
   <trkpt lat="36.8795" lon="10.339448"><ele>38</ele></trkpt>
   <trkpt lat="36.879271" lon="10.339559"><ele>40.25</ele></trkpt>
   <trkpt lat="36.879076" lon="10.33963"><ele>42</ele></trkpt>
   <trkpt lat="36.878861" lon="10.339698"><ele>42</ele></trkpt>
   <trkpt lat="36.878664" lon="10.339739"><ele>42</ele></trkpt>
   <trkpt lat="36.878438" lon="10.339763"><ele>44.25</ele></trkpt>
   <trkpt lat="36.878064" lon="10.339725"><ele>45</ele></trkpt>
   <trkpt lat="36.877411" lon="10.339594"><ele>47</ele></trkpt>
   <trkpt lat="36.877071" lon="10.339532"><ele>47</ele></trkpt>
   <trkpt lat="36.876657" lon="10.339534"><ele>47</ele></trkpt>
   <trkpt lat="36.876412" lon="10.339568"><ele>46.75</ele></trkpt>
   <trkpt lat="36.87576" lon="10.339754"><ele>49</ele></trkpt>
   <trkpt lat="36.87532" lon="10.339897"><ele>53.5</ele></trkpt>
   <trkpt lat="36.87354" lon="10.340475"><ele>51.5</ele></trkpt>
   <trkpt lat="36.873317" lon="10.34057"><ele>51.25</ele></trkpt>
   <trkpt lat="36.873128" lon="10.340682"><ele>53.25</ele></trkpt>
   <trkpt lat="36.872936" lon="10.340814"><ele>55.5</ele></trkpt>
   <trkpt lat="36.872756" lon="10.340967"><ele>55.5</ele></trkpt>
   <trkpt lat="36.872552" lon="10.341178"><ele>51.75</ele></trkpt>
   <trkpt lat="36.872185" lon="10.341603"><ele>58.5</ele></trkpt>
   <trkpt lat="36.871939" lon="10.341872"><ele>60.75</ele></trkpt>
   <trkpt lat="36.871681" lon="10.342057"><ele>51.5</ele></trkpt>
   <trkpt lat="36.871435" lon="10.34216"><ele>51</ele></trkpt>
   <trkpt lat="36.871168" lon="10.342183"><ele>51</ele></trkpt>
   <trkpt lat="36.871012" lon="10.342173"><ele>51</ele></trkpt>
   <trkpt lat="36.870612" lon="10.342103"><ele>51</ele></trkpt>
   <trkpt lat="36.870106" lon="10.342018"><ele>51.5</ele></trkpt>
   <trkpt lat="36.869864" lon="10.341941"><ele>52</ele></trkpt>
   <trkpt lat="36.869708" lon="10.341847"><ele>52</ele></trkpt>
   <trkpt lat="36.869557" lon="10.341707"><ele>52</ele></trkpt>
   <trkpt lat="36.869408" lon="10.341538"><ele>52.25</ele></trkpt>
   <trkpt lat="36.869277" lon="10.341319"><ele>54.5</ele></trkpt>
   <trkpt lat="36.868891" lon="10.340541"><ele>57</ele></trkpt>
   <trkpt lat="36.868814" lon="10.340405"><ele>57</ele></trkpt>
   <trkpt lat="36.868391" lon="10.339823"><ele>55</ele></trkpt>
   <trkpt lat="36.866883" lon="10.337876"><ele>48</ele></trkpt>
   <trkpt lat="36.866608" lon="10.337521"><ele>49</ele></trkpt>
   <trkpt lat="36.86612" lon="10.336905"><ele>47</ele></trkpt>
   <trkpt lat="36.865855" lon="10.336665"><ele>48.75</ele></trkpt>
   <trkpt lat="36.865544" lon="10.336455"><ele>45.75</ele></trkpt>
   <trkpt lat="36.865169" lon="10.336298"><ele>43.75</ele></trkpt>
   <trkpt lat="36.864194" lon="10.335937"><ele>42.75</ele></trkpt>
   <trkpt lat="36.864013" lon="10.335871"><ele>43</ele></trkpt>
   <trkpt lat="36.862072" lon="10.335188"><ele>43</ele></trkpt>
   <trkpt lat="36.861661" lon="10.335041"><ele>46</ele></trkpt>
   <trkpt lat="36.860808" lon="10.334723"><ele>45</ele></trkpt>
   <trkpt lat="36.859917" lon="10.334403"><ele>47</ele></trkpt>
   <trkpt lat="36.859263" lon="10.334111"><ele>45.75</ele></trkpt>
   <trkpt lat="36.858828" lon="10.333869"><ele>46</ele></trkpt>
   <trkpt lat="36.858468" lon="10.333636"><ele>43.75</ele></trkpt>
   <trkpt lat="36.85779" lon="10.33313"><ele>44</ele></trkpt>
   <trkpt lat="36.8574" lon="10.332798"><ele>35</ele></trkpt>
   <trkpt lat="36.855122" lon="10.330571"><ele>23</ele></trkpt>
   <trkpt lat="36.855009" lon="10.330461"><ele>21</ele></trkpt>
   <trkpt lat="36.853541" lon="10.329005"><ele>21.75</ele></trkpt>
   <trkpt lat="36.853182" lon="10.32865"><ele>19</ele></trkpt>
   <trkpt lat="36.850191" lon="10.325707"><ele>18.25</ele></trkpt>
   <trkpt lat="36.849792" lon="10.325325"><ele>14</ele></trkpt>
   <trkpt lat="36.846224" lon="10.321853"><ele>7</ele></trkpt>
   <trkpt lat="36.8458" lon="10.321516"><ele>8.5</ele></trkpt>
   <trkpt lat="36.844872" lon="10.32081"><ele>9</ele></trkpt>
   <trkpt lat="36.844158" lon="10.320417"><ele>9</ele></trkpt>
   <trkpt lat="36.841692" lon="10.319158"><ele>4.75</ele></trkpt>
   <trkpt lat="36.841208" lon="10.318912"><ele>5</ele></trkpt>
   <trkpt lat="36.838498" lon="10.317512"><ele>3.5</ele></trkpt>
   <trkpt lat="36.838057" lon="10.317301"><ele>3.5</ele></trkpt>
   <trkpt lat="36.837623" lon="10.317113"><ele>3.25</ele></trkpt>
   <trkpt lat="36.836969" lon="10.316922"><ele>3</ele></trkpt>
   <trkpt lat="36.836338" lon="10.316673"><ele>4</ele></trkpt>
   <trkpt lat="36.835799" lon="10.316433"><ele>4</ele></trkpt>
   <trkpt lat="36.834566" lon="10.31569"><ele>3.25</ele></trkpt>
   <trkpt lat="36.833447" lon="10.314884"><ele>1</ele></trkpt>
   <trkpt lat="36.832035" lon="10.313887"><ele>0.25</ele></trkpt>
   <trkpt lat="36.83075" lon="10.312963"><ele>0</ele></trkpt>
   <trkpt lat="36.83069" lon="10.312923"><ele>0</ele></trkpt>
   <trkpt lat="36.828926" lon="10.311621"><ele>-1</ele></trkpt>
   <trkpt lat="36.827858" lon="10.310895"><ele>-1</ele></trkpt>
   <trkpt lat="36.825598" lon="10.309538"><ele>1</ele></trkpt>
   <trkpt lat="36.825204" lon="10.309305"><ele>1</ele></trkpt>
   <trkpt lat="36.824237" lon="10.308727"><ele>2.5</ele></trkpt>
   <trkpt lat="36.823831" lon="10.308498"><ele>3</ele></trkpt>
   <trkpt lat="36.820999" lon="10.306814"><ele>1</ele></trkpt>
   <trkpt lat="36.820857" lon="10.306721"><ele>1</ele></trkpt>
   <trkpt lat="36.820669" lon="10.306568"><ele>1.25</ele></trkpt>
   <trkpt lat="36.820496" lon="10.306408"><ele>1.25</ele></trkpt>
   <trkpt lat="36.820329" lon="10.306199"><ele>1.5</ele></trkpt>
   <trkpt lat="36.819928" lon="10.305648"><ele>2</ele></trkpt>
   <trkpt lat="36.819685" lon="10.305296"><ele>2</ele></trkpt>
   <trkpt lat="36.819485" lon="10.30502"><ele>2</ele></trkpt>
   <trkpt lat="36.819075" lon="10.304194"><ele>2</ele></trkpt>
   <trkpt lat="36.818028" lon="10.301982"><ele>2</ele></trkpt>
   <trkpt lat="36.81736" lon="10.300514"><ele>2</ele></trkpt>
   <trkpt lat="36.816734" lon="10.298861"><ele>0.25</ele></trkpt>
   <trkpt lat="36.816528" lon="10.298381"><ele>1</ele></trkpt>
   <trkpt lat="36.816508" lon="10.29833"><ele>1</ele></trkpt>
   <trkpt lat="36.816489" lon="10.298288"><ele>1</ele></trkpt>
   <trkpt lat="36.81643" lon="10.298139"><ele>1.5</ele></trkpt>
   <trkpt lat="36.816413" lon="10.298077"><ele>1.75</ele></trkpt>
   <trkpt lat="36.816391" lon="10.298022"><ele>2</ele></trkpt>
   <trkpt lat="36.816362" lon="10.297906"><ele>2</ele></trkpt>
   <trkpt lat="36.815364" lon="10.295322"><ele>1.25</ele></trkpt>
   <trkpt lat="36.81421" lon="10.292385"><ele>0.5</ele></trkpt>
   <trkpt lat="36.813753" lon="10.29114"><ele>0.25</ele></trkpt>
   <trkpt lat="36.813622" lon="10.290703"><ele>0.25</ele></trkpt>
   <trkpt lat="36.813537" lon="10.290386"><ele>0</ele></trkpt>
   <trkpt lat="36.813475" lon="10.290107"><ele>0</ele></trkpt>
   <trkpt lat="36.813463" lon="10.290029"><ele>0</ele></trkpt>
   <trkpt lat="36.813446" lon="10.289917"><ele>0</ele></trkpt>
   <trkpt lat="36.813437" lon="10.289754"><ele>0</ele></trkpt>
   <trkpt lat="36.813439" lon="10.289552"><ele>0</ele></trkpt>
   <trkpt lat="36.813458" lon="10.289095"><ele>-0.5</ele></trkpt>
   <trkpt lat="36.813446" lon="10.28883"><ele>-0.75</ele></trkpt>
   <trkpt lat="36.813405" lon="10.288547"><ele>-1.25</ele></trkpt>
   <trkpt lat="36.813347" lon="10.288253"><ele>-1.5</ele></trkpt>
   <trkpt lat="36.813248" lon="10.287913"><ele>-1.75</ele></trkpt>
   <trkpt lat="36.813096" lon="10.28757"><ele>-2</ele></trkpt>
   <trkpt lat="36.813023" lon="10.287355"><ele>-2</ele></trkpt>
   <trkpt lat="36.812968" lon="10.287135"><ele>-2</ele></trkpt>
   <trkpt lat="36.812753" lon="10.285785"><ele>-5.25</ele></trkpt>
   <trkpt lat="36.802309" lon="10.221612"><ele>-5</ele></trkpt>
   <trkpt lat="36.802285" lon="10.221462"><ele>-5.5</ele></trkpt>
   <trkpt lat="36.799515" lon="10.204484"><ele>-1</ele></trkpt>
   <trkpt lat="36.799434" lon="10.203983"><ele>-1.5</ele></trkpt>
   <trkpt lat="36.799404" lon="10.203763"><ele>-1.75</ele></trkpt>
   <trkpt lat="36.799389" lon="10.203578"><ele>-1.75</ele></trkpt>
   <trkpt lat="36.799381" lon="10.203397"><ele>-1.75</ele></trkpt>
   <trkpt lat="36.799386" lon="10.20324"><ele>-2</ele></trkpt>
   <trkpt lat="36.799403" lon="10.202986"><ele>-3</ele></trkpt>
   <trkpt lat="36.799432" lon="10.202702"><ele>-3.5</ele></trkpt>
   <trkpt lat="36.799488" lon="10.20224"><ele>-3</ele></trkpt>
   <trkpt lat="36.79957" lon="10.201757"><ele>-3</ele></trkpt>
   <trkpt lat="36.799627" lon="10.201483"><ele>-1.5</ele></trkpt>
   <trkpt lat="36.799693" lon="10.201213"><ele>-1.25</ele></trkpt>
   <trkpt lat="36.799855" lon="10.200655"><ele>-1</ele></trkpt>
   <trkpt lat="36.799937" lon="10.200403"><ele>-0.75</ele></trkpt>
   <trkpt lat="36.800689" lon="10.198484"><ele>0</ele></trkpt>
   <trkpt lat="36.800757" lon="10.198292"><ele>0</ele></trkpt>
   <trkpt lat="36.800816" lon="10.198096"><ele>0</ele></trkpt>
   <trkpt lat="36.800873" lon="10.197851"><ele>0.25</ele></trkpt>
   <trkpt lat="36.801084" lon="10.196834"><ele>0.75</ele></trkpt>
   <trkpt lat="36.801111" lon="10.196589"><ele>0.75</ele></trkpt>
   <trkpt lat="36.801103" lon="10.196154"><ele>0.75</ele></trkpt>
   <trkpt lat="36.801083" lon="10.195524"><ele>1</ele></trkpt>
   <trkpt lat="36.800988" lon="10.194603"><ele>1</ele></trkpt>
   <trkpt lat="36.80093" lon="10.194005"><ele>1</ele></trkpt>
   <trkpt lat="36.800889" lon="10.193652"><ele>1</ele></trkpt>
   <trkpt lat="36.800822" lon="10.193129"><ele>1</ele></trkpt>
   <trkpt lat="36.80079" lon="10.192935"><ele>1</ele></trkpt>
   <trkpt lat="36.800722" lon="10.192733"><ele>1</ele></trkpt>
   <trkpt lat="36.800707" lon="10.192659"><ele>1</ele></trkpt>
   <trkpt lat="36.800642" lon="10.192086"><ele>1</ele></trkpt>
   <trkpt lat="36.800641" lon="10.192084"><ele>1</ele></trkpt>
  </trkseg>
 </trk>
</gpx>